provider_name,type_of_care,address,city,state,zip,phone
La Rue Park Child Development Center,Child Care Center,50 Atrium Way,Davis,CA,95616,(530) 753-8716
Carousel Preschool,Child Care Center,8328 Airport Blvd.,Los Angeles,CA,90045,(310) 216-6641
Adventure Club - Quail Glen,Child Care Center,1250 Canevari Dr,Roseville,CA,95747,(916) 772-7529
Adventure Club - Coyote Ridge,Child Care Center,1751 Morningstar Dr,Roseville,CA,95747,(916) 772-7271
Azusa Discovery Center,Child Care Center,155 W. Arrow Highway,Azusa,CA,91702,(626) 334-1806
Light of Christ Children's Center,Child Care Center,336 South Kalmia Street,Escondido,CA,92025,(760) 745-6849
Little Peoples Corner Preschool/daycare,Child Care Center,3844 Walnut Drive #c,Eureka,CA,95503,(707) 445-0339
Kindercare Learning Center LLC,Child Care Center,5448 San Juan Ave,Citrus Heights,CA,95610,(916) 961-5599
Olive Knolls Christian School,Child Care Center,6201 Fruitvale Ave.,Bakersfield,CA,93308,(661) 393-3566
Peace Lutheran Early Childhood Education Center,Child Care Center,928 San Juan Rd,Sacramento,CA,95834,(916) 927-4060
Kids on Campus,Child Care Center,6889 El Fuerte Street,Carlsbad,CA,92009,(760) 744-4776
West Redding Preschool,Child Care Center,3493 Placer Street,Redding,CA,96001,(530) 243-2225
Kiddie Academy Child Care Learning Center,Child Care Center,3766 Mission Ave. Suite # 110,Oceanside,CA,92058,(760) 439-5552
KinderCare Learning Center LLC,Child Care Center,2417 S Centre City Pkwy,Escondido,CA,92025,(760) 745-2474
Action Day Learning Center,Child Care Center,400 Stafford Street,Folsom,CA,95630,(916) 985-0976
Childtime Children's Center,Child Care Center,9903 Camino Media,Bakersfield,CA,93311,(661) 665-7790
La Quinta Preschool,Child Care Center,49-955 Moon River Dr,La Quinta,CA,92253,(760) 564-2848
Heather Ridge Child Care Center,Child Care Center,820 St Marks Street,Redding,CA,96003,(530) 241-7226
Childtime Children's Center,Child Care Center,2320 Floyd Ave.,Modesto,CA,95355,(209) 551-0255
Adventure Club - Heritage Oak Elem. Sch.,Child Care Center,2271 Americana Way,Roseville,CA,95747,(916) 773-3959
KinderCare Learning Center,Child Care Center,917 Hampshire Rd,Westlake Village,CA,91361,(805) 494-5152
Girls Inc. Of Greater North Santa Barbara,Child Care Center,4973 Hollister Ave,Goleta,CA,93110,(805) 967-0319
KinderCare Education LLC,Child Care Center,11962 Perris Blvd,Moreno Valley,CA,92557,(951) 243-6558
Treehouse Christian Preschool 2,Child Care Center,3301 Coffee Rd.,Modesto,CA,95355,(209) 312-9449
Sefi Day School,Child Care Center,380 Telegraph Canyon Rd.,Chula Vista,CA,91910,(619) 422-7115
Childtime Children's Center,Child Care Center,3912 Honey Creek Road,Modesto,CA,95356,(209) 545-1664
Bright Horizons Tierrasanta,Child Care Center,6092 Santo Rd.,San Diego,CA,92124,(858) 467-1800
Merryhill School,Child Care Center,10249 Trinity Parkway,Stockton,CA,95219,(209) 474-0518
KinderCare Learning Center LLC,Child Care Center,2515 West Sunflower Ave,Santa Ana,CA,92704,(714) 540-4750
Childtime Children's Center,Child Care Center,27321 Nicolas Rd,Temecula,CA,92591,(951) 693-4843
Michelle Harris Family Child Care,Family Child Care Home,,San Diego,CA,92126,(858) 586-7239
La Petite Academy ,Child Care Center,12664 Sabre Springs Pkwy,San Diego,CA,92128,(858) 486-7197
Barajas Family Child Care,Family Child Care Home,,San Jacinto,CA,92583,(714) 334-1531
Tutor Time Learning Center at Fontana,Child Care Center,14273 Baseline Ave,Fontana,CA,92336,(909) 350-2422
KinderCare Learning Center LLC,Child Care Center,2515 E. South St.,Anaheim,CA,92806,(714) 774-5141
Noahs Ark Learning Center,Child Care Center,1410 Foothill Drive,Vista,CA,92084,(760) 724-5445
Heaven Sent,Child Care Center,520 Pine Ave.,Pacific Grove,CA,93950,(831) 373-1922
Tutor Time Child Care/Learning Center,Child Care Center,26624 Margarita Rd,Murrieta,CA,92563,(951) 461-7900
Narinder Family Child Care Home,Family Child Care Home,,Yuba City,CA,95993,(530) 674-5991
ABC Child Care Village,Child Care Center,40045 Village Road,Temecula,CA,92591,(951) 491-0940
ABC Child Care ,Child Care Center,29700 Solana Way,Temecula,CA,92591,(951) 699-5251
Gonzalez Haydee Family Child Care,Family Child Care Home,,Oceanside,CA,92056,(760) 631-2674
La Petite Academy at Vista,Child Care Center,725 Shadowridge Dr,Vista,CA,92083,(760) 727-0648
La Jolla Family YMCA- Torrey Pines Elementary,Child Care Center,8350 Cliffridge Ave,La Jolla,CA,92037,(858) 453-3483
Janet Anseline Welsh,Family Child Care Home,,Oceanside,CA,92057,(760) 724-9246
Elizabeth Garza Family Child Care,Family Child Care Home,,Vista,CA,92084,(760) 724-2759
La Petite Academy Inc-Grand Ave,Child Care Center,722 S. Grand Avenue,Diamond Bar,CA,91765,(909) 860-4009
Merry Go Round Learning Center ,Child Care Center,2749 Lemon Grove Ave,Lemon Grove,CA,91945,(619) 469-7281
Eberly Day Care,Family Child Care Home,,Oceanside,CA,92056,(760) 806-4710
KinderCare Learning Centers LLC,Child Care Center,1611 Woodcreek Dr,Fairfield,CA,94534,(707) 426-2275
Childtime Children's Center,Child Care Center,3911 Honey Creek Road,Modesto,CA,95356,(209) 545-1664
Bright Horizons Tierrasanta,Child Care Center,6090 Santo Rd.,San Diego,CA,92124,(858) 467-1800
Merryhill School,Child Care Center,10250 Trinity Parkway,Stockton,CA,95219,(209) 474-0518
La Petite Academy ,Child Care Center,12668 Sabre Springs Pkwy,San Diego,CA,92128,(858) 486-7197
ABC Child Care ,Child Care Center,29705 Solana Way,Temecula,CA,92591,(951) 699-5251
KinderCare Learning Centers LLC,Child Care Center,1606 Woodcreek Dr,Fairfield,CA,94534,(707) 426-2275
Learning Center Child Development Preschool,Child Care Center,17565 Los Alamos St,Fountain Valley,CA,92708,(714) 593-0753
Ivy Crest Montessori Private School,Child Care Center,2025 E. Chapman Ave.,Fullerton,CA,92831,(714) 879-6091
KinderCare Learning Center LLC,Child Care Center,453 E Foothill Blvd,San Dimas,CA,91773,(909) 599-0597
Kids' Care Club,Child Care Center,9991 Carmel Mountain Road #B8,San Diego,CA,92129,(858) 538-5437
KinderCare Learning Center LLC,Child Care Center,581 Peabody Rd,Vacaville,CA,95687,(707) 447-7685
Kindercare Learning Center LLC,Child Care Center,5396 Walnut Avenue,Irvine,CA,92604,(949) 551-6808
Poway Country Preschool,Child Care Center,14411 Norwalk Lane,Poway,CA,92064,(858) 486-4420
Hillcrest Country Day School,Child Care Center,1999 West Rd,La Habra Heights,CA,90631,(562) 943-8332
Hobbledehoy Montessori Preschool,Child Care Center,2321 Jane Ln.,Mountain View,CA,94043,(650) 968-1155
Barry Ted Moskowitz Child Care Center,Child Care Center,880 Front Street Suite 1295,San Diego,CA,92101,(619) 539-5569
Montessori School of Kearny Mesa,Child Care Center,3411 Sandrock Road,San Diego,CA,92123,(858) 505-0332
La Petite Academy - East J,Child Care Center,798 East J Street,Chula Vista,CA,91910,(619) 421-0966
KinderCare Learning Center LLC ,Child Care Center,8886 Vintage Park Dr,Sacramento,CA,95828,(916) 682-1111
New Life Figarden School,Child Care Center,4230 W Figarden Dr,Fresno,CA,93722,(559) 229-8687
Kindercare Learning Center LLC,Child Care Center,9735 Cuyamaca St,Santee,CA,92071,(619) 562-3423
Childtime Children's Center,Child Care Center,14700 Perris Blvd,Moreno Valley,CA,92553,(951) 242-0707
Campos Maritza Family Child Care,Family Child Care Home,,San Diego,CA,92115,(619) 583-7180
Brown Family Child Care,Family Child Care Home,,Murrieta,CA,92563,(619) 565-8667
KinderCare Learning Center LLC,Child Care Center,2354 Fenton Street,Chula Vista,CA,91914,(619) 656-9853
Sunshine House - Loma Vista Kid Zone,Child Care Center,2109 San Jose Ave,Brentwood,CA,94513,(925) 513-1113
Sylvia Alvarez-Tostado,Family Child Care Home,,San Diego,CA,92154,(619) 575-6791
Paulette Johnson,Family Child Care Home,,San Diego,CA,92113,(619) 527-0463
La Petite Academy Inc,Child Care Center,1910 W Kettleman Lane,Lodi,CA,95240,(209) 368-0303
KinderCare Learning Center LLC,Child Care Center,420 Natoma Station Dr,Folsom,CA,95630,(916) 353-0687
Discovery Isle Child Development Center,Child Care Center,32220 Temecula Parkway,Temecula,CA,92592,(951) 303-3055
STARS Preschool,Child Care Center,1402 Golden Hill Rd,Paso Robles,CA,93446,(805) 238-0200
KinderCare Learning Center LLC,Child Care Center,1100 Paseo Ladera,Chula Vista,CA,91910,(619) 482-1800
KinderCare Learning Center LLC ,Child Care Center,265 W. Grantline Road,Tracy,CA,95376,(209) 835-9247
Kindercare Learning Center LLC,Child Care Center,610 E Nuevo Rd,Perris,CA,92571,(951) 943-6476
Bradshaw Christian School,Child Care Center,8324 Bradshaw Rd,Sacramento,CA,95829,(916) 688-0521
"Owensbrown, Stephanie Family Child Care",Family Child Care Home,,Chula Vista,CA,91913,(619) 621-1764
Avan Family Child Care,Family Child Care Home,,Chula Vista,CA,91910,(619) 947-9190
KinderCare Learning Center LLC,Child Care Center,23301 Olivewood Plaza Dr.,Moreno Valley,CA,92553,(951) 924-1956
"Salvador, Ariel & Anita Family Child Care",Family Child Care Home,,San Diego,CA,92123,(858) 467-9821
Copley Family YMCA - Central Elementary-Preschool,Child Care Center,4063 Polk Avenue,San Diego,CA,92105,(619) 280-9622
South Coast YMCA-Hidden Hills,Child Care Center,25141 Hidden Hills Road,Laguna Niguel,CA,92677,(949) 542-3904
ABC Childrens Center of Rancho Bernardo,Child Care Center,12145 Alta Carmel Ct.,San Diego,CA,92128,(858) 451-1663
KinderCare Learning Center LLC,Child Care Center,24369 Skyview Ridge Dr,Murrieta,CA,92562,(951) 696-0825
"Robinson Tanner, Ericka Family Child Care",Family Child Care Home,,San Diego,CA,92114,(818) 318-6915
Calvary Christian Academy,Child Care Center,1771 E. Palomar St.,Chula Vista,CA,91913,(619) 591-2260
Shantell Padilla Family Child Care,Family Child Care Home,,San Diego,CA,92139,(619) 952-6997
KinderCare Learning Center LLC,Child Care Center,1200 Plum Tree Rd.,Carlsbad,CA,92011,(760) 435-0001
Wee Care Preschool,Child Care Center,3580 Mt. Acadia Blvd,San Diego,CA,92111,(858) 560-0985
New Generations Learning Center Plus,Child Care Center,9874 Hibert St,San Diego,CA,92131,(858) 271-9878
KinderCare Education LLC,Child Care Center,11290 Paseo Montanoso,San Diego,CA,92127,(858) 672-1200
La Petite Academy at Oceanside,Child Care Center,4179 Avenida Dela Plata,Oceanside,CA,92056,(760) 941-5406
KinderCare Education LLC,Child Care Center,10623 Treena Street,San Diego,CA,92131,(858) 271-4700
Community Congregational Church,Child Care Center,276 F Street,Chula Vista,CA,91910,(619) 420-2046
Lisa's Lil Tikes Preschool,Child Care Center,4351 Parks Ave,La Mesa,CA,91941,(619) 460-6432
Montessori School of Oceanside,Child Care Center,3525 Cannon Road,Oceanside,CA,92056,(760) 941-3883
Childtime Learning Center,Child Care Center,700 E Esplanade Dr,Oxnard,CA,93036,(805) 983-7779
Ames Child Care Center,Child Care Center,270 R.T. Jones Road,Mountain View,CA,94035,(650) 604-5100
Merryhill School-Danbrook,Child Care Center,1901 Danbrook Dr,Sacramento,CA,95835,(916) 285-8656
Josephine Allen Family Childcare,Family Child Care Home,,Oceanside,CA,92058,(619) 752-6007
Angelica's Childcare,Family Child Care Home,,San Diego,CA,92126,(858) 536-5991
Scripps Exploring Academy,Child Care Center,9855 Erma Rd Suite 128,San Diego,CA,92131,(858) 693-3702
Childtime Children's Center ,Child Care Center,4278 Via Rancho Road,Oceanside,CA,92057,(760) 967-5846
"Rosemont Playschool, Inc., Mather Playschool",Child Care Center,10265 Rockingham Dr Ste 150,Sacramento,CA,95827,(916) 366-5800
Childtime Children's Center-Chula Vista,Child Care Center,770 Rancho Del Rey Parkway,Chula Vista,CA,91910,(619) 397-0165
Castles Preschool,Child Care Center,55 Jan Ct.,Chico,CA,95928,(530) 892-2273
KinderCare Learning Center LLC,Child Care Center,5445 Canyon Crest Dr,Riverside,CA,92507,(951) 683-1626
Discovery Isle Child Development Center,Child Care Center,23785 Washington Avenue,Murrieta,CA,92562,(951) 304-3033
Southwestern College Child Development Center,Child Care Center,899 Otay Lakes Road,Chula Vista,CA,91910,(619) 216-6695
Kids' Care Club,Child Care Center,10414 Craftsman Way,San Diego,CA,92127,(858) 675-7000
Bonita Country Day School,Child Care Center,625 Otay Lakes Rd,Chula Vista,CA,91913,(619) 656-0141
Kindercare Learning Center LLC,Child Care Center,3536 College Blvd.,Oceanside,CA,92056,(760) 940-2008
Mission Nazarene Child Care Center,Child Care Center,4745 Mission Gorge Pl,San Diego,CA,92120,(619) 287-3211
LUSD Lemon Crest Elementary,Child Care Center,12463 Lemon Crest Drive,Lakeside,CA,92040,(619) 390-2534
LaVorgna BASES,Child Care Center,31778 Algarve Avenue,Winchester,CA,92596,(951) 506-7061
"Reyes, Maribel Family Child Care",Family Child Care Home,,Oceanside,CA,92054,(760) 696-8488
Action Day Primary Plus- Infant Center,Child Care Center,2154 Lincoln Avenue,San Jose,CA,95125,(408) 266-8188
Kindercare Learning Center LLC,Child Care Center,5141 Foothills Blvd.,Roseville,CA,95747,(916) 772-5252
Horizon Christian Preschool,Child Care Center,5331 Mt. Alifan Drive,San Diego,CA,92111,(858) 277-9376
KinderCare Learning Centers LLC,Child Care Center,2360 Pickwick Dr,Camarillo,CA,93010,(805) 445-8485
KinderCare Learning Center,Child Care Center,10110 Church Street,Rancho Cucamonga,CA,91730,(909) 945-9381
Marilla-Lakeside Early Advantage Preschool,Child Care Center,9747 Marilla Dr,Lakeside,CA,92040,(619) 390-2534
LUSD @ Winter Gardens,Child Care Center,9304 Winter Gardens Blvd,Lakeside,CA,92040,(619) 390-2534
LUSD ESS Lakeview Center,Child Care Center,9205 Lakeview Rd.,Lakeside,CA,92040,(619) 390-2534
LUSD Lindo Park,Child Care Center,12822 Lakeshore Dr.,Lakeside,CA,92040,(619) 390-2534
KinderCare Learning Center LLC,Child Care Center,2251 Sunset Blvd.,Rocklin,CA,95765,(916) 315-3399
Montessori East County Preschool - Preschool Location,Child Care Center,9840 Maine Ave,Lakeside,CA,92040,(619) 561-0902
Discovery Isle Child Development Center,Child Care Center,11740 Creek Road,Poway,CA,92064,(858) 536-1400
KinderCare Learning Center LLC,Child Care Center,6150 Agee St,San Diego,CA,92122,(858) 453-7530
Sunset Hills ESS Program,Child Care Center,9291 Oviedo St,San Diego,CA,92150,(878) 748-0010
Berumen Day Care,Family Child Care Home,,Oceanside,CA,92058,(760) 730-5306
Merry Go Around,Child Care Center,9175 Kearny Villa Rd,San Diego,CA,92126,(858) 536-1008
Sonia's Family Childcare,Family Child Care Home,,Vista,CA,92083,(760) 630-8676
KinderCare Education LLC,Child Care Center,1190 W. Herndon,Pinedale,CA,93650,(559) 438-7740
Montessori School of Oceanside #2,Child Care Center,4760 Oceanside Blvd Suite B10,Oceanside,CA,92056,(760) 724-8955
Hearts And Hands Christian Childcare Center and Preschool,Child Care Center,40 Blanca Lane,Watsonville,CA,95076,(831) 724-0175
Kids Town Montessori School,Child Care Center,867 Sycamore Ave.,Vista,CA,92081,(760) 598-5437
KinderCare Education LLC,Child Care Center,7920 Limonite Ave Suite G,Riverside,CA,92509,(951) 681-1440
Merryhill School - Harbour Pt.,Child Care Center,9563 Harbour Point Dr,Elk Grove,CA,95758,(916) 683-3244
Childtime Children's Center @ Pleasant Grove,Child Care Center,1271 Pleasant Grove Blvd,Roseville,CA,95747,(916) 783-0443
Maria Tanita,Family Child Care Home,,San Diego,CA,92106,(619) 226-2275
"Sprowell, Elizabeth and Robert Family Child Care",Family Child Care Home,,Oceanside,CA,92056,(760) 940-1953
Tutor Time Child Care Learning Center,Child Care Center,9440 Cuyamaca St,Santee,CA,92071,(619) 448-4445
All Saints Preschool ,Child Care Center,1940 Shadowridge Drive,Vista,CA,92081,(760) 598-8495
Shoreline Baptist Church/Shoreline Christian Preschool,Child Care Center,10353 Ellis Ave,Fountain Valley,CA,92708,(714) 962-6886
ChildTime Learning Center- Laguna Niguel,Child Care Center,24590 La Plata Drive,Laguna Niguel,CA,92677,(949) 495-4727
VUSD AM-PM,Child Care Center,1234 Arcadia Avenue,Vista,CA,92084,(760) 726-8179
Columbia Elementary School District,Child Care Center,10142 Old Oregon Trail,Redding,CA,96002,(530) 223-3874
KinderCare Learning Center LLC,Child Care Center,7897 Mission Grove Pkwy,Riverside,CA,92508,(951) 789-4762
Cajon Valley Union School,Child Care Center,3845 Avocado School Rd,La Mesa,CA,91941,(619) 441-6172
Childtime Children's Center,Child Care Center,8747 Sierra College Blvd.,Roseville,CA,95661,(916) 791-2530
Scripps Montessori School,Child Care Center,9939 Old Grove Rd,San Diego,CA,92131,(858) 566-3632
World Tots LA,Child Care Center,100 West 5th St,San Pedro,CA,90731,(310) 732-7697
KinderCare Learning Center LLC,Child Care Center,1470 Jamacha Rd,El Cajon,CA,92019,(619) 588-5959
Gordon Family Child Care,Family Child Care Home,,Torrance,CA,90504,(310) 327-3317
Pilgrim Lutheran School-Child Care Program,Child Care Center,500 E Street,Chula Vista,CA,91910,(619) 420-6233
Tutor Time Child Care/Learning Center,Child Care Center,5805 Corporate Avenue,Cypress,CA,90630,(714) 484-1000
KinderCare Learning Center LLC,Child Care Center,3223 N Associated Rd,Fullerton,CA,92835,(714) 990-0889
"Brown, Barbara Family Day Care",Family Child Care Home,,San Diego,CA,92129,(858) 571-8701
Promise Christian Preschool,Child Care Center,25664 Madison Ave,Murrieta,CA,92562,(951) 600-8201
Adventure Days Preschool,Child Care Center,10881 Tierrasanta Blvd,San Diego,CA,92124,(858) 560-5686
Santee School District Out-of-School Time Prorams- Carlton Oaks,Child Care Center,9353 Wethersfield,Santee,CA,92071,(619) 258-2363
Sherrie's Home Day Care,Family Child Care Home,,Shasta Lake,CA,96019,(530) 275-1935
Hope Lutheran Dayschool,Child Care Center,55 San Fernando Way,Daly City,CA,94015,(650) 991-4673
Grace Lutheran Child Development Center,Child Care Center,3967 Park Blvd,San Diego,CA,92103,(619) 987-0181
Children's Choice Learning Connection #4,Child Care Center,1268 N. Second St.,El Cajon,CA,92021,(619) 442-1685
Alpine Children's Academy,Child Care Center,2403 Alpine Blvd,Alpine,CA,91901,(619) 445-5462
KinderCare Learning Center LLC,Child Care Center,42111 E Florida Avenue,Hemet,CA,92544,(951) 927-8194
Tutor Time Child Care/Learning Center,Child Care Center,1211 Magnolia Ave Suite 101,Corona,CA,92881,(951) 736-5886
KinderCare Education LLC,Child Care Center,4727 Calaveras Ave,Fremont,CA,94538,(510) 791-2222
Kid's World Preschool,Child Care Center,41956 Third Street,Temecula,CA,92590,(951) 676-5445
Paloma BASES,Child Care Center,42940 Via Rami,Temecula,CA,92592,(951) 506-7061
"Kids Play, Inc",Child Care Center,1664 Hilby Ave,Seaside,CA,93955,(831) 899-9000
La Petite Academy Inc,Child Care Center,28043 Seco Canyon Rd,Saugus,CA,91350,(661) 297-0977
"Hills, Sylvia's Family Child Care",Family Child Care Home,,San Diego,CA,92154,(619) 243-9865
Lofton Family Child Care,Family Child Care Home,,Hemet,CA,92545,(951) 766-5081
Bonita Myers Family Daycare,Family Child Care Home,,El Cajon,CA,92021,(619) 444-9633
Eunice Mendoza Family Child Care,Family Child Care Home,,Turlock,CA,95382,(209) 656-0242
Romo Alejandra Family Child Care,Family Child Care Home,,San Diego,CA,92154,(619) 985-6214
KCE Champions LLC at Helen Casetllo Elementary,Child Care Center,9850 Fire Poppy Dr,Elk Grove,CA,95757,(916) 690-8718
Natividad Maristela,Family Child Care Home,,San Diego,CA,92154,(619) 941-1404
Fun Time Family Child Care,Family Child Care Home,,San Diego,CA,92154,(619) 271-8956
Julie Munoz Family Child Care,Family Child Care Home,,National City,CA,91950,(619) 773-7807
Socorro Gonzales,Family Child Care Home,,Murrieta,CA,92563,(951) 696-0974
Gold/Rodriguez Family Childcare,Family Child Care Home,,Winchester,CA,92596,(760) 766-5132
So. Bay Fam. YMCA - Discovery Elem.,Child Care Center,1098 Camino Biscay,Chula Vista,CA,91910,(619) 421-9622
KinderCare Education LLC,Child Care Center,12135 World Trade Dr,San Diego,CA,92128,(858) 487-6444
Kindercare Learning Center @ Old Depot,Child Care Center,10036 Old Depot Plaza Road,Chatsworth,CA,91311,(818) 882-8016
Learning Universe # 302,Child Care Center,5202 N Blythe Ave,Fresno,CA,93722,(559) 275-0627
KinderCare Learning Center LLC,Child Care Center,18525 West Soledad Canyon Road,Canyon Country,CA,91351,(661) 251-9176
KinderCare Learning Center LLC,Child Care Center,2425 Oakbrook Dr.,Thousand Oaks,CA,91362,(805) 492-2495
Kindercare Learning Center LLC,Child Care Center,3760 Brockton Dr,Pleasanton,CA,94588,(925) 846-1240
Kindercare Learning Center #984,Child Care Center,150 E Leland Rd,Pittsburg,CA,94565,(925) 432-8800
KinderCare Buena Ventura,Child Care Center,1197 S Victoria Avenue,Ventura,CA,93003,(805) 339-9363
KinderCare Learning Centers LLC,Child Care Center,1650 Stoner Creek Road,City of Industry,CA,91748,(626) 965-3550
KinderCare Education LLC,Child Care Center,1741 Santa Clara Dr,Roseville,CA,95661,(916) 784-1039
KinderCare Education LLC,Child Care Center,3431 Marlee way,Rocklin,CA,95677,(916) 624-7831
KinderCare Learning Center LLC,Child Care Center,9250 Elk Grove Florin Road,Elk Grove,CA,95624,(916) 714-2772
KinderCare Learning Center LLC,Child Care Center,6820 Purslane Way,Citrus Heights,CA,95621,(916) 723-9696
KinderCare Learning Center,Child Care Center,398 S. Abel St.,Milpitas,CA,95035,(408) 263-7212
KinderCare Learning Center LLC,Child Care Center,17730 Rinaldi St.,Granada Hills,CA,91344,(818) 363-8442
Kindercare Learning Center LLC,Child Care Center,8765 Sierra College Blvd,Roseville,CA,95661,(916) 789-9898
Kindercare Learning Center LLC,Child Care Center,4308 Folsom Drive,Antioch,CA,94531,(925) 754-3137
KinderCare Learning Center LLC,Child Care Center,993 E. Champlain Avenue,Fresno,CA,93720,(559) 433-6630
Juniorversity Inc.,Child Care Center,2400 S Central Ave,Compton,CA,90220,(310) 638-3500
KinderCare Learning Center LLC,Child Care Center,10194 Foothill Blvd.,Rancho Cucamonga,CA,91730,(909) 989-6136
KinderCare Learning Center LLC ,Child Care Center,43531 22nd St W,Lancaster,CA,93536,(661) 948-3570
KinderCare Learning Center LLC,Child Care Center,11925 Amador Valley Ct.,Dublin,CA,94568,(925) 875-0400
KinderCare Learning Center LLC,Child Care Center,1101 Rose Dr,Benicia,CA,94510,(707) 745-0916
KinderCare Education LLC,Child Care Center,4108 Lone Tree Way,Antioch,CA,94531,(925) 754-1236
KinderCare Learning Centers LLC,Child Care Center,33785 Yucaipa Boulevard,Yucaipa,CA,92399,(909) 797-4713
KinderCare Learning Center LLC,Child Care Center,1730 E. Washington St,Colton,CA,92324,(909) 824-1004
KinderCare Learning Center LLC,Child Care Center,2140 S. Euclid Ave,Ontario,CA,91762,(909) 983-5007
KinderCare Learning Centers LLC,Child Care Center,1175 Via Verde Rd,San Dimas,CA,91773,(909) 592-2220
Kindercare Learning Centers LLC,Child Care Center,25507 Moulton Parkway,Aliso Viejo,CA,92656,(949) 470-0099
KinderCare Learning Center LLC,Child Care Center,3808 Townsgate Drive,San Diego,CA,92130,(858) 794-7710
KinderCare Learning Centers LLC,Child Care Center,1610 Calvary Circle,Redlands,CA,92373,(909) 798-2987
KinderCare Learning Centers LLC,Child Care Center,30059 Santa Margarita Parkway,Rancho Santa Margarita,CA,92688,(949) 888-8880
KinderCare Learning Center,Child Care Center,28672 Deerpath,Las Flores,CA,92688,(949) 635-9413
KinderCare Learning Center LLC,Child Care Center,16149 W Foothill Blvd,Fontana,CA,92335,(909) 823-2323
KinderCare Learning Center LLC,Child Care Center,1 Bearpaw,Irvine,CA,92604,(949) 552-3222
KinderCare Education at Work LLC,Child Care Center,453 La Moree Rd,San Marcos,CA,92078,(760) 750-8750
"Kindercare Learning Centers, Inc. #1180",Child Care Center,30075 Alicia Parkway,Laguna Niguel,CA,92677,(949) 249-2321
KinderCare Learning Center LLC,Child Care Center,26915 Estanciero Dr.,Mission Viejo,CA,92691,(949) 830-7660
KinderCare Learning Center LLC,Child Care Center,13815 Peyton Dr,Chino Hills,CA,91709,(909) 464-2255
KinderCare Learning Center LLC,Child Care Center,1001 E Imperial Hwy.,Placentia,CA,92870,(714) 528-4161
"Childtime Childcare, Inc. @ Sierra",Child Care Center,2091 Sierra Ave,Clovis,CA,93611,(559) 297-5013
Kindercare Learning Center LLC,Child Care Center,15931 Los Serranos Country Club Drive,Chino Hills,CA,91709,(909) 606-7744
KinderCare Learning Center LLC,Child Care Center,10063 Paseo Montril,San Diego,CA,92129,(858) 484-3232
KinderCare Learning Center,Child Care Center,3602 Wheeler Ave,La Verne,CA,91750,(909) 596-8200
KinderCare Education at Work LLC,Child Care Center,10068 Pacific Heights Blvd,San Diego,CA,92121,(858) 546-9115
Sue's Happy Days Preschool and Childcare,Family Child Care Home,,Sacramento,CA,95826,(916) 363-5437
Good Shepherd Montessori School,Child Care Center,1349 W 25th St,San Pedro,CA,90732,(310) 547-4986
"Kindercare Learning Center, Inc. @ Oakdale",Child Care Center,1240 Oakdale Road,Modesto,CA,95355,(209) 521-5351
Kindercare Learning Center LLC,Child Care Center,1785 Villa Ave,Clovis,CA,93612,(559) 297-1888
KinderCare Education LLC,Child Care Center,10704 Scott Ave,Whittier,CA,90604,(562) 947-7100
KinderCare Learning Center,Child Care Center,1006 Metro Center Blvd,Foster City,CA,94404,(650) 573-6023
KinderCare Education LLC ,Child Care Center,13618 Bear Valley Road,Victorville,CA,92392,(760) 949-8539
KinderCare Learning Center LLC,Child Care Center,3959 Park Drive,El Dorado Hills,CA,95762,(916) 939-0391
Kindercare Learning Center LLC,Child Care Center,9394 Bruceville Road,Elk Grove,CA,95758,(916) 684-4040
Knowledge Learning Corp,Child Care Center,6095 Main St,Concord,CA,94517,(925) 672-9370
KinderCare Education LLC,Child Care Center,2321 Eagle Rock Ave,Brentwood,CA,94513,(925) 513-4118
KinderCare Education LLC,Child Care Center,2850 Cherry Lane,Walnut Creek,CA,94597,(925) 943-6777
KinderCare Learning Centers LLC,Child Care Center,1000 Corporate Dr,Ladera Ranch,CA,92694,(949) 364-0193
Tutor Time Child Care Learning Center @ Upland,Child Care Center,1001 E 16th St,Upland,CA,91784,(909) 579-0170
Three Angels Preschool and Infant Center,Child Care Center,6300 Telephone Rd,Ventura,CA,93003,(805) 639-0363
Alta Vista Child Development Center,Child Care Center,810 Knob Hill,Redondo Beach,CA,90277,(310) 798-8683
Maria Ledezma,Family Child Care Home,,San Diego,CA,92154,(619) 428-5517
KinderCare Learning Center LLC,Child Care Center,9946 Slater Avenue,Fountain Valley,CA,92708,(714) 968-4451
Kindercare Learning Center LLC,Child Care Center,9150 Peets Street,Elk Grove,CA,95758,(916) 684-9284
H Street Children's Center,Child Care Center,194 H St,Chula Vista,CA,91910,(619) 422-4904
Connie Vera,Family Child Care Home,,Chula Vista,CA,91911,(619) 656-8579
All Saints Episcopal Preschool,Child Care Center,648 Eucalyptus Ave.,Vista,CA,92084,(760) 945-6908
KinderCare Leaning Center,Child Care Center,1515 Cirby Way,Roseville,CA,95561,(916) 782-2101
Lujan Family Child Care,Family Child Care Home,,Sun City,CA,92586,(951) 679-0824
Poway Unified School District - Painted Rock ESS,Child Care Center,16711 Martincoit Road,Poway,CA,92064,(858) 521-2800
The Little Country Preschool,Child Care Center,1571 S. Hale Ave.,Escondido,CA,92029,(760) 746-0881
Loma Linda Children Center,Child Care Center,25227 Shepardson Dr ,Loma Linda,CA,92354,(909) 796-0161
Cottage Kids Children's Center,Child Care Center,2796 Cottage Way,Sacramento,CA,95825,(916) 979-2011
Little Scholars Preschool,Child Care Center,1605 Kimball Rd,Red Bluff,CA,96080,(530) 527-3932
"Williams, V & L., Santiago, C. Family Child Care",Family Child Care Home,,Spring Valley,CA,91977,(619) 479-8694
Koala Kubhouse Childcare Home,Family Child Care Home,,Murrieta,CA,92563,(619) 250-6067
Harrison Family Day Care,Family Child Care Home,,Santee,CA,92071,(619) 562-8925
Prestige Preschool Academy,Child Care Center,520 West Baseline Road,Claremont,CA,91711,(909) 399-0081
Concordia Church and School,Child Care Center,1695 Discovery Falls Drive,Chula Vista,CA,91915,(619) 656-8100
Palomar Family YMCA- Bernardo ,Child Care Center,1122 Mountain Heights Dr.,Escondido,CA,92029,(760) 745-7490
Palomar Family YMCA- Reidy Creek,Child Care Center,2870 N. Broadway,Escondido,CA,92026,(760) 745-7490
KCE Champions LLC at Sunrise Elementary,Child Care Center,11824 Cobble Brook Drive,Rancho Cordova,CA,95742,(916) 294-0061
New Montessori School,Child Care Center,15243 E. Nelson Avenue,La Puente,CA,91744,(626) 369-4335
"Ramirez, Maria Elena Family Child Care",Family Child Care Home,,San Diego,CA,92124,(858) 565-6591
The Dolphin Club,Child Care Center,155 Eastshore,Irvine,CA,92604,(949) 651-0152
The Growing Place Montessori,Child Care Center,13242 Pomerado Road,Poway,CA,92064,(858) 679-1554
Temple Beth El Child Development Center,Child Care Center,2675 Central Ave.,Riverside,CA,92506,(951) 682-7282
Kiddies Korner Montessori School,Child Care Center,8748 Goldcoast Dr.,San Diego,CA,92126,(858) 578-9740
Poway Unified School District - Pomerado Elementary School ESS,Child Care Center,12321 Ninth Street,Poway,CA,92064,(858) 521-2800
Tutor Time Child Care Learning Center,Child Care Center,7191 Boulder Ave,Highland,CA,92346,(909) 864-0829
Project SAFE at Carlton Hills,Child Care Center,9352 Pike Road,Santee,CA,92071,(619) 258-2369
Rainbow Early Learning Center,Child Care Center,20819 Parthenia St.,Winnetka,CA,91306,(818) 993-0424
Jennings Dymphna Family Childcare,Family Child Care Home,,Chula Vista,CA,91914,(619) 616-8527
Eastlake Community Church Preschool,Child Care Center,2351 Otay Lakes Rd,Chula Vista,CA,91915,(619) 421-4156
Erica's Lil Tikes Child Care,Family Child Care Home,,San Diego,CA,92124,(619) 841-8170
"Chez Grand Mere, Inc",Child Care Center,1510 West Almond Ave,Orange,CA,92862,(714) 634-8118
Jones Olivetta Russell,Family Child Care Home,,San Diego,CA,92113,(619) 237-1246
Santee School District @ Rio Seco,Child Care Center,9545 Cuyamaca Street,Santee,CA,92071,(619) 258-2235
St. Michael Preschool,Child Care Center,2637 Homedale Street,San Diego,CA,92139,(619) 472-5437
Temecula Valley Unified School District BASES,Child Care Center,45754 Wolf Creek Drive North,Temecula,CA,92592,(951) 506-7061
Childtime Children's Center @ World Trade,Child Care Center,One World Trade Center Ste 199,Long Beach,CA,90831,(562) 437-7498
Emerson Child Development Center,Child Care Center,2625 Josie Ave,Long Beach,CA,90815,(562) 421-8210
Green Family Child Care,Family Child Care Home,,Perris,CA,92570,(956) 657-7700
Sonshine Factory,Child Care Center,44509 20th St. W,Lancaster,CA,93534,(661) 949-3550
Santee School District - Chet F. Harritt School,Child Care Center,8120 Arlette Street,Santee,CA,92071,(619) 258-2369
Pinecrest Schools - Lancaster,Child Care Center,2110 West Ave K,Lancaster,CA,93536,(661) 723-0366
Discoveries Learning Center,Child Care Center,4519 Hollister Ave,Santa Barbara,CA,93110,(805) 683-3001
Bright Horizons at 221 Main Street,Child Care Center,221 Main St,San Francisco,CA,94105,(415) 495-1706
Faith Day Care Center,Child Care Center,505 East Bonita Ave,San Dimas,CA,91773,(909) 599-0783
East County Christian Preschool,Child Care Center,10701 N. Magnolia Ave.,Santee,CA,92071,(619) 258-2029
Bright Horizons at Garner,Child Care Center,2275 North Loop Rd,Alameda,CA,94502,(510) 769-5437
Bright Horizons at San Clemente,Child Care Center,2015 Calle Frontera,San Clemente,CA,92673,(949) 492-5555
Childtime Children's Center,Child Care Center,7901 Laguna Blvd,Elk Grove,CA,95758,(916) 691-3800
The Phoenix Schools (Carmichael),Child Care Center,2921 Garfield Avenue,Carmichael,CA,95608,(916) 481-6144
St. Mary's Preschool,Child Care Center,130 East. 13th Ave.,Escondido,CA,92025,(760) 743-1275
The Goddard School,Child Care Center,10710 Bear Hollow Dr,Rancho Cordova,CA,95670,(916) 861-0906
The Grey Rabbit Preschool Inc,Child Care Center,4539 Palm Ave,La Mesa,CA,91941,(619) 697-1551
Sandra Lechuga,Family Child Care Home,,Atascadero,CA,93422,(805) 466-8537
Center For Young Imaginations,Child Care Center,4885 Harbinson Ave,La Mesa,CA,91942,(619) 461-5408
"Miramontes, Carina Family Child Care",Family Child Care Home,,Chula Vista,CA,91910,(619) 934-1564
North Park Christian Preschool,Child Care Center,2901 North Park Way,San Diego,CA,92104,(619) 220-0372
Bright Horizons Encinitas,Child Care Center,1430 Amargosa,Encinitas,CA,92024,(760) 942-0500
Yahjian Family Child Care,Family Child Care Home,,La Canada Flintridge,CA,91011,(818) 957-6369
Bright Horizons at Dublin,Child Care Center,7035 Dublin Blvd,Dublin,CA,94568,(925) 479-9573
Marisa Martinez Family Child Care,Family Child Care Home,,Chula Vista,CA,91911,(619) 585-7424
Good Shepherd Preschool,Child Care Center,4800 Irvine Center Drive,Irvine,CA,92604,(949) 552-1967
YMCA Of Metro LA- North Valley,Child Care Center,11629 Indian Hills Rd,Mission Hills,CA,91345,(818) 368-3231
The Learning Center,Child Care Center,1570 Marion St.,Kingsburg,CA,93631,(559) 897-7928
Debbie Galvez Family Childcare,Family Child Care Home,,San Diego,CA,92139,(619) 267-8105
Scripps Tender Loving Care,Family Child Care Home,,San Diego,CA,92131,(858) 621-0631
Arroyos Family Child Care,Family Child Care Home,,Murrieta,CA,92563,(760) 505-0937
My Room to Grow Preschool,Child Care Center,13613 Cynthia Ln.,Poway,CA,92064,(858) 776-1468
"Ramirez, Cruz Family Child Care",Family Child Care Home,,Oceanside,CA,92057,(760) 613-3501
Patricia Delgado Family Child Care,Family Child Care Home,,Chula Vista,CA,91914,(619) 656-9615
Coronado Baptist Child Care Center,Child Care Center,111 Orange Ave.,Coronado,CA,92118,(619) 435-8121
The Phoenix Schools (Carmichael),Child Care Center,2920 Garfield Avenue,Carmichael,CA,95608,(916) 481-6144
The Grey Rabbit Preschool Inc,Child Care Center,4542 Palm Ave,La Mesa,CA,91941,(619) 697-1551
YMCA Of Metro LA- North Valley,Child Care Center,11630 Indian Hills Rd,Mission Hills,CA,91345,(818) 368-3231
Anne Sullivan Preschool and Kindergarten,Child Care Center,21776 Palomar St.,Wildomar,CA,92595,(951) 678-3557
"Juarez, Sherry",Family Child Care Home,,National City,CA,91950,(619) 263-9955
Portside Montessori,Child Care Center,2700 Linden Road,West Sacramento,CA,95691,(916) 372-7838
Tutor Time,Child Care Center,5309 Beach Blvd,Buena Park,CA,90621,(714) 690-0112
KCE Champions LLC at Marengo Ranch Elementary,Child Care Center,1000 Elk Hills Drive,Galt,CA,95632,(916) 753-7001
Bussey Family Child Care,Family Child Care Home,,Temecula,CA,92592,(951) 240-7853
"Johnson, Keysha Licensed Family Child Care",Family Child Care Home,,San Diego,CA,92114,(619) 512-1540
Step by Step Christian Preschool & Infant Center,Child Care Center,755 Civic Center Drive,Vista,CA,92084,(760) 941-8991
Pinecrest Schools,Child Care Center,4974 Cochran Ave,Simi Valley,CA,93063,(805) 527-6015
Hordagoda Roshini Sivapriya,Family Child Care Home,,Woodland Hills,CA,91637,(818) 887-0852
Marisol Cochran Day Care,Family Child Care Home,,Oceanside,CA,92056,(760) 295-6826
Palomar Community College ECE Lab School,Child Care Center,1140 W Mission Road,San Marcos,CA,92069,(760) 744-1150
Maryvale Early Education Center,Child Care Center,7600 E Graves Ave,Rosemead,CA,91770,(626) 537-3316
Child Prodigy,Family Child Care Home,,National City,CA,91950,(619) 534-5385
R Lil Angels Day care ,Family Child Care Home,,Antioch,CA,94509,(925) 727-5268
Deborah Eaton,Family Child Care Home,,Spring Valley,CA,91977,(619) 466-8340
Katie's Kids,Family Child Care Home,,Chula Vista,CA,91913,(619) 656-2272
Martha Family Child Care,Family Child Care Home,,San Diego,CA,92104,(619) 283-5269
LiL Giggles Daycare,Family Child Care Home,,San Diego,CA,92154,(619) 869-4177
Tutor Time Learning Center,Child Care Center,25804 Hemingway Avenue,Stevenson Ranch,CA,91381,(661) 799-1990
Penny & Peggy Nairn 24 Hour Childcare ,Child Care Center,9216 N. Columbus Ave,North Hills,CA,91342,(818) 652-7618
Penny And Peggy Nairn 24 Hour Childcare,Child Care Center,15300 Dearborn,North Hills,CA,91343,(818) 652-7618
Kountry Kids Preschool,Child Care Center,224 S. Shepherd St.,Sonora,CA,95370,(209) 533-1500
Bright Horizons Del Mar,Child Care Center,3720 Arroyo Sorrento Rd,San Diego,CA,92130,(858) 509-0419
Childtime Children's Center,Child Care Center,1000 S State College Blvd,Anaheim,CA,92806,(714) 772-7225
Kids Care Club,Child Care Center,40665 Winchester Rd,Temecula,CA,92591,(951) 296-9456
Margarita's Child Care,Family Child Care Home,,San Diego,CA,92105,(619) 563-1982
4th R-H. Allen Hights,Child Care Center,3200 North Park Drive,Sacramento,CA,95835,(916) 566-6422
"Medina, Mary Family Child Care",Family Child Care Home,,San Diego,CA,92110,(619) 251-6067
"Abdullah, Donna Family Child Care",Family Child Care Home,,San Diego,CA,92117,(858) 278-0260
Bowers Child Development Infant Program,Child Care Center,1840 Benton Ave,Santa Clara,CA,95050,(408) 423-1115
Susan Ronquillo Family Child Care,Family Child Care Home,,Spring Valley,CA,91977,(619) 890-4282
Montessori School of San Diego,Child Care Center,1323 W. Spruce St.,San Diego,CA,92103,(619) 295-7591
Merryhill School-Karitsa,Child Care Center,2855 Karitsa Avenue,Sacramento,CA,95833,(916) 575-9603
Budnie Skelton,Family Child Care Home,,Sacramento,CA,95832,(916) 397-0495
Y's Kids Linwood/Visalia YMCA,Child Care Center,3129 S. Lindwood,Visalia,CA,93277,(559) 627-0700
Peregrine Project,Child Care Center,2907 Portage Bay West,Davis,CA,95616,(530) 753-5500
All Day Fun & Play Preschool & Child Care Center ,Child Care Center,2220 Pennsylvania Ave,Fairfield,CA,94533,(707) 639-8566
Apple Valley Child Care,Child Care Center,18609 Corwin Road,Apple Valley,CA,92307,(760) 242-5437
Kiddie Academy of Vacaville,Child Care Center,880 Alamo Dr,Vacaville,CA,95688,(707) 446-4222
Del Mar Union School District,Child Care Center,13555 Boquita Dr,Del Mar,CA,92014,(858) 793-0071
"Garcia, Maria Family Child Care",Family Child Care Home,,Spring Valley,CA,91977,(619) 267-8025
One World Montessori School ,Child Care Center,2495 Cabrillo Avenue,Santa Clara,CA,95051,(408) 615-1254
Canyon Montessori Center,Child Care Center,761 S Weir Canyon Road,Anaheim Hills,CA,92808,(714) 974-1365
All Saints Episcopal School Preschool,Child Care Center,3674 Seventh Ave.,San Diego,CA,92103,(619) 298-0313
Greer Family Child Care,Family Child Care Home,,Winchester,CA,92596,(951) 452-6345
Childtime Children's Center ,Child Care Center,6635 Alhambra Ave Suite 300,Martinez,CA,94553,(925) 947-6800
Jones-Bennett Family Child Care,Family Child Care Home,,Perris,CA,92571,(951) 940-5735
Cynthia Inez-Punogin,Family Child Care Home,,Palmdale,CA,93550,(661) 998-0037
Saddleback Valley YMCA,Child Care Center,23072 Avenida Empressa,Rancho Santa Margarita,CA,92688,(949) 380-3502
Crystal Lotz,Family Child Care Home,,Yucca Valley,CA,92284,(760) 369-0618
La Petite Academy,Child Care Center,623 W Baseline Rd.,Rialto,CA,92376,(909) 874-5113
Patricia Cruz,Family Child Care Home,,San Diego,CA,92117,(858) 974-1509
Evelyn Martin,Family Child Care Home,,Vallejo,CA,94589,(707) 645-0774
La Costa Valley Preschool & Kindergarten,Child Care Center,2276 Calle Barcelona,Carlsbad,CA,92009,(760) 436-2797
Debra Ann Angelone,Family Child Care Home,,Lake Elsinore,CA,92530,(951) 471-2547
Rita Ruiz Family Child Care,Family Child Care Home,,Lemon Grove,CA,91945,(619) 713-0399
Adriana Hernandez,Family Child Care Home,,Menifee,CA,92584,(951) 679-9799
Cheryl Miller Family Child Care,Family Child Care Home,,San Diego,CA,92119,(619) 644-8711
Maria Jones,Family Child Care Home,,San Diego,CA,92139,(619) 721-5679
"Alvarado, Olga Family Child Care",Family Child Care Home,,El Cajon,CA,92020,(619) 440-2048
Happy DayCare for Infants and Toddlers,Family Child Care Home,,San Diego,CA,92104,(619) 646-4155
Goshen Day Care,Family Child Care Home,,Visalia,CA,93291,(559) 651-3353
Lake Elsinore USD Child Care Program,Child Care Center,520 Chaney St,Lake Elsinore,CA,92530,(951) 253-7055
Sommers Family Childcare,Family Child Care Home,,Atascadero,CA,93422,(805) 466-0933
Ghislaine Francis Staden,Family Child Care Home,,San Jose,CA,95132,(408) 263-2466
Kent Family Child Care,Family Child Care Home,,Vista,CA,92081,(760) 727-8463
La Petite Academy @ Carmel Mountain,Child Care Center,10050 Carmel Mtn. Rd.,San Diego,CA,92129,(858) 484-2654
Lockett Family Child Care,Family Child Care Home,,San Diego,CA,92114,(619) 581-4829
Priscilla Blancarte,Family Child Care Home,,Cathedral City,CA,92234,(760) 416-7770
KinderCare Education at Work LLC,Child Care Center,24000 Avila Rd. Ste 3409,Laguna Niguel,CA,92677,(949) 360-2004
McGaugh Elementary Extended Daycare,Child Care Center,1698 Bolsa Avenue,Seal Beach,CA,90740,(562) 799-4700
"Dawson, Tamra Family Child Care",Family Child Care Home,,El Cajon,CA,92019,(619) 334-1314
Maria Casas,Family Child Care Home,,Cardiff,CA,92007,(760) 917-1114
The Wunderkind Corp,Family Child Care Home,,San Ramon,CA,94582,(925) 230-8614
"Las Posas Children's Center, Inc. ",Child Care Center,8880 Halifax St.,Ventura,CA,93004,(805) 644-4344
Vandyke Family Daycare,Family Child Care Home,,Corona,CA,92883,(951) 277-3912
Waugh Kids Care - Preschool,Child Care Center,880 Maria Dr,Petaluma,CA,94954,(707) 762-0202
Sonia Terriquez Family Day Care,Family Child Care Home,,Chula Vista,CA,91911,(619) 476-0244
KinderCare Learning Center LLC,Child Care Center,4514 Lark Ellen Dr,Covina,CA,91722,(626) 332-4001
Linton Family Child Care,Family Child Care Home,,Ramona,CA,92065,(760) 789-7047
South Bay YMCA - MC Millin Elementary,Child Care Center,1201 Santa Cora Ave,Chula Vista,CA,91913,(619) 421-9622
Melba Whitaker,Family Child Care Home,,Sacramento,CA,95831,(916) 393-3603
Lewis Family Child Care,Family Child Care Home,,Rancho Cucamonga,CA,91730,(909) 477-3332
Lifetime Montessori,Child Care Center,14727 Camino de la Luna,San Diego,CA,92127,(858) 759-0631
South Hills CommunityChurch,Child Care Center,2584 S. Main Street,Corona,CA,92881,(951) 734-4455
Holy Family Preschool / Daycare Center,Child Care Center,7817 Old Auburn Road,Citrus Heights,CA,95610,(916) 722-4620
La Petite Academy - Rancho Cordova,Child Care Center,11378 Coloma Rd,Gold River,CA,95670,(916) 638-5423
Angels Nest Child Development Center,Child Care Center,475 Florin Rd.,Sacramento,CA,95831,(916) 428-4651
"Cabana, Sarah & Jack Jr. Family Child Care",Family Child Care Home,,Chula Vista,CA,91910,(619) 207-0012
Bay Christian School,Child Care Center,4720 Evora Rd,Concord,CA,94520,(925) 458-9872
Saddleback Valley YMCA - Las Flores,Child Care Center,25862 Antonio Pkwy,Las Flores,CA,92688,(949) 380-3502
Robert H. Lange Preschool,Child Care Center,24772 Chrisanta Drive,Mission Viejo,CA,92691,(949) 837-2500
"Cadence Education, Inc Â– Clarksville ",Child Care Center,76 Clarksville Road,Folsom,CA,95630,(916) 983-0224
FSD Preschool at Discovery School,Child Care Center,7500 Vaquero Avenue,Bakersfield,CA,93308,(661) 589-3830
Merryhill School,Child Care Center,7335 Park City Drive,Sacramento,CA,95831,(916) 424-2299
Alphabet Soup Childcare,Child Care Center,1224 Cottonwood Street,Woodland,CA,95695,(530) 666-4859
Kristina Nevarez,Family Child Care Home,,Lemon Grove,CA,91945,(619) 309-7230
"Mendoza, Michelle & Steven",Family Child Care Home,,San Jose,CA,95148,(408) 274-6181
Maricruz Vera,Family Child Care Home,,Woodland,CA,95695,(530) 668-1676
Childtime Children's Center Inc ,Child Care Center,12421 Springdale St,Garden Grove,CA,92845,(714) 894-4250
STAR Creekside Oaks,Child Care Center,2030 First St Room 9,Lincoln,CA,95648,(916) 434-8085
So. Bay Fam. YMCA - Heritage,Child Care Center,1450 Santa Lucia Rd,Chula Vista,CA,91913,(619) 421-9622
Highland Ranch ESS,Child Care Center,14840 Waverly Downs Way,San Diego,CA,92128,(858) 521-2800
Los Alamitos Child Development Center/LAE & Extended Day,Child Care Center,10862 Bloomfield St,Los Alamitos,CA,90720,(562) 799-4700
Ella Hughes,Family Child Care Home,,Seaside,CA,93955,(831) 917-3053
Carrillo Family Child Care,Family Child Care Home,,Victorville,CA,92392,(760) 951-9009
Mulberry Tree Preschool,Child Care Center,13841 E. Christine Dr.,Whittier,CA,90605,(562) 696-5114
Rainbow Canyon Preschool & Day Care,Child Care Center,4122 Chino Avenue,Chino,CA,91710,(909) 591-4476
Alpine Country Day School,Child Care Center,1508 Midway Drive,Alpine,CA,91901,(619) 445-3333
Christ Community Preschool,Child Care Center,25382 Mackenzie,Laguna Hills,CA,92653,(949) 586-5030
Irlanda Ramos,Family Child Care Home,,San Diego,CA,92113,(619) 266-4305
Amasha Griffin,Family Child Care Home,,Apple Valley,CA,92308,(760) 247-5027
House's Family Daycare,Family Child Care Home,,Fallbrook,CA,92028,(760) 645-3303
YMCA Metropolitan of Los Angeles,Child Care Center,23350 Justice Street,West Hills,CA,91304,(818) 999-2006
Catalina M. Espino,Family Child Care Home,,Murrieta,CA,92563,(760) 212-7933
Kimberly Gillespie Family Daycare Home,Family Child Care Home,,San Diego,CA,92139,(619) 434-7475
Zenaida Mendoza-Lopez,Family Child Care Home,,Mather,CA,95655,(916) 362-4008
Joyful Hearts Learning Center,Child Care Center,9590 Chocolate Summit Dr,El Cajon,CA,92021,(619) 561-4777
Poway Unified School District - Morning Creek ESS,Child Care Center,10925 Morning Creek Dr. S.,San Diego,CA,92128,(858) 521-2800
Messiah Lutheran Chruch,Child Care Center,4861 Liverpool St.,Yorba Linda,CA,92886,(714) 528-8632
CCLC - Capital City ,Child Care Center,744 P. Street,Sacramento,CA,95814,(916) 444-0029
Anchondo Family Chile Care,Family Child Care Home,,Glendora,CA,91740,(626) 347-5112
Tutor Time,Child Care Center,610 E Dunne Ave,Morgan Hill,CA,95037,(408) 778-1977
Tiny Fingers and Toes,Family Child Care Home,,San Marcus,CA,92069,(760) 877-3434
A Sunny Daycare,Family Child Care Home,,san diego ,CA,92123,(858) 569-4901
Extended Day Child Care - Frederiksen,Child Care Center,7243 Tamarack Drive,Dublin,CA,94568,(925) 833-0127
Rocking Horse Ranch Preschool,Child Care Center,4134 Fairway Dr.,Soquel,CA,95073,(831) 462-2702
Maureen Vasquez,Child Care Center,4500 Redwood Road,Oakland,CA,94619,(510) 531-1302
Bright Corner FCC,Family Child Care Home,,National City,CA,91950,(619) 479-3762
Francisca Harris,Family Child Care Home,,Chula Vista,CA,91915,(619) 781-8212
Healthy Toddlers Care,Family Child Care Home,,San Diego,CA,92115,(619) 582-4557
Maryvale,Child Care Center,2502 E Huntington Dr,Duarte,CA,91010,(626) 357-1514
Elysa Carter,Family Child Care Home,,Sacramento,CA,95833,(916) 504-0785
La Petite Academy,Child Care Center,999 E Teague,Fresno,CA,93720,(559) 431-7330
Shell Beach YMCA,Child Care Center,2100 Shell Beach Road,Shell Beach,CA,93449,(805) 773-1439
Happy Tots Montessori School & Infant Center,Child Care Center,1518 Pacific Coast Hwy,Harbor City,CA,90710,(310) 891-6080
Coast Kids Preschool,Child Care Center,1330 Poinsettia Ln,Carlsbad,CA,92011,(760) 579-4190
Nelson Family Child Care,Family Child Care Home,,Norwalk,CA,90650,(562) 219-0040
Ceballos Family Child Care,Family Child Care Home,,Temecula,CA,92592,(951) 553-1681
Temecula Valley Unified School District BASES at Tony Tobin,Child Care Center,45200 Morgan Hill Drive,Temecula,CA,92592,(951) 506-7061
Children's Castle,Child Care Center,1052 E Madison Ave,El Cajon,CA,92021,(619) 593-6090
School Time Montessori,Child Care Center,10235 Wells Avenue,Riverside,CA,92503,(951) 689-1151
Garcia Family Child Care,Family Child Care Home,,Whittier,CA,90601,(562) 508-9177
Merryhill Country School at Elk Grove,Child Care Center,6613 Laguna Park Dr.,Elk Grove,CA,95758,(916) 684-4044
Next Generation Educational Center,Child Care Center,1467 Granite Hills,El Cajon,CA,92019,(619) 441-8800
Egoavil Family Child Care,Family Child Care Home,,Alhambra,CA,91801,(626) 458-9021
Sandra Delucchi Family Daycare,Family Child Care Home,,Chula Vista,CA,91915,(619) 656-8441
"Washington, Elainea Family Child Care",Family Child Care Home,,Spring Valley,CA,91977,(619) 646-9905
Temecula Montessori Academy,Child Care Center,27633  Jefferson Avenue,Temecula,CA,92590,(951) 676-6464
"Sanabia, Rosa Family Child Care",Family Child Care Home,,Chula Vista,CA,91910,(619) 730-6799
"Millan, Griselda and Raul Family Child Care",Family Child Care Home,,San Diego,CA,92154,(619) 227-5908
Amy Child Care,Family Child Care Home,,West Sacramento,CA,96591,(916) 376-0839
"Kelley, Deborah Family Childcare",Family Child Care Home,,San Diego,CA,92114,(619) 697-8284
Progressive Play Preschool,Child Care Center,16315 Bear Valley Road,Hesperia,CA,92345,(760) 956-4960
World Changers Academy,Child Care Center,466 East H St.,Dixon,CA,95620,(707) 365-5639
Glenna Shire,Family Child Care Home,,Roseville,CA,95661,(916) 788-0526
Building Kidz School,Child Care Center,254 East Dana Street,Mountain View,CA,94041,(650) 967-8000
Pilavian Family Child Care,Family Child Care Home,,Granada Hills,CA,91344,(818) 366-9392
Montessori Children's House of Lemon Grove,Family Child Care Home,,San Diego,CA,92114,(619) 825-5557
"Barnes, Renee Family Child Care Home",Family Child Care Home,,Susanville,CA,96130,(530) 257-0873
Rook Family Child Care,Family Child Care Home,,Menifee,CA,92585,(951) 246-3267
Judy Joulios,Family Child Care Home,,San Francisco,CA,94080,(650) 755-3067
"Webster, Karen",Family Child Care Home,,San Jose,CA,95136,(408) 360-9978
"Villalpando, Maria",Family Child Care Home,,San Jose,CA,95127,(408) 254-2332
"Haney, Christy Family Child Care",Family Child Care Home,,Clouis,CA,93611,(559) 761-4761
Irene Saliba,Family Child Care Home,,Rancho Santa margarita,CA,92688,(949) 589-7098
Lighthouse Early Childhood Center,Child Care Center,5055 Governor Dr,San Diego,CA,92122,(858) 292-8253
Meher Montessori School,Child Care Center,2011 S. Garfield Ave.,Monterey Park,CA,91754,(323) 724-0683
Miller Family Child Care,Family Child Care Home,,Winnetka,CA,91306,(818) 347-2866
"Coleman, Tiffany Family Childcare",Family Child Care Home,,Oceanside,CA,92057,(760) 978-5275
Academy on The Hills,Child Care Center,10 Mareblu,Aliso Viejo,CA,92656,(949) 360-7022
Marconi Montessori School,Child Care Center,5619 Marconi Ave,Carmichael,CA,95608,(916) 488-5619
Baldonado Family Child Care,Family Child Care Home,,Murrieta,CA,92563,(951) 246-3867
"Beede, Julia Liza Family Child Care",Family Child Care Home,,Oceanside,CA,92057,(760) 231-7073
Maribel Carrillo,Family Child Care Home,,National City,CA,91950,(619) 527-8412
Smith Family Child Care,Family Child Care Home,,Wildomar,CA,92595,(957) 246-9942
Lorine's Learning Academy,Child Care Center,702 W. 16th Street,San Bernardino,CA,92405,(909) 883-6040
Rise N Shine Preschool,Child Care Center,9449 Winter Gardens Blvd,Lakeside,CA,92040,(619) 390-0200
Amador Family Child Care,Family Child Care Home,,Los Angeles,CA,90047,(323) 756-7122
Canino Family Child Care,Family Child Care Home,,Menifee,CA,92584,(951) 244-8667
Tutor Time Child Care/Learning Center,Child Care Center,1551 Bristol St North,Newport Beach,CA,92660,(949) 955-2672
"Butticci, Michelle Family Child Care",Family Child Care Home,,Merced,CA,95340,(209) 723-5333
Munchkin Kare,Family Child Care Home,,Fresno,CA,93727,(559) 453-2902
Poway Hilltop Preschool,Child Care Center,12348-B Casa Avenida Rd,Poway,CA,92064,(858) 486-6712
Fullerton Child Development Center,Child Care Center,1701 E. Chapman,Fullerton,CA,92831,(714) 526-7855
Tutor Time Child Care/Learning Center,Child Care Center,24291 Avila Road,Laguna Niguel,CA,92677,(949) 831-8887
Melissa Holmquist,Family Child Care Home,,Temecula,CA,92592,(951) 587-8437
"Mehrabli, Cefrelyn Family Child Care",Family Child Care Home,,Oceanside,CA,92057,(760) 439-7905
Mayer Family Child Care,Family Child Care Home,,Palmdale,CA,93552,(661) 285-5077
Cortez Family Child Care,Family Child Care Home,,Alhambra,CA,91801,(626) 282-2094
Bonnie Cole Family Day Care,Family Child Care Home,,Long Beach,CA,90806,(562) 492-6162
"Acosta, Martha Family Child Care",Family Child Care Home,,San Diego,CA,92154,(619) 906-8173
"Lopez, Erika Family Child Care",Family Child Care Home,,Chula Vista,CA,91910,(619) 415-4310
The Nest House,Family Child Care Home,,Oceanside,CA,92058,(442) 888-4554
Jones Family Daycare,Family Child Care Home,,Hemet,CA,92545,(951) 345-3561
Hands Together A Center for Children,Child Care Center,201 E Civic Ctr Dr,Santa Ana,CA,92701,(714) 485-9221
Laranjo Family Child Care Home - Phyllis,Family Child Care Home,,Fulton,CA,95439,(707) 528-8303
Judith Camacho & Angel Corona,Family Child Care Home,,Sacramento,CA,95834,(916) 283-6068
"Heights Christian School, LaMirada Campus",Child Care Center,12200 Oxford Drive,LaMirada,CA,90638,(562) 902-1779
Tahoe Forest Children's Center,Child Care Center,10121 Pine Avenue,Truckee,CA,96160,(530) 582-3572
Donna Urtiaga,Family Child Care Home,,Palm Desert,CA,92211,(760) 341-2499
Kinderkirk Preschool and Daycare Center,Child Care Center,1111 Vallecito Road,Carpinteria,CA,93013,(805) 684-4070
Carmel Mountain Pre-School,Child Care Center,9512 Carmel Mountain Road,San Diego,CA,92129,(858) 484-4877
"Schummer, Veronica Family Child Care",Family Child Care Home,,Chula Vista,CA,91910,(619) 422-6584
"Castro, Maricela & Carlos Family Child Care",Family Child Care Home,,Chula Vista,CA,91910,(619) 422-6613
"Garcia, Leticia & Rene Family Child Care",Family Child Care Home,,Chula Vista,CA,91911,(619) 426-1513
"Tanabe, Sylvia Family Day Care",Family Child Care Home,,Lemon Grove,CA,91945,(619) 697-6519
Fleur De Lis Nursery School,Child Care Center,3743 Front St,San Diego,CA,92103,(619) 295-6781
Mi Escuelita Family Child Care,Family Child Care Home,,National City,CA,91950,(619) 474-8371
Anjis Day Care,Family Child Care Home,,Menifee,CA,92584,(951) 746-3256
Maxwell Family Child Care,Family Child Care Home,,Winchester,CA,92596,(951) 550-7083
"Pastenes, Erica Family Child Care",Family Child Care Home,,Chula Vista,CA,91910,(619) 964-6578
Renascence School International,Child Care Center,2987 Mesa Verde East,Costa Mesa,CA,92626,(714) 783-7070
Juanetta Perkins,Family Child Care Home,,Atascadero,CA,93422,(805) 712-9611
Hernandez Family Child Care,Family Child Care Home,,Temecula,CA,92592,(951) 303-8461
California Young World #5,Child Care Center,1110 Fairwood Ave,Sunnyvale,CA,94089,(408) 245-7285
 YMCA- Castro,Child Care Center,505 Escuela Ave,Mountian View,CA,94043,(408) 351-6465
YMCA -Monta Loma Kids Place,Child Care Center,460 Thompson Ave.,Santa Clara,CA,94043,(408) 351-6479
YMCA Kid's Place- Almond,Child Care Center,550 Almond Ave,Los Altos,CA,94024,(408) 351-6465
Jenkins Foster Family Home,Family Child Care Home,,Menifee,CA,92584,(951) 795-3010
Weaver Elementary Extended Day Care,Child Care Center,11872 Wembley Road,Los Alamitos,CA,90720,(562) 799-4700
Presbyterian Preschool,Child Care Center,1546 Pacific Ave,Santa Rosa,CA,95404,(707) 542-7396
Gogunska Family Child Care,Family Child Care Home,,Los Angeles,CA,90046,(323) 702-3796
Nguyen Family Child Care,Family Child Care Home,,Reseda,CA,91335,(818) 943-0371
Good Steward Day Care,Child Care Center,9229 Utica Ave #160,Rancho Cucamonga,CA,92730,(909) 948-0016
YMCA-Terrel,Child Care Center,5925 Pearl Ave,San Jose,CA,95136,(408) 351-6465
Vivas-Vogel Family Child Care,Family Child Care Home,,Azusa,CA,91702,(626) 815-8786
Discovery Isle Child Development Center ,Child Care Center,3791 Oceanic Way,Oceanside,CA,92056,(760) 433-3911
Genesis Family Childcare,Family Child Care Home,,Paso Robles,CA,93446,(805) 286-4209
Kathy's Day Care,Family Child Care Home,,Palo Alto,CA,94303,(650) 855-9351
"Falcon, Ysamel",Family Child Care Home,,Fremont,CA,94555,(510) 793-8788
West End YMCA - Chino Branch,Child Care Center,4980 Riverside Dr.,Chino,CA,91710,(909) 590-3583
Camarillo Progressive Montessori School,Child Care Center,4451 E. Las Posas Rd.,Camarillo,CA,93010,(805) 484-1460
"Sandoval, Maria Family Child Care",Family Child Care Home,,San Diego,CA,92154,(619) 662-6003
Mary Star of the Sea Preschool,Child Care Center,717 S. Cabrillo Ave,San Pedro,CA,90731,(310) 833-3541
STAR Education,Child Care Center,7050 Franklin School Rd.,Loomis,CA,95650,(916) 660-0610
Lou & Ed's Day Care,Family Child Care Home,,Santee,CA,92071,(619) 562-0509
Romero Family Child Care,Family Child Care Home,,Downey,CA,90241,(562) 806-1435
Children's Cottage Preschool,Child Care Center,1078 East Ave,Napa,CA,94559,(707) 224-3825
"Parada, Layvanh Family Child Care",Family Child Care Home,,San Diego,CA,92104,(619) 519-4626
Maria Montessori School,Child Care Center,4544 Pocahontas Ave,San Diego,CA,92117,(858) 270-9350
Susie Q's Daycare,Family Child Care Home,,La Mesa,CA,91942,(619) 589-0870
Cynthia's Child Development Home,Family Child Care Home,,San Diego,CA,92124,(858) 539-5497
Eva Rocha,Family Child Care Home,,Salinas,CA,93906,(831) 443-8534
Little School House Inc.,Child Care Center,1281 Edwards Avenue,Santa Rosa,CA,95401,(707) 528-8118
Kids Academy,Family Child Care Home,,San Diego,CA,92117,(858) 737-9388
Franklin Child Development Center,Child Care Center,4006 Hood Franklin Road,Elk Grove,CA,95757,(916) 684-4061
A. Bunger Baby Daycare,Family Child Care Home,,Lincoln,CA,95648,(916) 408-7105
Daisy's Daycare,Family Child Care Home,,Sacramento,CA,95835,(916) 419-4306
Lisa Brown Family Child Care,Family Child Care Home,,Spring Valley,CA,91977,(619) 972-3724
Chavira Family Daycare,Family Child Care Home,,Madera,CA,93637,(559) 675-3700
Happy Honey Bee Kids,Family Child Care Home,,San Diego,CA,92114,(619) 734-5238
Little Angels Child Development Center,Child Care Center,406 I Street,Chula Vista,CA,91910,(619) 621-5695
Bramwell Family Child Care,Family Child Care Home,,Moreno Valley,CA,92551,(951) 488-0095
Leap Into Learning Childcare,Family Child Care Home,,Suisun City,CA,94585,(707) 422-1375
Kidz R Us Daycare,Child Care Center,14215 Tuolumne Rd.,Sonora,CA,95370,(209) 532-9992
Elsa Thrower,Family Child Care Home,,Sacramento,CA,95835,(510) 978-5277
"Carter, Deleshea & Boyd, Mariah FCC",Family Child Care Home,,San Diego,CA,92139,(619) 602-7008
Lil Guys and Gals Childcare,Family Child Care Home,,Lemoore,CA,93245,(559) 423-5825
West Hills Montessori,Child Care Center,24373 Vanowen St,West Hills,CA,91307,(818) 702-0818
Kingston Academy,Child Care Center,6048 Etiwanda Ave,Mira Loma,CA,91752,(951) 681-4182
Brighten Academy Preschool,Child Care Center,1825 Austin Avenue,Clovis,CA,93611,(559) 294-1310
Sherree Rodriguez,Family Child Care Home,,Oceanside,CA,92058,(760) 224-0574
Arrow Montessori School - San Dimas,Child Care Center,818 W. Gladstone St,San Dimas,CA,91773,(909) 599-0025
Prestige Preschool Academy,Child Care Center,3098 Macon Dr.,Sacramento,CA,95835,(916) 285-7700
"Millan, Romualda & Cassandra Family",Family Child Care Home,,El Cajon,CA,92019,(619) 440-6599
Grow Smart Children's Academy,Child Care Center,6271 Jackson Drive,San Diego,CA,92119,(619) 464-0305
Melinda Heights Elementary School,Child Care Center,21011 Rancho Trabuco,Rancho Santa Margarita,CA,92688,(949) 460-2701
Martha Esparza,Family Child Care Home,,Long Beach,CA,90504,(562) 739-3436
Hernandez FCC AKA Little Maeg's Childcare,Family Child Care Home,,Oxnard,CA,93036,(805) 794-9661
"Cordova, Marisela Family Child Care",Family Child Care Home,,Chula Vista,CA,91913,(619) 779-0961
Yuki Minami,Family Child Care Home,,Garden Grove,CA,92841,(714) 638-8391
"A Child's Way, An Early Learning Center",Child Care Center,701 Paloma Ave,Burlingame,CA,94010,(650) 343-2630
Harper Family Child Care,Family Child Care Home,,Perris,CA,92570,(951) 943-2305
Childtime Children's Center (Fresno),Child Care Center,214 N. Clark,Fresno,CA,93701,(559) 445-0216
Ascension Lutheran Preschool,Child Care Center,1142 N. Midway Dr.,Escondido,CA,92027,(760) 747-4276
"Padrick, Dorothea Family Day Care",Family Child Care Home,,San Diego,CA,92114,(619) 262-5360
Julie Burke,Family Child Care Home,,Galt,CA,95632,(209) 744-1319
"Smith, Catherine Family Child Care",Family Child Care Home,,San Diego,CA,92126,(864) 909-1454
"Williams,  Ashley Family Child Care",Family Child Care Home,,San Diego,CA,92124,(229) 291-4131
"Weil, Babette & Sarah Family Child Care",Family Child Care Home,,San Diego,CA,92126,(858) 610-3875
Magallanes Family Child Care,Family Child Care Home,,Moreno Valley,CA,92553,(951) 214-2452
"Sanchez, Martina Family Child Care",Family Child Care Home,,San Diego,CA,92154,(619) 423-2621
Rocio Arango,Child Care Center,3 Jay Court,Pleasanton,CA,94566,(408) 203-1308
"Hudson, Holly Family Child Care",Family Child Care Home,,San Diego,CA,92124,(810) 358-8818
Magic Hours Childrens' Center,Child Care Center,8330 Westmore Rd,San Diego,CA,92126,(858) 271-8383
Little Oaks School,Child Care Center,102 N. Skyline Drive,Thousand Oaks,CA,91361,(805) 495-5513
Merryhill School-Rocklin,Child Care Center,4149 Rocklin Rd,Rockline,CA,95677,(916) 624-4511
"Alvarez, Veronica & Juan Family Child",Family Child Care Home,,Lemon Grove,CA,91945,(619) 825-9926
"Little Blossom Montessori School, Inc.",Child Care Center,2075 Arena Blvd.,Sacramento,CA,95834,(916) 515-0550
Dora Juarez Family Child Care,Family Child Care Home,,San Diego,CA,92115,(619) 265-8241
A Place To Grow Montessori,Child Care Center,3535 S. Akers,Visalia,CA,93277,(559) 627-3535
"Duarte, Paola Family Child Care",Family Child Care Home,,Chula Vista,CA,91913,(619) 421-3909
"Kelly, Debbie Family Day Care",Family Child Care Home,,Spring Valley,CA,91977,(619) 475-9140
"McBath, Audrey Family Child Care",Family Child Care Home,,El Cajon,CA,92021,(619) 956-6777
"Tanguay, Theresa Family Child Care",Family Child Care Home,,Ramona,CA,92065,(760) 787-5703
Dela Cruz Eden Family Childcare,Family Child Care Home,,San Diego,CA,92126,(858) 566-9342
Mills Family Daycare,Family Child Care Home,,San Pedro,CA,90731,(310) 831-0966
Grove Garden 1st Preschool,Child Care Center,8456 Garden Grove Rd,Garden Grove,CA,92844,(714) 537-8900
Torres Family Child Care,Family Child Care Home,,Temecula,CA,92592,(951) 234-9226
Park Village ESS,Child Care Center,7934 Park Village Rd,San Diego,CA,92129,(858) 521-2800
Rainbow Children's Center,Child Care Center,9817 'A' Baseline Rd.,Rancho Cucamonga,CA,91730,(909) 484-5797
Teesha Miller,Family Child Care Home,,Carmichael,CA,95608,(916) 944-0069
Sharon Family Child Care,Family Child Care Home,,El Cajon,CA,92020,(619) 971-1485
North City Preschool,Child Care Center,11717 Poway Rd.,Poway,CA,92064,(858) 748-4678
Price Family Child Care,Family Child Care Home,,San Bernardino,CA,92407,(909) 880-0316
A+ Academics Preschool,Child Care Center,1934 G Street,Modesto,CA,95354,(209) 544-8194
"Gallegos, Maria Family Child Care",Family Child Care Home,,National City,CA,91950,(619) 773-5173
Angelica Lopez,Family Child Care Home,,San Diego,CA,92105,(619) 436-8125
Diego Family Child Care,Family Child Care Home,,Los Angeles,CA,90044,(323) 242-3855
"Christensen, Laura Family Child Care",Family Child Care Home,,San Diego,CA,92117,(858) 336-0519
My Super Sweet Family Child Care,Family Child Care Home,,National City,CA,91950,(619) 274-3322
Christa Ketchum Family Child Care,Family Child Care Home,,Loyalton,CA,96118,(530) 993-0226
Ramirez Family Child Care,Family Child Care Home,,Murrieta,CA,92562,(760) 805-8369
Courtney Parker,Family Child Care Home,,San Diego,CA,92124,(404) 889-2037
Los Alamitos Child Development Ctr-Rossmoor Site,Child Care Center,3272 Shakespeare Drive,Los Alamitos,CA,90720,(562) 799-4700
Early Works Child Development Center,Child Care Center,31765 Temecula Pkwy,Temecula,CA,92592,(951) 694-5132
"Wiley, Cathy Family Child Care",Family Child Care Home,,San Marcos,CA,92069,(760) 744-2782
Cook Family Child Care,Family Child Care Home,,Winchester,CA,92596,(951) 223-3001
Busy Bees Child Development Center ,Child Care Center,561 Third Avenue,Chula Vista,CA,91910,(619) 573-2970
"Shiraishi, Sara Family Child Care",Family Child Care Home,,Chula Vista,CA,91913,(760) 550-0319
American Martial Arts Academy,Child Care Center,1313 E. Los Angeles Ave,Simi Valley,CA,93065,(805) 527-5508
Kimberly Shelton Family Child Care,Family Child Care Home,,Valley Center,CA,92082,(760) 751-9623
Patterson Unified School District After School,Child Care Center,1320 Henley Parkway,Patterson,CA,95363,(209) 892-4770
Mi Casita Daycare,Family Child Care Home,,San Diego,CA,92154,(619) 920-4027
Ever Learing Day Care,Family Child Care Home,,San Diego,CA,92154,(619) 823-8093
Rainbow School,Child Care Center,5689 Hollister Ave Suite C,Goleta,CA,93117,(805) 964-4511
"Sandoval, Linda Family Child Care",Family Child Care Home,,San Diego,CA,92115,(619) 278-9899
YMCA of Superior California,Child Care Center,1300 College St,Woodland,CA,95695,(530) 662-1086
KinderCare Learning Center LLC,Child Care Center,295 S Lexington Dr,Folsom,CA,95630,(916) 983-6169
Athanasia Brown,Family Child Care Home,,Dale City,CA,94015,(650) 755-5508
Poway Unified School District - Willow Grove Elementary School ESS Program,Child Care Center,14727 Via Azul,San Diego,CA,92127,(858) 521-2800
Gonzalez Family Childcare Inc.,Family Child Care Home,,North Hills,CA,91343,(818) 810-5787
Espinoza Family Child Care,Family Child Care Home,,Oxnard,CA,93036,(805) 351-5967
Hortencia Andrade,Family Child Care Home,,Watsonville,CA,95076,(831) 724-1732
Mrs. Devyn's Daycare,Family Child Care Home,,Fallbrook,CA,92028,(760) 521-0736
Napa Valley Montessori Learning Center,Child Care Center,"120 W American Canyon Road, M-11",American Canyon,CA,94503,(707) 647-7178
"Garcia, Yessica Family Child Care",Family Child Care Home,,National City,CA,91950,(619) 433-7597
Bethanie Coggins,Family Child Care Home,,San Diego,CA,92110,(805) 760-2964
Tiny Thinkers School,Child Care Center,15737 Parthenia St.,North Hills,CA,91343,(818) 892-2655
Pauba Valley BASES,Child Care Center,33125 Regina Drive,Temecula,CA,92592,(951) 506-7061
JUMP Preschool Inc,Child Care Center,3327 Kenora Dr.,Spring Valley,CA,91977,(619) 303-1541
Brighton Schools - Natoma Station,Child Care Center,405 Natoma Station Drive,Folsom,CA,95630,(916) 985-2222
St. Luke's Preschool and Nursery,Child Care Center,515 Second St.,Woodland,CA,95695,(530) 402-1607
El Rancho Nursery School,Child Care Center,5636 El Camino Ave,Carmichael,CA,95608,(916) 482-8656
Gina's Bluebird Daycare,Family Child Care Home,,San Diego,CA,92120,(619) 315-1373
Dahlia Taylor Family Day Care,Family Child Care Home,,San Diego,CA,92105,(619) 264-6076
Hanley Family Child Care,Family Child Care Home,,Long Beach,CA,90805,(562) 256-0627
Tender Loving Care,Child Care Center,2324 Parker Avenue,Tracy,CA,95376,(209) 835-9088
"Rose, Sandra",Family Child Care Home,,Placerville,CA,95667,(530) 642-9060
"Richter, Angela Family Child Care",Family Child Care Home,,Spring Valley,CA,91977,(619) 434-2940
Tender Hearts Childcare Center,Child Care Center,2118 Woodland Ave,Modesto,CA,95358,(209) 550-5930
Abby Reinke BASES,Child Care Center,43802 Sunny Meadows Drive,Temecula,CA,92592,(951) 506-7061
Alamos BASES,Child Care Center,38200 Pacific Park Drive,Murrieta,CA,92563,(951) 506-7061
Barnett BASES,Child Care Center,39925 Harveston Drive,Temecula,CA,92591,(951) 506-7061
Crowne Hill BASES,Child Care Center,33530 Old Kent Road,Temecula,CA,92592,(951) 506-7061
French Valley BASES,Child Care Center,36680 Cady Road,Winchester,CA,92596,(951) 506-7061
Nicolas Valley BASES,Child Care Center,39600 North General Kearney,Temecula,CA,92591,(951) 506-7061
Temecula Valley Unified School District- Rancho BASES,Child Care Center,31530 La Serena Way,Temecula,CA,92591,(951) 506-7061
"Noorwala, Rubina Family Child Care",Family Child Care Home,,San Diego,CA,92124,(858) 277-6052
Crown Preschool,Child Care Center,199 6th Street,Coronado,CA,92118,(619) 522-6085
"Passalacqua, Mary Famaily Child Care",Family Child Care Home,,Fallbrook,CA,92028,(760) 731-0400
Kids Adventure Learning Center,Child Care Center,1834 Valencia Dr.,Fullerton,CA,92833,(714) 525-7377
"Hartung, Linda Family Day Care",Family Child Care Home,,Ramona,CA,92065,(760) 789-8570
"Luna, Yvonne Family Child Care",Family Child Care Home,,Chula Vista,CA,91913,(619) 954-0607
South Bay Family YMCA - Enrique ,Child Care Center,1650 Exploration Falls,Chula Vista,CA,91915,(619) 421-9622
Little Red School House,Child Care Center,4601 Fruitvale Ave,Bakersfield,CA,93308,(661) 588-2227
"Brown, Felicia",Family Child Care Home,,Manteca,CA,95337,(209) 824-7971
St. Basil's Preschool,Child Care Center,1225 Tuolumne St.,Vallejo,CA,94591,(707) 642-5966
Yucaipa Christian Preschool,Child Care Center,34968 Ave H,Yucaipa,CA,92399,(909) 797-6814
"Weinman, Moira Family Day Care",Family Child Care Home,,Lemon Grove,CA,91945,(619) 469-4025
"Carpenter, Charlene Family Day Care",Family Child Care Home,,San Diego,CA,92126,(858) 578-2514
Bell Family Child Care,Family Child Care Home,,Murrieta,CA,92563,(858) 442-7523
Phillips Family Child Care,Family Child Care Home,,Menifee,CA,92584,(951) 663-6882
Eagles Nest,Child Care Center,14340 Valley View Avenue,La Mirada,CA,90638,(562) 944-8381
Chilo's Daycare,Family Child Care Home,,South San Francisco,CA,94080,(650) 515-8943
Alvarado Family Child Care,Family Child Care Home,,LOS ANGELES,CA,90011,(323) 233-9364
Kavod Elementary Charter School,Child Care Center,3201 Marathon Drive,San Diego,CA,92123,(858) 227-9450
International Pre-School and Kindergarten,Child Care Center,5935 Winchester St.,San Diego,CA,92139,(619) 479-2410
Rainbow Rising - Westpark,Child Care Center,25 San Carlo,Irvine,CA,92614,(949) 252-1657
TLC Preschool,Child Care Center,11240 Clairemont Mesa Blvd,San Diego,CA,92124,(858) 292-7446
Cornerstone Christian School,Child Care Center,34570 Monte Vista Drive,Wildomar,CA,92595,(951) 674-9381
A Child's Place ,Child Care Center,11223 11th Ave,Hesperia,CA,92345,(760) 949-8498
Shaner Family Childcare,Family Child Care Home,,Lake Elsinore,CA,92530,(951) 582-4879
Poway Unified School District,Child Care Center,11775 Shoal Creek Drive,San Diego,CA,92128,(858) 521-2800
"Clark, Correna Family Child Care",Family Child Care Home,,San Diego,CA,92110,(619) 610-9399
Gina and Me Day Care,Family Child Care Home,,San Jose,CA,95111,(408) 531-7537
Little Ones Childrens Center,Child Care Center,301 Fulton Rd,Santarosa,CA,95401,(707) 578-8363
AB/CD Family Child Care,Family Child Care Home,,Oceanside,CA,92057,(760) 453-7375
Montessori Childrens World,Child Care Center,14209 Edwards St,Westminster,CA,92683,(714) 894-4924
"Jacobson, Joelette",Family Child Care Home,,Colfax,CA,95713,(530) 368-6137
MerryHill School- Calvine Preschool,Child Care Center,9036 Calvine Road,Sacramento,CA,95829,(916) 689-7322
Cordova Community Preschool,Child Care Center,2451 Zinfandel Drive,Rancho Cordova,CA,95670,(916) 635-5086
Play 'N' Learn Preschool,Child Care Center,495-505 Massar Ave,San Jose,CA,95116,(408) 259-5736
KCE Champions LLC @ Arnold Adreani Elementary,Child Care Center,9926 Wildhawk West Drive,Sacrameneto,CA,95829,(916) 405-6094
Happy Lion Day Care Center,Child Care Center,2929 Castro Rd,San Pablo,CA,94806,(510) 734-9119
Intellichildren of San Marcos,Child Care Center,214 W San Marcos Blvd,San Marcos,CA,92069,(760) 471-0221
East County Family YMCA Golden,Child Care Center,7885 Golden Ave,Lemon Grove,CA,91945,(619) 462-9622
Hung's Family Child Care,Family Child Care Home,,Alhambra,CA,91803,(626) 703-4323
Madriaga Family Child Care,Family Child Care Home,,Canopa Park,CA,91304,(818) 348-2976
Tina Family Childcare,Family Child Care Home,,San Diego,CA,92127,(858) 832-1173
Sotelo Family Child Care,Family Child Care Home,,Murrieta,CA,92563,(619) 632-8963
Ashly Henderson,Family Child Care Home,,Elk Grove,CA,95758,(916) 896-5122
Monica's Merry Playground Family Daycare,Family Child Care Home,,Garden Grove,CA,92843,(714) 403-7399
Little Lamb Family Childcare,Family Child Care Home,,Chula Vista,CA,91915,(619) 216-1352
Little Sprouts Family DayCare,Family Child Care Home,,Brentwood,CA,94513,(925) 516-9278
Cloward Family Day Care,Family Child Care Home,,Ramona,CA,92065,(760) 789-1161
Crystale Barajas,Family Child Care Home,,Lincoln,CA,95648,(916) 409-5240
"Williams, Shavonne Family Child Care",Family Child Care Home,,San Diego,CA,92114,(619) 252-6056
Ceniceros Family Child Care,Family Child Care Home,,Moreno Valley,CA,92555,(951) 363-8040
Cross Roads Children's Center,Child Care Center,2372 Erringer Rd.,Simi Valley,CA,93065,(805) 526-2887
Mt. Erie Christian Academy,Child Care Center,504 S 47th St.,San Diego,CA,92113,(619) 263-1914
Little Sprouts Family Childcare,Family Child Care Home,,escondido,CA,92027,(760) 877-0343
Beba's Daycare,Family Child Care Home,,National City,CA,91950,(619) 920-4860
Tiny Toes Childcare,Family Child Care Home,,Murrieta,CA,92562,(951) 970-1031
Dibbell Family Child Care,Family Child Care Home,,Wildomar,CA,92595,(951) 240-2889
Lake Elsinore Unified School District Childcare,Child Care Center,23 Ponte Russo,Lake Elsinore,CA,92532,(951) 253-7055
Discovery Isle Child Development Center,Child Care Center,14521 Ted Williams Parkway,Poway,CA,92064,(858) 748-5600
Shank Family Child Care,Family Child Care Home,,Murrieta,CA,92563,(951) 265-2369
"Fulton, Jamila Family Child Care",Family Child Care Home,,San Diego,CA,92124,(858) 836-1564
Foothill Preschool,Child Care Center,315 East Foothill Boulevard,San Luis Obispo,CA,93405,(805) 543-6973
Day Care Fun 101,Family Child Care Home,,El Cajon,CA,92021,(619) 219-0850
"Whitaker, Leondra Family Child Care",Family Child Care Home,,Chula Vista,CA,91911,(619) 633-6414
Kidz Korner Preschool,Child Care Center,3396 Johnson Ave,San Luis Obispo,CA,93401,(805) 544-5194
Maria Yepez,Family Child Care Home,,Escondido,CA,92029,(760) 489-0124
Sheela Hayat Home Daycare,Family Child Care Home,,Monterey,CA,93940,(831) 649-1038
Auntie Lori's Family Child Care,Family Child Care Home,,Encinitas,CA,92024,(760) 436-9171
Smith Family Child Care,Family Child Care Home,,Poway,CA,92064,(858) 679-1105
"Villa, Ada Family Child Care",Family Child Care Home,,Chula Vista,CA,91913,(619) 985-0003
"Sastoque, Elizabeth & Bonilla, Ana",Family Child Care Home,,San Diego,CA,92126,(858) 525-5837
Foster Family Child Care,Family Child Care Home,,Simi Valley,CA,93063,(805) 522-3172
Cano Family Child Care,Family Child Care Home,,Los Angeles,CA,90016,(323) 394-7861
Alma Martinez,Family Child Care Home,,Winchester,CA,92596,(951) 634-5517
Soto Family Child Care,Family Child Care Home,,Menifee,CA,92584,(951) 679-8182
Kids & Care Preschool & Day Care Center,Child Care Center,9560 I Ave.,Hesperia,CA,92345,(760) 956-5000
La Petite Academy,Child Care Center,19860 Beach Blvd,Huntington Beach,CA,92648,(714) 962-0339
Maria Finete,Family Child Care Home,,San Diego,CA,92117,(858) 274-9990
Sprouting Seeds Child Care,Family Child Care Home,,South San Francisco,CA,94080,(650) 952-3537
Machado Family Child Care Home,Family Child Care Home,,Petaluma,CA,94952,(707) 794-8444
Suaraz Claudia Maria Family Day Care,Family Child Care Home,,San Diego,CA,92124,(858) 571-8590
Idalia Mellado,Family Child Care Home,,Chula Vista,CA,91911,(619) 656-7902
Montessori Country Day II,Child Care Center,2802 Spafford St,Davis,CA,95618,(530) 753-5225
Chayna Bessette,Family Child Care Home,,National City,CA,91950,(760) 610-4255
St Simon,Child Care Center,1840 Grant Road,Los Altos,CA,94024,(650) 968-9952
Sheppard's Flock Day Care,Family Child Care Home,,Spring Valley,CA,91977,(619) 796-5437
Walnut Creek Christian Academy,Child Care Center,2335 Buena Vista Ave,Walnut Creek,CA,94597,(925) 935-1587
Lily Family Child Care,Family Child Care Home,,Lemon Gove,CA,91945,(619) 787-7716
Precious Sprout,Family Child Care Home,,Sacramento,CA,95835,(916) 917-2520
Lashton's Loving Child Care,Family Child Care Home,,San Diego,CA,92123,(858) 255-1090
Ni-Ni's Loving Hands Child Care,Family Child Care Home,,Suisun City,CA,94585,(707) 429-9001
Gloria Hurtado Family Child Care,Family Child Care Home,,Escondido,CA,92026,(760) 741-1656
Adobe Christian Preschool,Child Care Center,2875 Adobe Road,Petaluma,CA,94954,(707) 762-7713
Del Mar Union School District - Ocean Air School ,Child Care Center,11444 Canter Heights Dr.,San Diego,CA,92130,(858) 793-0071
"Chandler, Shawn Family Day Care",Family Child Care Home,,Lakeside,CA,92040,(619) 561-5128
"Juarez, Sandra Family Child Care",Family Child Care Home,,Poway,CA,92064,(619) 850-8328
Sonshine Place Preschool,Child Care Center,19016 Highline Rd,Tehachapi,CA,93561,(661) 822-4375
Voracek Family Daycare,Family Child Care Home,,Lancaster,CA,93536,(661) 940-0458
Trinity Lutheran Preschool/ TLC Preschool,Child Care Center,30470 Pauba Rd,Temecula,CA,92592,(951) 676-1492
Star Lincoln Crossing,Child Care Center,635 Groveland Ln,Lincoln,CA,95648,(916) 409-0797
Brighten Academy Preschool,Child Care Center,2016 Shaw Ave.,Clovis,CA,93611,(559) 299-8100
Strong Foundations Learning Center,Child Care Center,72400 La Canada Way,Thousand Palms,CA,92276,(760) 343-2163
Rosa's Daycare,Family Child Care Home,,Sacramento,CA,95838,(916) 929-6354
Marconi Montessori School,Child Care Center,5736 North Ave,Carmichael,CA,95608,(916) 550-2354
Messy Munchkins Family Childcare,Family Child Care Home,,San Diego,CA,92154,(619) 254-5444
Sanchez Family Day Care,Family Child Care Home,,National City,CA,91950,(619) 799-4885
Poway Unified School District- Midland ESS,Child Care Center,13910 Midland Road,Poway,CA,92064,(858) 521-2800
Susan Sherwood Family Child Care,Family Child Care Home,,Lakeside,CA,92040,(619) 463-5591
Sally A. Guzman,Family Child Care Home,,Huntington Beach,CA,92647,(714) 650-9366
Brenda Cabrera,Child Care Center,2445 Whitmore Ave suite #130,Ceres,CA,95307,(209) 538-3912
Martin Robbie Family Child Care,Family Child Care Home,,San Diego,CA,92126,(858) 566-2899
Garcia Family Child Care,Family Child Care Home,,Oxnard,CA,93030,(805) 487-5070
TVUSD BASES-Red Hawk Elementary,Child Care Center,32045 Camino San Jose,Temecula,CA,92592,(951) 506-7061
TVUSD BASES-Helen Hunt Jackson,Child Care Center,32400 Camino San Dimas,Temecula,CA,92592,(951) 506-7061
Corpus Christi Preschool,Child Care Center,480 Corral Canyon Rd,Bonita,CA,91902,(619) 482-3956
Children of Life Academy,Child Care Center,880 Kuhn Dr,Chula Vista,CA,91914,(619) 656-0131
Happy Munchkins Academy,Family Child Care Home,,San Diego,CA,92154,(360) 929-1430
"Parnell, Priscilla Family Day Care",Family Child Care Home,,San Diego,CA,92139,(619) 470-4815
Helen Vazquez Family Child Care,Family Child Care Home,,Merced,CA,95348,(209) 201-7427
Giant Step Learning Center,Child Care Center,758 St. Clair St,Costa Mesa,CA,92626,(714) 540-1775
Dina's Home Child Care,Family Child Care Home,,San Diego,CA,92115,(619) 885-1191
Cherished Childhood Childcare,Family Child Care Home,,Menifee,CA,92584,(951) 491-1665
Simi Valley Family YMCA - Big Springs,Child Care Center,3401 Big Springs Ave,Simi Valley,CA,93063,(805) 583-5338
Kerman Unified State Preschool,Child Care Center,14658 West F St.,Kerman,CA,93630,(559) 842-4505
Grow Smart Children's Academy- Spring Valley,Child Care Center,8738 Jamacha Blvd.,Spring Valley,CA,91977,(619) 479-7577
Hordagoda Family Child Care,Family Child Care Home,,North Hills,CA,91343,(818) 571-1905
K & K's Family Day Care,Family Child Care Home,,Union City,CA,94587,(510) 962-0086
YMCA Sunshine P/S Starbuck Site,Child Care Center,15747 Starbuck St.,Whittier,CA,90603,(562) 943-7241
Project SAFE- Pepper Drive,Child Care Center,1935 Marlinda Way,El Cajon,CA,92021,(619) 258-2369
Decker Laci Family Child Care,Family Child Care Home,,San Diego,CA,92110,(504) 701-9961
"Martinez, Rowena Family Day Care Home",Family Child Care Home,,Escondido,CA,92027,(760) 877-7499
Gardena Christian Academy,Child Care Center,16311 South Western Ave,Gardena,CA,90247,(310) 527-0348
Mission Valley YMCA,Child Care Center,1871 Illion St.,San Diego,CA,92110,(619) 298-3576
My Little Koalas Family Childcare,Family Child Care Home,,Chula Vista,CA,91910,(619) 421-4996
The McBride Family Daycare,Family Child Care Home,,Winchester,CA,92596,(951) 852-2723
Hutchison Child Development Center,Child Care Center,1055 Extension Center Dr.,Davis,CA,95616,(530) 752-3455
"Manna's Martial Arts, Inc",Child Care Center,12285 World Trade Dr. Suite B,San Diego,CA,92128,(858) 487-6470
"Rosas, Maria de Lourdes Family Child Care",Family Child Care Home,,San Diego,CA,92154,(619) 804-2199
Tutor Time Child Care,Child Care Center,1000 County Square Drive,Ventura,CA,93003,(805) 658-1230
Prestige Preschool Academy,Child Care Center,1800 Eureka Road,Roseville,CA,95661,(916) 783-7700
Tamara Hauser Family Day Care,Family Child Care Home,,El Cajon,CA,92020,(619) 593-1269
Oak Middle School Extended Day Care Center,Child Care Center,10821 Oak Street,Los Alamitos,CA,90720,(562) 799-4700
North Valley Family YMCA at Haskell,Child Care Center,15850 Tulsa St.,Granada Hills,CA,91344,(818) 368-3231
Helping Hands,Family Child Care Home,,Temecula,CA,92592,(760) 473-7456
Mt Erie Trolley Preschool,Child Care Center,280 47th St.,San Diego,CA,92102,(619) 262-4747
Mt. Erie Academy Preschool,Child Care Center,531 S. 47th St.,San Diego,CA,92113,(619) 262-6069
Monterey Ridge Preschool,Child Care Center,17117 4S Ranch Pkwy,San Diego,CA,92127,(858) 521-2846
Sunshine Family Day Care,Family Child Care Home,,Antioch,CA,94531,(925) 238-5861
Sacred Heart Academy Preschool,Child Care Center,4895 Saratoga Ave,San Diego,CA,92107,(619) 222-7252
"Zieske, Michelle Family Child Care",Family Child Care Home,,Spring Valley,CA,91977,(619) 905-5526
Little Sprouts Daycare,Family Child Care Home,,San Diego,CA,92114,(619) 415-1867
Immanuel Day School,Child Care Center,28355 E. Baseline,Highland,CA,92346,(909) 862-6641
"Torres, Miriam Family Childcare",Family Child Care Home,,Chula Vista,CA,91913,(619) 905-3920
Leslie's Daycare,Family Child Care Home,,Escondido,CA,92025,(619) 243-9479
Ratliff Day Care,Family Child Care Home,,Escondido,CA,92027,(760) 518-2995
Children's Choice Learning Connection,Child Care Center,1465 E. Madison Ave.,El Cajon,CA,92019,(619) 442-4014
Tender Care Pre-School and Child Care,Family Child Care Home,,San Diego,CA,92105,(619) 263-0920
Options Surround Care-Jordan,Child Care Center,10654 Jordan Road,Whittier,CA,90603,(626) 284-9935
Cook Family Child Care,Family Child Care Home,,Temecula,CA,92592,(951) 541-9198
Ridge City Preschool and Daycare,Child Care Center,6866 Linda Vista Rd,San Diego,CA,92111,(858) 277-1442
Community Christian School Preschool,Child Care Center,174 South O Street,Lincoln,CA,95648,(916) 434-0516
Elena Lopez Family Child Care,Family Child Care Home,,San Diego,CA,92139,(619) 470-1472
Hale Family Child Care,Family Child Care Home,,Los Angeles,CA,90008,(323) 294-7925
Morris Family Child Care,Family Child Care Home,,Lake Elsinore,CA,92532,(951) 314-5746
Pigtails and Snails Home Day Care,Family Child Care Home,,San Diego,CA,92124,(619) 368-8212
Monrovia Preschool,Child Care Center,303 W. Colorado Blvd.,Monrovia,CA,91016,(626) 357-2838
BUSD Discovery Play School at Timber Point Elementary,Child Care Center,40 Newbury Ln.,Discovery Bay,CA,94505,(925) 809-7556
S.E.E.D @ Antelope Hills Elementary,Child Care Center,36105 Murrieta Oaks Ave.,Murrieta,CA,92562,(951) 696-1600
Stars Montessori Academy,Child Care Center,1680 S. Melrose Drive #115,Vista,CA,92081,(760) 597-9796
Mini Miracles,Family Child Care Home,,Wildomar,CA,92595,(951) 445-4064
Hearts and Hands Christian Childcare and Preschool,Child Care Center,4111 Alder Ave.,Fremont,CA,94536,(510) 792-6200
Dalia Damian,Family Child Care Home,,Madera,CA,93637,(559) 675-8687
Stepping Stones Learning Center and Infant Care,Child Care Center,4460 Lincoln Ave. #5,Cypress,CA,90630,(714) 826-2311
Katina L. Gregory Day Care,Family Child Care Home,,Carlsbad,CA,92008,(442) 244-0635
Parsons Play Place Family Daycare,Family Child Care Home,,Lakeside,CA,92040,(760) 315-5666
Heritage Learning Center,Child Care Center,26720 Ynez Ct.,Temecula,CA,92591,(951) 676-1537
Pinktower Montessori School,Child Care Center,203 Laurine Lane,Fallbrook,CA,92028,(760) 728-4754
"Bogajczyk, Beverly Family Daycare",Family Child Care Home,,Lakeside,CA,92040,(619) 334-9060
Jessicas Family Daycare,Family Child Care Home,,San Diego,CA,92123,(619) 494-9889
Thomsen Learning Center,Family Child Care Home,,Ramona,CA,92065,(760) 518-9930
Flora Child Care,Family Child Care Home,,Albany,CA,94706,(510) 575-4610
Loving Hearts Daycare,Family Child Care Home,,Temecula,CA,92591,(951) 541-1565
Divine Beginnings Daycare and Academy,Family Child Care Home,,Hayward,CA,94541,(510) 501-8776
Skinner Rachel Family Child Care,Family Child Care Home,,San Diego,CA,92154,(619) 750-6270
Lisa's Lil Tikes Preschool ,Child Care Center,8475 La Mesa Blvd.,La Mesa,CA,91941,(619) 460-0393
Rise and Shine Family Daycare LLC,Family Child Care Home,,Oceanside,CA,92057,(760) 547-1356
Outlaw-Troutman Family Child Care,Family Child Care Home,,Murrieta,CA,92563,(619) 804-4194
Champions/Eagle Ranch,Child Care Center,12541 Eagle Ranch Pkwy,Victorville,CA,92392,(760) 948-6820
Building Blocks Home & Playcare,Family Child Care Home,,Santee,CA,92071,(760) 865-9644
Lake Balboa Family Child Care,Family Child Care Home,,Lake Balboa,CA,91406,(818) 220-8000
Fountain Valley School District,Child Care Center,9800 Yorktown Blvd.,Huntington Beach,CA,92646,(714) 962-4072
Nora's Family Daycare,Family Child Care Home,,Sunnyvale,CA,94086,(408) 373-0936
Bentley Family Child Care,Family Child Care Home,,Corona,CA,92883,(714) 651-9833
Del Mar Union School District - Carmel Valley Rd.,Child Care Center,5333 Old Carmel Valley Rd.,San Diego,CA,92130,(858) 793-0071
Friendly Childrens Garden Preschool and Daycare,Child Care Center,1836 Dixie St.,Oceanside,CA,92054,(760) 722-1626
St. Paul Lutheran Preschool,Child Care Center,701 S. Pleasant Ave.,Lodi,CA,95240,(209) 368-2747
Mariam Mohamed,Family Child Care Home,,La Mesa,CA,91941,(619) 755-2322
Cindy L Baudler Family Child Care Home,Family Child Care Home,,San Marcos,CA,92078,(760) 736-9932
Lucy LeBaron Family Childcare,Family Child Care Home,,Chula Vista,CA,91913,(619) 207-7216
The  Dot and the Line Daycare,Family Child Care Home,,La Mesa,CA,91941,(619) 770-8820
Little Planet Family Childcare,Family Child Care Home,,San Diego,CA,92154,(619) 690-9395
Little Angels Academy,Child Care Center,3076 L St.,San Diego,CA,92102,(619) 458-9553
"Woldu, Lia Family Child Care",Family Child Care Home,,San Diego,CA,92115,(619) 255-9290
"Pilgrim,Thrishia Family Child Care",Family Child Care Home,,San Diego,CA,92104,(619) 357-0003
Children's Choice ,Child Care Center,9748 Los Coches Rd. Suite 13,Lakeside,CA,92040,(619) 561-1178
SonRise Christian Preschool,Child Care Center,462 South Stage Coach Ln.,Fallbrook,CA,92028,(760) 728-1032
Amairany's Family Daycare,Family Child Care Home,,Chula Vista,CA,91915,(619) 482-4568
Learning Jungle School - La Mesa Campus,Child Care Center,7484 University Ave Suite 100,La Mesa,CA,91942,(619) 589-9196
KinderCare Learning Center LLC,Child Care Center,1553 Bailey Rd.,Concord,CA,94521,(925) 682-9560
"Kenebrew, Carol Family Child Care",Family Child Care Home,,San Diego,CA,92124,(619) 922-2601
Prestige Preschool Academy,Child Care Center,7148 Rancho Santa Fe Rd.,Carlsbad,CA,92009,(760) 891-0902
Next Generation Educational Center,Child Care Center,8989 Mira Mesa Blvd.,San Diego,CA,92126,(858) 536-8800
Sylvia Lopez-Romo Child Care,Family Child Care Home,,Chula Vista,CA,91910,(619) 206-5400
St. David's School Pre-Kindrgarten,Child Care Center,5613 Garvin Avenue,Richmond,CA,94905,(510) 232-1736
"Aguilar Gonzalez, Gladys",Family Child Care Home,,Chula Vista,CA,91914,(619) 633-4473
Juju's Fun Learning Center,Family Child Care Home,,San Diego,CA,92124,(619) 598-4150
Racing To Success Daycare,Family Child Care Home,,Vista,CA,92083,(760) 521-8866
Rosa Cibrian,Family Child Care Home,,Chula Vista,CA,91911,(619) 852-6452
"Sandlin, Cecilia Family Child Care",Family Child Care Home,,Chula Vista,CA,91915,(619) 869-3896
Encinitas Shining Stars Preschool,Child Care Center,"511 Encinitas Blvd, #114",Encinitas,CA,92024,(760) 436-5433
Mini Miracles Academy,Child Care Center,139 Canyon Drive,Oceanside,CA,92054,(760) 439-7492
"Carreno, Ana & Cuauhtemoc Family Child Care",Family Child Care Home,,Chula Vista,CA,91914,(619) 850-7357
Lopez Maria Family Child Care,Family Child Care Home,,Chula Vista,CA,91911,(619) 382-0410
"Kid Time, Inc",Child Care Center,200 Mayhew Way,Walnut Creek,CA,94597,(925) 930-6550
McDowell School,Child Care Center,29028 Aloma Ave.,Laguna Niguel,CA,92677,(949) 495-5162
Kiddie Academy of Huntington Beach,Child Care Center,19342 Beach Blvd.,Huntington Beach,CA,92648,(714) 968-0078
YALE Preschool - Hill Creek,Child Care Center,9664 Jeremy St.,Santee,CA,92071,(619) 258-2369
Lopez Vanessa Family Day Care,Family Child Care Home,,Chula Vista,CA,91913,(619) 271-8862
De Silva Family Child Care,Family Child Care Home,,Menifee,CA,92584,(951) 777-4961
"Osorio, America & Aguirre, Luz Family Child Care",Family Child Care Home,,La Mesa,CA,91942,(619) 825-3309
Carlsbad Educational Foundation- Jefferson Elem.,Child Care Center,3743 Jefferson St,Carlsbad,CA,92008,(760) 929-1555
Elizabeth Hasbun,Family Child Care Home,,Anaheim,CA,92804,(714) 527-4051
Beth L. Upton,Family Child Care Home,,Imperial Beach,CA,91932,(619) 423-2344
Lisa D Homework Club ,Child Care Center,77-530 Enfield Lane G2,Palm Desert,CA,92211,(760) 574-4115
Concepcion Villegas,Family Child Care Home,,Murrieta,CA,92562,(209) 678-8777
Chino Montessori School,Child Care Center,6010 Riverside Dr.,Chino,CA,91710,(909) 465-6008
Little Scholars Montessori,Child Care Center,6873 Capri Ave,Ventura,CA,93003,(805) 676-1488
Gloria V. Smith Family Day Care,Family Child Care Home,,Lemon Grove,CA,91945,(619) 964-4861
Munchkinland San Francisco,Family Child Care Home,,San Francisco,CA,94121,(415) 386-2006
Sonshine Kids School ,Child Care Center,3595 Sonoma Ave,Santa Rosa,CA,95405,(707) 544-1620
"Gil, Maria Family Child Care",Family Child Care Home,,Chula Vista,CA,91914,(619) 405-4178
(DUP) Kidsbel,Child Care Center,609 S. Westmoreland Ave.,Los Angeles,CA,90005,(213) 785-1158
Encinitas Country Day School - San Elijo Campus,Child Care Center,3616 Manchester Ave,Encinitas,CA,92024,(760) 942-1111
Kids Land Academy (Bakshi Family Child Care),Family Child Care Home,,Redlands,CA,92374,(909) 731-0350
Penleigh Child Development Center,Child Care Center,1400 E. St. Unit D & E,Sacramento,CA,95814,(916) 822-5020
Touching the Hearts of Children,Family Child Care Home,,Bonita,CA,91902,(619) 347-0402
Eagles Nest Preschool,Child Care Center,10262 Colima Rd,Whittier,CA,90603,(562) 903-1460
Silverman Preschool at Tifereth Israel Synagogue,Child Care Center,6660 Cowles Mtn. Blvd.,San Diego,CA,92119,(619) 697-1948
Kindercare Education as Champions,Child Care Center,9300 Wren Ave,Gilroy,CA,95020,(408) 707-9381
Kidsbel,Child Care Center,613 S. Westmoreland Ave,Los Angeles,CA,90005,(213) 785-1158
Imelda  Garcia Sandoval,Family Child Care Home,,West Covina,CA,91791,(626) 319-4679
Herreras Family Childcare,Family Child Care Home,,Glendora,CA,91740,(626) 274-6860
Tutor Time Child Care/Learning Center ,Child Care Center,10420 Alta Loma Drive,Rancho Cucamonga,CA,91737,(909) 484-8899
Gloria Aldrete Daycare Inc,Family Child Care Home,,Chula Vista,CA,91913,(619) 565-6881
Silver Gate Elementary YMCA,Child Care Center,1499 Venice St,San Diego,CA,92107,(619) 226-8888
Educare Children's Center,Child Care Center,50 El Camino Drive,Corte Madera,CA,94925,(415) 924-9902
"YMCA- North Valley Y, Calahan St. Elementary School",Child Care Center,18722 Knapp St,Northridge,CA,91324,(818) 368-3231
"Theano, Celine Family Child Care",Family Child Care Home,,San Diego,CA,92103,(858) 449-4891
Bi Xia Day Care,Family Child Care Home,,Oakland,CA,94602,(510) 530-3763
Mendoza Family Child Care,Family Child Care Home,,San Ysidro,CA,92173,(619) 386-5192
Fusion P/S Academy III/Little Cone Zone,Child Care Center,701 B St,Marysville,CA,95901,(916) 296-8011
Lisa Cassel,Family Child Care Home,,San Jacinto,CA,92583,(951) 487-8235
Montessori on Copper Hill ,Child Care Center,27908 Seco Canyon Rd.,Santa Clarita,CA,91350,(661) 673-5676
Navarrete Family Child Care,Family Child Care Home,,Whittier,CA,90601,(562) 908-4950
Kids on Campus @Discovery Elementary,Child Care Center,730 Applewilde Dr.,San Marcos,CA,92078,(760) 752-1279
Evangelina Godina,Family Child Care Home,,Spring Valley,CA,91977,(619) 713-5512
Sprouting Tree Learning Center,Child Care Center,9750 Galvin Ave,San Diego,CA,92126,(858) 226-2164
Treehouse Christian Preschool 2,Child Care Center,921 Woodrow Ave.,Modesto,CA,95350,(209) 527-2250
Rainbow Rising-Northwood ,Child Care Center,28 Carson St.,Irvine,CA,92620,(949) 651-0224
East County Family YMCA- Dailard,Child Care Center,6425 Cibola Rd.,San Diego,CA,92120,(619) 462-9622
Silvia Alvarado,Family Child Care Home,,Perris,CA,92571,(951) 581-3683
Brighten Academy Preschool  Inc,Child Care Center,290 N. Villa Avenue,Clovis,CA,93612,(559) 294-1310
First Christian Church Child Development Center,Child Care Center,1751 North Park Avenue,Pomona,CA,91768,(909) 629-3636
Little Feet Playschool Home DayCare,Family Child Care Home,,El Cajon,CA,92020,(619) 402-8271
UCSF Kirkham Child Development Center,Child Care Center,10 Kirkham St,San Francisco,CA,94143,(415) 664-1217
"Wong, Hung Har ",Family Child Care Home,,San Francisco,CA,94112,(415) 586-9228
Precious Time for Precious Kids,Child Care Center,3420 Mesa Verdes Drive,El Dorado Hills,CA,95762,(916) 941-0984
Kellies Academy for Kids Child Dev. Ctr.,Child Care Center,5702 Clark Drive,Huntington Beach,CA,92649,(714) 377-0533
Valley Presbyterian Preschool,Child Care Center,9240 Haskell,North hills,CA,91343,(818) 892-1622
Evans Family Day Care,Family Child Care Home,,Hawthorne,CA,90250,(323) 777-5493
Salwa Hamed,Family Child Care Home,,Walnut Creek,CA,94595,(925) 930-6564
Meherbani Khalsa ,Family Child Care Home,,San Diego,CA,92103,(619) 692-3521
Skyline Preschool,Child Care Center,12540 Skyline Boulevard,Oakland,CA,94619,(510) 530-0884
La Mesa United Methodist Children's Center,Child Care Center,4687 Palm Ave,La Mesa,CA,91941,(619) 466-8407
Montessori Learning Center ,Child Care Center,331 N. Harbor,Anahelm,CA,92805,(714) 999-6618
Garden Day School,Child Care Center,3817 Mission Ave #105,Oceanside,CA,92058,(760) 967-7000
Cornerstone Preschool Palo Alto ,Family Child Care Home,,Palo Alto,CA,94303,(650) 646-1341
Woodcrest Preschool ,Child Care Center,6043 Tampa Ave.,Tarzana,CA,91356,(818) 345-3002
Cornerstone Children's Center,Child Care Center,2407 Dana St.,Berkeley,CA,94704,(510) 280-6126
Aim High Child Care Center Inc.,Child Care Center,204 Griffith Ln,Brentwood,CA,94513,(925) 516-3945
River City Early Learning Ctr,Child Care Center,3051 Babson Dr.,Elk Grove,CA,95758,(916) 691-6420
Milani Dupre,Family Child Care Home,,Sacramento,CA,95835,(916) 419-9552
Poway Unified School District- Turtleback,Child Care Center,15855 Turtleback Rd,San Diego,CA,92127,(858) 521-2800
Garlich Family Child Care LLC,Family Child Care Home,,Wildomar,CA,92595,(909) 821-1006
Growing Brilliant Ventures,Child Care Center,101 Hazelmere Dr,Folsom,CA,95630,(916) 984-3800
Tutor Time Childcare Learning Center,Child Care Center,17150 Soledad Cyn Rd.,Canyon Country,CA,91387,(661) 252-3144
Our Lady of Guadalupe Preschool,Child Care Center,340 Massey Street,Hermosa Beach,CA,90254,(310) 372-7486
St. Columba Preschool,Child Care Center,3365 Glencolum Drive,San Diego,CA,92123,(858) 279-0161
New Harvest Church,Child Care Center,698 N. Minnewawa Ave,Clovis,CA,93611,(559) 797-7030
Jacqeline Macnear,Child Care Center,1214 Chestnut Lane,Davis,CA,95616,(530) 400-3517
Extended Day Child Care Dougherty,Child Care Center,5301 Hibernia Dr,Dublin,CA,94568,(925) 803-4154
Kiddie Corral Child Care,Family Child Care Home,,Vacaville,CA,95687,(707) 320-2588
The Learning Experience Eastvale,Child Care Center,12755 Limonile Ave,Eastvale,CA,92880,(951) 817-8817
Kids Country @ Quail Run ,Child Care Center,4040 Goldenbay Ave,San Ramon,CA,94582,(925) 743-9108
Claires Montessori,Child Care Center,7331 Beech Ave,Orangevale,CA,95662,(916) 987-5663
Nettles Gloria Family Child Care,Family Child Care Home,,San Diego,CA,92124,(619) 806-2178
Rise & Shine Daycare ,Family Child Care Home,,Fresno,CA,93705,(559) 240-8682
Alonzo Family Childcare,Family Child Care Home,,Temecula,CA,92592,(619) 855-2019
Kiddie Academy of Diamond Bar,Child Care Center,21385 Cold Spring Lane,Diamond Bar,CA,91765,(909) 444-4848
Extended Day Child Care Center,Child Care Center,2100 East Cantara Drive,Dublin,CA,94568,(925) 560-8191
"Quezada, Alejandra Family Child Care",Family Child Care Home,,San Diego,CA,92129,(858) 722-1279
Christ the Cornerstone Preschool,Child Care Center,9028 Westmore Road,San Diego,CA,92126,(858) 566-1741
Poway USD- Los Pensaquitos,Child Care Center,14122 Cuca Street,San Diego,CA,92129,(858) 521-2800
Jaber Family Child Care,Family Child Care Home,,Eastvale,CA,92880,(909) 263-5702
Prestige Preschool,Child Care Center,16498 Royal Oak,Irvine,CA,92618,(949) 559-6810
Resurrection Lutheran Infant Care Center,Child Care Center,7557 Amador Valley Blvd,Dublin,CA,94568,(925) 828-2122
Kids on Campus-Paloma,Child Care Center,660 Camino Magnifico,San Marcos,CA,92069,(760) 752-1279
Little Sunshine,Family Child Care Home,,San Diego,CA,92105,(619) 727-0437
Rising Star Preschool,Child Care Center,3040 Fairmount Ave,San Diego,CA,92105,(619) 213-9356
Good Samaritan Preschool and Infant/Toddler Center,Child Care Center,1350 Shatto St.,Los Angeles,CA,90017,(213) 977-2355
Santa Margarita Children's Center,Child Care Center,1055 Las Ovejas Ave Suite #5,San Rafael,CA,94903,(415) 499-1277
Partners in Learning ,Child Care Center,5251 Chesebro Road,Agoura Hills,CA,91301,(818) 865-8600
Sanchez Family Child Care,Family Child Care Home,,Moreno Valley,CA,92555,(951) 310-5323
Danville Montessori School,Child Care Center,919 Camino Ramon,Danville,CA,94526,(925) 838-7434
Theory of Play Child Development Center,Child Care Center,2105 N. Tracy Blvd,Tracy,CA,95376,(209) 597-5705
"Mitchell, Andrea Family Child Care ",Family Child Care Home,,Santee,CA,92071,(405) 301-0515
STAR Education - Broadway,Child Care Center,1012 Lincoln Blvd,Venice,CA,90291,(310) 755-8482
SAY-Marvin Extended Day Program,Child Care Center,5720 Brunswick St.,San Diego,CA,92120,(858) 565-4148
Anita Gonzalez,Family Child Care Home,,Bakersfield,CA,93311,(760) 379-6802
"The Vine Learning Center II, Inc",Child Care Center,6704 Linda Vista Rd.,San Diego,CA,92111,(858) 974-1222
Santos Family Day Care,Family Child Care Home,,Bellflower,CA,90706,(562) 506-4843
Peninsula Family YMCA Preschool ,Child Care Center,4427 Valeta Street,San Diego,CA,92107,(619) 226-8888
A Good Time Out,Child Care Center,3402 Calloway Dr Suite 501,Bakersfield,CA,93312,(661) 410-8463
Yale Preschool ,Child Care Center,10201 Settle Rd,Santee,CA,92071,(619) 258-2369
Redeemer Lutheran Preschool,Child Care Center,16351 Springdale St,Huntington Beach,CA,92649,(714) 840-7117
Kiddie Academy,Child Care Center,1400 N Vasco Rd,Livermore,CA,94551,(925) 292-1948
Prince of Peace Lutheran Nursery School,Child Care Center,1421 W Ball Rd,Anaheim,CA,92802,(714) 774-0993
BrightStar Learning Center,Child Care Center,6621 Glen Drive,Huntington Beach,CA,92647,(714) 895-4063
Our Lady of Lourdes Preschool,Child Care Center,741 Ware Ave,Colusa,CA,95932,(530) 458-8208
Wiseburn Child Development Center (Anza),Child Care Center,12110 S Hindry Ave,Hawthorne,CA,90250,(310) 725-2102
Marleys Preschool ,Child Care Center,223 Seal Beach Blvd,Seal Beach,CA,90742,(562) 598-2900
Carter-Bedoya Family Child Care,Family Child Care Home,,Whittier,CA,90604,(562) 906-0101
Children's Montessori Center,Child Care Center,19 North Hidalgo Ave,Alhambra,CA,91801,(626) 282-8258
Timesha Hickenbottom ,Family Child Care Home,,Perris,CA,92571,(951) 269-3074
Best Beginning Family Day Care,Family Child Care Home,,Pittsburg,CA,94565,(925) 473-0395
Kids Place to Explore and Learn LLC,Child Care Center,1820 West Grant Line Road,Tracy,CA,95377,(209) 834-5086
Happy Times Child Development Center,Child Care Center,755 Civic Center Dr,Vista,CA,92084,(760) 560-7031
Carlsbad Educational Foundation - Hope Elem.,Child Care Center,3010 Tamarack Ave,Carlsbad,CA,92008,(760) 929-1555
Kids Depot of Otay Ranch,Child Care Center,1394 E. Palomar St. Suite 210,Chula Vista,CA,91913,(619) 656-0506
Adventure Club - Blue Oaks,Child Care Center,8150 Horncastle Ave,Roseville,CA,95747,(916) 746-1260
Temecula Valley Unified School District,Child Care Center,42240 Camino Romo,Temecula,CA,92592,(951) 506-7061
Mona M Beltran-Blay,Family Child Care Home,,Garden Grove,CA,92845,(714) 891-4513
Sunshine - Valencia Valley,Child Care Center,23601 Carrizo Dr,Valencia,CA,91355,(661) 254-2687
Hacienda Child Development Center,Child Care Center,4671 Chabot Dr.,Pleasanton,CA,94588,(925) 463-2885
Creative Learning Academy,Child Care Center,28721 Los Alisos,Mission Viejo,CA,92692,(919) 539-6315
Macedo Family Childcare,Family Child Care Home,,Lake Elsinore,CA,92530,(951) 805-8902
Bibiano Family Child Care,Family Child Care Home,,Helendale,CA,92342,(760) 243-5852
Contreras Family Child Care,Family Child Care Home,,Los Angeles,CA,90011,(323) 233-7154
Santos Family Childcare,Family Child Care Home,,Moreno Valley,CA,92553,(951) 208-4273
Mottard Family Care,Family Child Care Home,,Camarillo,CA,93010,(805) 388-7659
Sunview Elementary,Child Care Center,7713 Juliette Low Dr,Huntington Beach,CA,92647,(714) 847-2551
Toni Seidel Family Child Care,Family Child Care Home,,Santee,CA,92071,(619) 448-7133
Cherished Moments,Family Child Care Home,,Camarillo,CA,93012,(805) 982-0619
ABC Pre-School Day Care Center ,Child Care Center,263 Carpenteria Rd,Aromas,CA,95004,(831) 726-2357
VUSD AM-PM - Hannalei,Child Care Center,120 Hannalei Dr,Vista,CA,92084,(760) 643-2675
VUSD AM-PM - Alamosa,Child Care Center,5130 Alamosa Park Dr,Oceanside,CA,92056,(760) 643-2675
Sunland Diamond Bar Montessori Academy Inc,Child Care Center,23555 Palomino Dr,Diamond Bar,CA,91765,(909) 396-8747
Anna Family Daycare ,Family Child Care Home,,San Diego,CA,92122,(858) 455-7501
Mary Bailey-Talboy,Family Child Care Home,,Citrus Heights,CA,95610,(916) 367-8747
Ludolph Christina Family Childcare,Family Child Care Home,,San Diego,CA,92124,(303) 475-9440
Oceanside Shinning Stars Preschool & Infant Center LLC,Child Care Center,1122 S Coast Hwy,Oceanside,CA,92054,(760) 435-0713
Extended Day Child Care Center-Murray School,Child Care Center,8436 Davona Dr,Dublin,CA,94568,(925) 829-4043
A Child's Place Learning Center Inc,Child Care Center,1941 Church Street,Costa Mesa,CA,92627,(949) 646-4318
USC Alcazar Child Development Center,Child Care Center,2215 Alcazar Street,Los Angeles,CA,90033,(323) 405-6400
TelStar Montessori Child Care Center,Child Care Center,9320 Telstar Ave,El Monte,CA,91731,(626) 312-6381
Kids' Care at Pacific Rim Elementary,Child Care Center,1100 Camino De Las Ondas,Carlsbad,CA,92009,(760) 929-1555
Happy Hearts Family Child Care,Family Child Care Home,,North Hollywood,CA,91606,(818) 309-7838
OUSD-Child Development Services @ NOHL Canyon Elementary,Child Care Center,4100 Nohl Ranch Rd,Anahem,CA,92807,(714) 628-5413
Terese's Daycare,Family Child Care Home,,Anaheim,CA,92804,(714) 995-2770
Palcare,Child Care Center,949 California Dr,Burlingame,CA,94010,(650) 340-1289
Montana Preschool,Family Child Care Home,,Santa Monica,CA,90402,(310) 663-2169
Yang Fan Preschool,Child Care Center,4160 Hacienda Drive #200,Pleasanton,CA,94588,(925) 847-3023
Grand Lake Montessori,Child Care Center,466 Chetwood St,Oakland,CA,94610,(510) 836-4313
A Village Child Care,Family Child Care Home,,Long Beach,CA,90804,(562) 343-2900
Copley-Price Family YMCA Preschool Child Care,Child Care Center,4300 El Cajon Blvd,San Diego,CA,92105,(619) 280-9622
Tiffinnie Family Child Care Home,Family Child Care Home,,San Diego,CA,92154,(626) 806-2909
Winding Walk Child Care,Family Child Care Home,,Cula Vista,CA,91915,(619) 395-5146
San Miguel Daycare,Family Child Care Home,,San Miguel,CA,93451,(805) 467-3273
Kidz Club Family Day Care ,Family Child Care Home,,Palmdale,CA,93552,(661) 350-7972
Great Kids Childcare,Family Child Care Home,,Tracy,CA,95376,(209) 346-5173
Bertha Gonzalez Family Child Care,Family Child Care Home,,San Diego,CA,92102,(619) 779-5335
Tribue Family Child Care,Family Child Care Home,,Menifee,CA,92584,(951) 430-1570
Safari Preschool,Family Child Care Home,,San Diego,CA,92154,(619) 379-8891
Bahana Family Child Care,Family Child Care Home,,San Diego,CA,92113,(619) 231-1054
English French Learning Academy ,Child Care Center,3219 Clairemont Mesa Blvd,San Diego,CA,92117,(858) 274-2890
Little Oaks Child Care & Preschool,Family Child Care Home,,Elk Grove,CA,95757,(916) 627-0091
Alicia Delgado Childcare,Family Child Care Home,,Lemon Grove,CA,91945,(619) 741-4788
Michelle Lainez,Family Child Care Home,,Chula Vista,CA,91910,(805) 427-6676
Hazels Christian Preschool and Childcare Center II,Child Care Center,1525 Oakdale Rd,Modesto,CA,95355,(209) 521-4422
Academy of Scholars/SCCSC,Child Care Center,518 18th St,Sacramento,CA,95811,(916) 607-4236
Martha Dolores Family Child Care,Family Child Care Home,,San Diego,CA,92154,(619) 210-3850
Searcy Family Child Care,Family Child Care Home,,Temecula,CA,92592,(951) 501-9932
Orozco Jennifer Family Child Care,Family Child Care Home,,San Diego,CA,92124,(815) 514-3592
Empire Montessori Preschool ,Child Care Center,3765 Washington Blvd,Fremont,CA,94538,(510) 979-1696
Rossmoor Childrens Center Inc,Child Care Center,4161 Green Ave,Los Alamitos,CA,90720,(562) 431-6553
Milestone Academy Preschool ,Child Care Center,444 E Market Room #5,Daly City,CA,94014,(650) 755-2348
Ochoa Family Child Care,Family Child Care Home,,Huntington Park,CA,90255,(323) 583-7217
Carden Dominion School Inc,Child Care Center,25313 Narbonne Ave,Lomita,CA,90717,(310) 530-5242
4th R - Hollywood Park,Child Care Center,4915 Harte Way,Sacramento,CA,95822,(916) 277-6186
Cristina and Alfonso Delgado,Family Child Care Home,,Lemon Grove,CA,91945,(619) 248-2205
Denise Perez Family Child Care,Family Child Care Home,,Lodi,CA,95240,(209) 371-9459
St Marys Montessori School,Child Care Center,7370 W Liberty Parkway,Fontana,CA,92336,(909) 200-4747
Tanisha Montgomery,Family Child Care Home,,San Diego,CA,92124,(858) 598-5351
Camarillo Family YMCA,Child Care Center,5750 Fieldcrest Dr,Camarillo,CA,93012,(805) 484-0423
Honroe Family Childcare,Family Child Care Home,,Lake Elsinore,CA,92532,(951) 471-8859
Bright Stars Children's Center LLC,Child Care Center,1055 Las Ovejas Avenue,San Rafael,CA,94903,(415) 310-7543
Mel-O-Dee Montessori Center,Child Care Center,3659 Motor Ave,Los Angeles,CA,90034,(310) 837-3431
Gaytan Family Child Care,Family Child Care Home,,Los Angeles,CA,90039,(818) 805-8381
Children's Choice,Child Care Center,8824 Cottonwood Ave,Santee,CA,92071,(619) 457-0381
Monica J Vanenzuela,Family Child Care Home,,Palmdale,CA,93551,(661) 273-7995
Von Moos Family Child Care,Family Child Care Home,,Menifee,CA,92584,(760) 908-9545
Little Tree Playschool ,Child Care Center,7275 Santa Teresa Blvd.,San Jose,CA,95139,(408) 800-2113
Quavonte Ray Family Child Care,Family Child Care Home,,San Diego,CA,92115,(901) 692-0268
M & M Mini Care,Family Child Care Home,,Torrance,CA,90501,(310) 782-6121
Bright Montessori School ,Child Care Center,1479 E Broadway,Glendale,CA,91205,(818) 244-0111
Westwood Elementary - ESS Program,Child Care Center,17449 Matinal Rd.,San Diego,CA,92127,(858) 521-2800
Kathleen May Colbert,Family Child Care Home,,Redding,CA,96001,(530) 246-2174
La Petite Academy,Child Care Center,11100 Collett Ave.,Riverside,CA,92505,(951) 688-1313
El Camino Preschool,Child Care Center,2002 California St.,Oceanside,CA,92054,(760) 722-5050
Happy Angels Haven,Family Child Care Home,,Laguna Hills,CA,92653,(949) 830-4169
OC Kids Childcare Inc - Cawthon,Child Care Center,10160 Denni St,Cypress,CA,90630,(714) 484-7844
"Aguiar, Justina Family Child Care",Family Child Care Home,,San Diego,CA,92114,(619) 906-6833
Barton's Nursery School ,Child Care Center,645 Pomona Ave.,Oroville,CA,95965,(530) 533-0573
Barton's Infant Center,Child Care Center,616 Pomona Ave.,Oroville,CA,95965,(530) 533-0573
Beyond Alphabets,Family Child Care Home,,Mission Viejo,CA,92691,(949) 293-0138
Village Montessori School of Irvine ,Child Care Center,4552 Sandburg Way,Irvine,CA,92612,(949) 786-7494
South Coast Montessori,Child Care Center,7421 Mirano Dr,Goleta,CA,93117,(805) 845-6555
Harriet Apponsah Family Child Care,Family Child Care Home,,San Diego,CA,92115,(973) 393-5430
Woodcrest Pre-school,Child Care Center,21772 Lake Forest Drive,Lake Forest,CA,92630,(949) 859-0805
Jacquelynn Miller,Family Child Care Home,,San Diego,CA,92114,(619) 501-1290
SJB - Cherrywood Extended Day Care,Child Care Center,2550 Greengate Dr,San Jose,CA,95132,(408) 414-2700
Center for Early Intervention on Deafness,Child Care Center,1035 Grayson St,Berkeley,CA,94710,(510) 848-4800
The Lighthouse Church Preschool,Child Care Center,1511 20th Street,Santa Monica,CA,90404,(310) 829-2828
KMS Summer Camp,Child Care Center,1335 Guerrero St,San Francisco,CA,94131,(415) 821-0130
El Conejito EspaÃ±ol ,Family Child Care Home,,Sunnyvale,CA,94089,(408) 598-0138
Jernigan Family Child Care,Family Child Care Home,,Perris,CA,92571,(951) 259-7702
Brighter Beginnings,Child Care Center,1128 W. 7th St.,San Pedro,CA,90731,(310) 832-8606
The Right Track Preschool and Child Care,Child Care Center,6245 Palm Ave,San Bernardino,CA,92407,(909) 726-1128
Toddler Tech Inc,Child Care Center,2213 G Street,Bakersfield,CA,93301,(661) 861-8324
Gomez Family Child Care,Family Child Care Home,,Chula Vista,CA,91913,(619) 606-6205
Alvarez-Dennis Rosalva Family Child Care,Family Child Care Home,,Chula Vista,CA,91911,(619) 726-7771
Molina Family Child Care,Family Child Care Home,,Murrieta,CA,92563,(951) 813-0536
Growing Brilliant Natomas,Child Care Center,2036 Club Center Drive,Sacramento,CA,95835,(916) 900-4222
Ryan Ranch Children's Center,Child Care Center,0 Justin Court,Monterey,CA,93940,(831) 647-9556
UCB- Clark Kerr Preschool,Child Care Center,2601 Warring Street Bldg 15,Berkeley,CA,94720,(510) 643-1482
Little People's Learning Land,Family Child Care Home,,Sacramento,CA,95864,(916) 971-1563
Terrific Kids Child Care,Family Child Care Home,,Castaic,CA,91384,(661) 373-8107
Viramontes Family Child Care,Family Child Care Home,,Huntington Park,CA,90255,(323) 585-6927
Little Einsteins Montessori Preschool,Child Care Center,24 North 5th St.,San Jose,CA,95112,(408) 280-5367
Nunez Barbara Family Child Care,Family Child Care Home,,Spring Valley,CA,91977,(858) 230-2154
Park Montessori Childrens Park,Child Care Center,13130 Herrick ave.,Sylmar,CA,91342,(818) 367-5483
La Petite Academy,Child Care Center,2055 Occidental Rd.,Santa Rosa,CA,95401,(707) 573-1623
Palenzuela Child Care,Family Child Care Home,,San Jacinto,CA,92582,(951) 692-9542
Saint Charles Catholic Preschool,Child Care Center,980 Saturn Boulevard,San Diego,CA,92154,(619) 423-0784
Babalous Home DayCare,Family Child Care Home,,Modesto,CA,95350,(209) 900-1221
Adventure Club - Diamond Creek ,Child Care Center,3151 Hopscotch Lane,Roseville,CA,95747,(916) 746-1260
Montessori School of Oceanside #3,Child Care Center,3965 Mission Ave Ste. 4-5,Oceanside,CA,92058,(760) 722-0243
"Chen, Xiaoli Family Child Care",Family Child Care Home,,San Francisco,CA,94112,(415) 806-6988
"Hanshew, Megan Family Child Care",Family Child Care Home,,San Diego,CA,92114,(619) 474-0813
Buhach Preschool,Child Care Center,3190 Collins Dr.,Merced,CA,95348,(209) 626-5741
Corner Clubhouse Daycare,Family Child Care Home,,Selma,CA,93662,(559) 355-8287
Montessori Explorer,Child Care Center,271 East J St.,Chula Vista,CA,91910,(619) 425-3300
Montessori School of San Clemente,Child Care Center,1141 Puerta Del Sol,San Clemente,CA,92673,(949) 276-4160
Happy Harbor Preschool,Child Care Center,1530 North Wilmington Blvd,Wilmington,CA,90744,(310) 835-5665
Pine Top Montessori,Child Care Center,6526 Pony Express Trail,Pollock Pines,CA,95726,(530) 903-3106
"Indian Valley Kids Only Club, Inc",Child Care Center,551 Marshall Dr.,Walnut Creek,CA,94598,(925) 943-7957
Alejandra Resendiz Family Child Care,Family Child Care Home,,Sanger,CA,93657,(559) 907-1743
Kids Corner Inc,Child Care Center,4044 Lark Street,San Diego,CA,92103,(619) 295-8344
Mission Viejo Montessori,Child Care Center,"23581 Madero, #108",Mission Viejo,CA,92691,(949) 770-1093
The Gift of Kids,Child Care Center,5130 Golden Foothill Pkwy,El Dorado Hills,CA,95762,(916) 521-1835
Copley-Price Family YMCA McKinley,Child Care Center,3045 Fenton St.,San Diego,CA,92104,(619) 280-9622
Copley-Price Family YMCA- Franklin,Child Care Center,4481 Copeland Ave.,San Diego,CA,92116,(619) 280-9622
Laura Suleica Sanchez,Family Child Care Home,,Hemet,CA,92544,(951) 526-4667
"Lacanienta, Merlyn Family Child Care",Family Child Care Home,,San Diego,CA,92126,(858) 472-3903
7th Street Star,Child Care Center,1570 W 7th Street,San Pedro,CA,90732,(310) 987-1837
YMCA of Metro L.A. - Castlebay Elementary ,Child Care Center,19008 Castlebay Lane,Porter Ranch,CA,91326,(818) 368-3231
Ariana Tapia Hernandez,Family Child Care Home,,San Diego,CA,92105,(619) 341-9739
Inspirations Preschool Center,Child Care Center,925 Vine Street,Paso Robles,CA,93446,(805) 288-6888
Jacky's Daycare,Family Child Care Home,,Elk Cerove,CA,95757,(916) 626-1675
Little Rascals Daycare Place,Family Child Care Home,,Vacaville,CA,95687,(707) 685-4213
Bonnie Academy,Child Care Center,534 W Glenoaks Blvd,Glendale,CA,91202,(818) 244-3241
Tram Nguyen Home Family Daycare,Family Child Care Home,,Fresno,CA,93720,(559) 435-5320
Baby Yale Academy,Child Care Center,5521 Lone Tree Way Suite C100,Brentwood,CA,94513,(925) 308-7693
"Palma, Lizbeth Family Child Care",Family Child Care Home,,San Diego,CA,92154,(619) 929-4003
Growing Time Montessori School,Child Care Center,248 S. Mission Dr,San Gabriel,CA,91776,(626) 281-6510
Lekeitha Garrick,Family Child Care Home,,Lakeside,CA,92040,(413) 221-3365
Rainbow Kids Academy,Child Care Center,12914 Hazel Av,Garden Grove,CA,92841,(714) 638-8210
SAY-Dingeman Annex Extended Day Program,Child Care Center,11843 Scripps Creek Dr,San Diego,CA,92131,(858) 565-4148
Sunshine Daycare,Family Child Care Home,,Berkeley,CA,94702,(510) 334-7956
Bella Mente Academy Star,Child Care Center,1737 West Vista Way,Vista,CA,92083,(619) 756-1813
"Araya, Freweini Child Care",Family Child Care Home,,San Diego,CA,92139,(619) 888-4774
Quiroz Family Child Care,Family Child Care Home,,Wildomar,CA,92595,(951) 446-6551
Burbank Community YMCA,Child Care Center,332 E. San Jose Ave,Burbank,CA,91502,(818) 562-5461
La Crescenta Presbyterian Center For Children,Child Care Center,2901 Montrose Ave,La Crescenta,CA,91214,(818) 249-8124
Sandra's Family Home Daycare,Family Child Care Home,,San Diego,CA,92113,(619) 795-1660
Elizabeth Mateos Family Child Care,Family Child Care Home,,San Diego,CA,92154,(619) 271-7594
Maria A Perez Family Child Care,Child Care Center,982 Rosewood Ave,Sanger,CA,93657,(559) 417-0691
Foster City Pre-School Day Care Center,Child Care Center,1685 Eisenhower St,San Mateo,CA,94403,(650) 341-2041
Westlake Charter School,Child Care Center,2680 Mabry Dr,Sacramento,CA,95835,(916) 567-5768
YMCA Of Orange/ Sunshine,Child Care Center,2241 E Palmyra Ave,Orange,CA,92869,(714) 633-9622
Nancy Fuller Children's University Inc,Child Care Center,7901 N. Cedar Ave,Fresno,CA,93720,(559) 447-5865
Carmella Carrera,Family Child Care Home,,Fallbrook,CA,92028,(760) 622-2421
Little Lamb Land Christian Preschool,Child Care Center,4168 Market St,San Diego,CA,92102,(619) 838-5732
SRVSACCA - Kids Country - Bollinger Canyon,Child Care Center,2300 Talavera Dr,San Ramon,CA,94583,(925) 743-9108
Kids Camp Daycare ,Family Child Care Home,,Sacramento,CA,95834,(916) 320-6341
Right At School At Evans Ranch Elementary School,Child Care Center,30461 Evans Rd,Menifee,CA,92584,(773) 584-1343
Children's Academy ,Child Care Center,2960 Oceanside Blvd Ste 2,Oceanside,CA,92054,(760) 721-2627
Lori Phillips,Family Child Care Home,,Aliso Viejo,CA,92656,(949) 633-1305
Bee Z Kids Family Daycare,Family Child Care Home,,San Diego,CA,92113,(619) 206-3757
Tanya's Family Childcare,Family Child Care Home,,Chula Vista,CA,91911,(619) 623-2994
Miller & Carter Family Child Care,Family Child Care Home,,Lemon Grove,CA,91945,(619) 698-5407
Montessori Hills Academy,Child Care Center,612 Paseo Del Rey,Chula Vista,CA,91910,(619) 421-2249
Stepping Stones To Milestones,Family Child Care Home,,San Diego,CA,92139,(619) 530-1177
Montessori Of Valencia,Child Care Center,24925 Anza Drive,Valencia,CA,91355,(661) 257-4161
Montessori Scotts Valley,Child Care Center,123 S Navarra Dr,Scotts Valley,CA,95066,(831) 439-9625
Abdel-Wahed Family Child Care,Family Child Care Home,,Murrieta,CA,92563,(757) 816-0129
Educare Preschool,Child Care Center,5730 South St,Lakewood,CA,90713,(562) 461-7311
Rosalinda Leon Family Child Care,Family Child Care Home,,San Diego,CA,92114,(619) 262-0888
Genius Kids - Pleasanton Bernal,Child Care Center,3550 Bernal Ave Ste 100B,Pleasanton,CA,94566,(925) 425-7530
Sheldon Acres Child Development Center,Child Care Center,10393 Pleasant Grove School Rd,Elk Grove,CA,95624,(916) 686-8344
YMCA Marblehead Childcare Center ,Child Care Center,2409 Via Turqueza,San Clemente,CA,92673,(949) 542-3904
Little Scholars Child Care Learning Center ,Child Care Center,17329 Los Angeles St,Yorba Linda,CA,92886,(714) 524-5437
Happy Snowman Childcare,Family Child Care Home,,San Diego,CA,92113,(619) 399-8167
Adventure Club - Orchard Ranch ,Child Care Center,4375 Brookstone Drive,Roseville,CA,95747,(916) 746-1260
Bonanza Preschool,Child Care Center,14623 Bonanza Rd,Victorville,CA,92392,(760) 241-7800
Miss Debbie's Daycare,Family Child Care Home,,Murrieta,CA,92563,(951) 304-0344
Muni's Family Childcare,Family Child Care Home,,San Diego,CA,92115,(619) 782-1206
Play and Learn ,Child Care Center,1898 Pleasant Hill Rd,Pleasant Hill,CA,94523,(925) 943-7007
Turpel Family Child Care Home,Family Child Care Home,,Santa Rosa,CA,95401,(707) 478-9295
St. Thomas Episcopal Preschool,Child Care Center,44651 Avenida De Missiones,Temecula,CA,92592,(951) 302-8498
Our Little Angels Family Childcare,Family Child Care Home,,Jamul,CA,91935,(619) 669-6475
Ready Set Go Children's Center,Child Care Center,4404 San Juan Ave,Fair Oaks,CA,95628,(916) 967-0100
Montessori School of Central Marin,Child Care Center,321 Auburn St,San Rafael,CA,94901,(415) 456-1748
Maricela Guzman,Family Child Care Home,,Galt,CA,95632,(209) 744-2964
M & M Family Child Care,Family Child Care Home,,Oxnard,CA,93035,(805) 253-8094
Rodriguez Family Home Daycare,Family Child Care Home,,Los Angeles,CA,90003,(323) 615-4732
San Francisco Montessori Academy,Child Care Center,1283 22nd Ave,San Francisco,CA,94122,(415) 759-5710
STAR Foskett,Child Care Center,1561 Joiner Parkway,Lincoln,CA,95648,(916) 434-5884
Shining Stars Preschool and Infant Center,Child Care Center,2480 Las Posas Rd. Ste C,Camarillo,CA,93010,(805) 987-2132
La Habra Montessori Preschool,Child Care Center,230 S. Idaho St.,La Habra,CA,90631,(562) 691-6450
Innovative Scholar Academy Preshool,Child Care Center,9624 Melrose Ave,Elk Grove,CA,95624,(408) 910-9921
Nana's Daycare and Learning Center,Family Child Care Home,,Pittsburg,CA,94565,(925) 643-5246
Little Pioneers Preschool ,Child Care Center,2225 W. Victoria Dr.,Alpine,CA,91901,(619) 445-2072
Acorn Learning Center,Child Care Center,17025 Bollinger Canyon Rd,San Ramon,CA,94582,(925) 560-6488
Sydne Berry,Family Child Care Home,,Brentwood,CA,94513,(925) 331-7500
Me My Family Childcare,Family Child Care Home,,Newbury Park,CA,91320,(805) 294-7655
Kids Inc Preschool and Discovery Center,Child Care Center,250 Palladio Pkwy #1301,Folsom,CA,95630,(916) 805-5961
Children's Learning Center,Child Care Center,750 Sierra Ave,Clovis,CA,93612,(559) 298-7800
Forever Young Infant Care Center ,Child Care Center,1209 P St #12,Sacramento,CA,95814,(916) 446-4246
Right At School at Ridgemoor Elementary School,Child Care Center,25455 Ridgemoor Rd,Sun City,CA,92586,(773) 584-1343
Right At School at Herk Bouris Elementary School,Child Care Center,34257 Kalanchoe Rd,Lake Elsinore,CA,92532,(773) 584-1343
Urizar Family Child Care,Family Child Care Home,,Los Angeles,CA,90062,(323) 815-5336
"Gooden, Shanice Family Child Care",Family Child Care Home,,Chula Vista,CA,91913,(760) 822-5300
Bravo Family Child Care,Family Child Care Home,,Indio,CA,92203,(760) 342-9793
Mallison Family Child Care,Family Child Care Home,,Murrieta,CA,92563,(619) 784-9335
Genius Kids Tracy,Child Care Center,1960 W Grant Line Road,Tracy,CA,95376,(209) 834-5383
YMCA of Metro LA- Germain St Elementary,Child Care Center,20730 Germain St,Chatsworth,CA,91311,(818) 368-3231
Saint Andrew's Preschool,Child Care Center,1600 Santa Lucia Ave,San Bruno,CA,94066,(650) 273-4415
Camp Kissick,Family Child Care Home,,Thousand Oaks,CA,91360,(805) 373-1486
Claremont United Church Of Christ Early Childhood Center,Child Care Center,233 W Harrison Ave,Claremont,CA,91711,(909) 624-2916
Cherry Blossom Childcare & Preschool,Child Care Center,906 S Grand Ave,Glendora,CA,91740,(626) 335-5500
Boulevard Nursery School And Kindergarten,Child Care Center,23022 Victory Blvd,Woodland Hills,CA,91367,(818) 883-0607
YMCA Of Metro LA - Harding Site,Child Care Center,13060 Harding St,Sylmar,CA,91342,(818) 368-3231
Karen Petty,Family Child Care Home,,Fair Oaks,CA,95628,(916) 965-0934
Christ Lutheran Church,Child Care Center,25817 Tournament Rd,Valencia,CA,91355,(661) 259-0302
Leticia Hernandez,Child Care Center,15620 W El Mar Ave,Kerman,CA,93630,(559) 567-4434
Michel Family Child Care,Family Child Care Home,,El Cajon,CA,92021,(619) 985-0972
Linda Lima,Family Child Care Home,,Carlsbad,CA,92009,(760) 633-2229
Thompson Family Child Care,Family Child Care Home,,Temecula,CA,92591,(951) 404-7415
Kidz World Academy,Child Care Center,1602 S. El Camino Real,Oceanside,CA,92056,(760) 433-9944
South Coast YMCA - Marion Bergeson Elementary ,Child Care Center,25306 Rancho Niguel Rd,Laguna Niguel,CA,92677,(949) 542-3904
Capistrano Beach Cities YMCA - Concordia,Child Care Center,3120 Avenue Del Presidente,San Clemente,CA,92672,(949) 542-3904
Lisa J. Mails Elementary School,Child Care Center,35185 Briggs Rd,Murrieta,CA,92563,(951) 696-1600
Next Generation Educational Center ,Child Care Center,2860 Thunder Dr,Oceanside,CA,92056,(760) 295-0870
Mission Valley YMCA - Old Town Academy,Child Care Center,2120 San Diego Avenue,San Diego,CA,92110,(619) 298-3576
Mission Valley YMCA - Bay Park,Child Care Center,2433 Denver Street,San Diego,CA,92110,(619) 298-3576
A Kids Life,Child Care Center,308 Sutter St.,Roseville,CA,95678,(916) 786-3660
Thoss Family Child Care ,Family Child Care Home,,Chino,CA,91710,(909) 465-1132
Acuna Family Child Care ,Family Child Care Home,,Ontario,CA,91761,(909) 923-7754
St Paul Lutheran Child Development Center,Child Care Center,1073 El Monte Ave,Mountain View,CA,94040,(650) 969-2696
Cornerstone Academy,Child Care Center,801 Silver Ave.,San Francisco,CA,94134,(415) 587-7256
Kidz-R-Us,Family Child Care Home,,Oakley,CA,94561,(925) 727-1983
St. Rose-McCarthy School Day Care Program,Child Care Center,1019 N Harris St,Hanford,CA,93230,(559) 584-5218
Barajas Family Child Care,Family Child Care Home,,San Bernardino,CA,92407,(909) 725-7305
Jewish Community Center Of San Francisco,Child Care Center,3195 California St,San Francisco,CA,94118,(415) 292-1250
Peregrine School- South,Child Care Center,2650 Lillard Dr,Davis,CA,95618,(530) 753-5500
Jewish Community Center-M. Larry Lawrence Branch,Child Care Center,4126 Executive Dr,La Jolla,CA,92037,(858) 362-1146
Kelly's Home Daycare,Family Child Care Home,,Chula Vista,CA,91913,(619) 271-4050
The Growing Patch Private Preschool,Child Care Center,5560 W. Spruce Ave,Fresno,CA,93722,(559) 435-4934
Kid's Care - Buena Vista Elementary,Child Care Center,1330 Buena Vista Way,Carlsbad,CA,92008,(760) 929-1555
Logue Family Child Care,Family Child Care Home,,Lompoc,CA,93436,(805) 735-2414
Right at School at Harvest Hill Steam Academy,Child Care Center,31599 Pat Rd,Winchester,CA,92596,(773) 584-1343
"Gavin, Jovana Family Child Care",Family Child Care Home,,San Diego,CA,92114,(619) 701-5397
Tri-Valley Montessori School,Child Care Center,1272 N Livermore Ave,Livermore,CA,94551,(925) 455-8021
Monarch Montessori Preschool,Child Care Center,9282 Main St,Plymouth,CA,95669,(209) 418-5630
McClendon Family Child Care,Family Child Care Home,,Perris,CA,92571,(323) 877-6264
Say-Tierrasanta Extended Day Program ,Child Care Center,5450 La Cuenta,San Diego,CA,92124,(858) 380-8807
Gisler Child Development Center ,Child Care Center,18715 Las Flores,Fountain Valley,CA,92708,(714) 962-4072
SAY-Sunset View Extended Day Program,Child Care Center,4365 Hill St,San Diego,CA,92107,(858) 610-0847
Hearts And Hands Christian Childcare And Preschool,Child Care Center,401 Llewellyn Ave,Campbell,CA,95008,(408) 412-8823
Oakhill Academy,Child Care Center,29275 Santiago Rd,Temecula,CA,92592,(951) 506-0944
Adventure Kids,Child Care Center,880 Manzanita Dr,Los Osos,CA,93402,(323) 509-6716
St Francis of Assisi School Falcon's Nest Extended Care Program,Child Care Center,866 Oak Grove Rd,Concord,CA,94518,(925) 827-1848
Coronado Unified Childcare,Child Care Center,1351 Leyte Rd,San Diego,CA,92118,(619) 522-6085
Lincoln Plaza Montessori,Child Care Center,401 Q St #1704,Sacramento,CA,95811,(916) 795-1482
"Vazquez, Eunice & Isidoro Family Child Care",Family Child Care Home,,National City,CA,91950,(619) 267-5264
The Learning Experience ,Child Care Center,4831 Lone Tree Way,Antioch,CA,94531,(925) 281-7640
Kristin's Kiddieland,Child Care Center,27104 Aliso Creek Rd #150 #151,Aliso Viejo,CA,92656,(949) 903-5437
Foster Extended Day Program,Child Care Center,6550 51st Street,San Diego,CA,92120,(858) 688-2156
SAY-Jefferson Extended Day Program,Child Care Center,3770 Utah Street,San Diego,CA,92104,(858) 380-8817
SAY-Birney Preschool & Extended Day Program,Child Care Center,4345 Campus Ave,San Diego,CA,92103,(858) 405-3238
SAY-Jerabek Preschool & Extended Day Program,Child Care Center,10050 Avenida Magnifica,San Diego,CA,92131,(858) 688-2180
SAY-Miramar Ranch Extended Day Program,Child Care Center,10770 Red Cedar Drive,San Diego,CA,92131,(858) 688-2177
SAY-Standley Extended Day Program,Child Care Center,6298 Radcliff Drive,San Diego,CA,92122,(858) 688-2184
Kate Sessions Extended Day Program,Child Care Center,2150 Beryl Street,San Diego,CA,92109,(858) 610-3724
SAY-Kumeyaay Extended Day Program,Child Care Center,6475 Antigua Blvd.,San Diego,CA,92124,(858) 688-2187
EVFree Preschool,Child Care Center,2801 Brea Blvd,Fullerton,CA,92835,(714) 257-4302
SAY-Ellen Browning Scripps Extended Day Program,Child Care Center,11778 Cypress Canyon Rd,San Diego,CA,92131,(858) 693-8593
Cadman Preschool Program,Child Care Center,4370 Kamloop Ave,San Diego,CA,92117,(858) 688-2198
SAY-Doyle Extended Day Program,Child Care Center,8173 Regents Rd,San Diego,CA,92122,(858) 458-1882
SAY-Einstein Extended Day Program,Child Care Center,3035 Ash St,San Diego,CA,92102,(858) 380-8726
YMCA - Allen @ Steinbeck,Child Care Center,820 Steinbeck Dr,San Jose,CA,95123,(408) 351-6408
Burruss Family Child Care,Family Child Care Home,,Redding,CA,96003,(530) 215-3066
The Lil School,Child Care Center,8089 Madison Ave #11,Citrus Heights,CA,95610,(916) 962-2137
Dingeman Extended Day Child Care Program,Child Care Center,11107 Scripps Poway Parkway,San Diego,CA,92123,(858) 565-4148
AmeriMont Academy,Child Care Center,5360 Stonehaven Dr,Yorba Linda,CA,92887,(714) 693-7700
Oakland Garden School for Children,Child Care Center,4012 Maybelle Ave,Oakland,CA,94619,(510) 531-4800
Kids on Campus @ Knob Hill Elementary,Child Care Center,1825 Knob Hill Rd,San Marcos,CA,92069,(760) 752-1279
KidsPark Inc,Child Care Center,5440 Thornwood Dr,San Jose,CA,95123,(408) 213-0973
Sunshine - Fair Oaks Preschool,Child Care Center,26937 Silverbell Lane,Canyon Country,CA,91387,(661) 424-1900
Charlotte Findlay,Family Child Care Home,,Antelope,CA,95843,(916) 833-0974
Milestones Montessori of Irvine,Child Care Center,16601 Armstrong Ave,Irvine,CA,92606,(949) 553-0555
Cozy Cubs Inc,Child Care Center,2291 Main St,Ramona,CA,92065,(760) 787-0612
Maeola Beitzel School-Age Child Development Center,Child Care Center,8140 Caymus Dr,Sacramento,CA,95829,(916) 682-7226
Macedo Family Child Care,Family Child Care Home,,Wildomar,CA,92595,(951) 970-4485
"Patterson, Veronica Family Child Care",Family Child Care Home,,San Diego,CA,92113,(619) 861-0588
Montessori At Home,Family Child Care Home,,Irvine,CA,92612,(949) 351-5827
Cori Franklin,Family Child Care Home,,El Cajon,CA,92019,(619) 962-8348
Choi Kids Town Center,Child Care Center,18101 Lassen St,Northridge,CA,91325,(818) 886-4898
Perez Family Child Care,Family Child Care Home,,Santa Maria,CA,93454,(805) 863-3416
KCE Champions LLC @ Elevate Tierrasanta,Child Care Center,5606 Antigua Blvd,San Diego,CA,92124,(619) 746-9178
Cordova Baptist Preschool ,Child Care Center,10527 Coloma Road,Rancho Cordova,CA,95670,(916) 638-5506
Turlock Christian Schools,Child Care Center,2006 E. Tuolumne Road,Turlock,CA,95382,(209) 669-2192
Stepping Stones Preschool,Child Care Center,1001 Stone Canyon Dr,Roseville,CA,95661,(916) 772-9304
Lilia Salgao Daycare,Family Child Care Home,,Watsonville,CA,95076,(831) 763-0610
Sunrise Kids Club - Oak Hill Daycare,Child Care Center,3909 N Loop Blvd,Antelope,CA,95843,(916) 331-6042
Benitez Family Child Care,Family Child Care Home,,Rialto,CA,92376,(626) 807-4096
Dandy Lion Montessori School,Child Care Center,1089 Baden Ave.,Grover Beach,CA,93433,(805) 481-1735
Salazar Family Child Care,Family Child Care Home,,Covina,CA,91722,(626) 430-6377
Rancho Murieta Learning Center,Child Care Center,7243 Murieta Dr Ste B8,Rancho Murieta,CA,95683,(916) 354-4163
Ace Tots Preschool,Child Care Center,7204 Shoreline Dr,Stockton,CA,95219,(209) 330-1030
Iliana Lopez Family Child Care/Infant-Toddler Day Care,Family Child Care Home,,Chula Vista,CA,91913,(619) 504-8156
Mount Zion Christian School,Child Care Center,224 W California St,Ontario,CA,91762,(909) 983-2411
Dorthina Morris Family Child Care,Family Child Care Home,,Fresno,CA,93720,(559) 779-4000
Alexa's PLAYC,Child Care Center,25170 Hancock Ave,Murrieta,CA,92562,(858) 966-8797
Montessori Greenhouse Schools,Child Care Center,5856 Belgrave Ave,Garden Grove,CA,92845,(714) 897-3833
Rancho Murieta Learning Center,Child Care Center,"7274 Lone Pine, Suite 102",Rancho Murieta,CA,95683,(916) 354-4163
Ramos & Padilla Family Child Care,Family Child Care Home,,Los Angeles,CA,90016,(323) 933-1783
Sandra Castro,Family Child Care Home,,Stockton,CA,95207,(209) 451-7502
Gold Star Preschool,Child Care Center,335 South Ave,Jackson,CA,95642,(209) 256-8059
Adventure Club - Junction,Child Care Center,2150 Ellison Dr,Roseville,CA,95747,(916) 746-1260
Notre Dame Infant and Preschool Center,Child Care Center,21704 W. Golden Triangle Rd. Suite 120,Santa Clarita,CA,91350,(661) 255-0053
Notre Dame Family Services,Child Care Center,21706 W. Golden Triangle Rd. Suite 201,Santa Clarita,CA,91350,(661) 255-0053
Ekata Training Center,Child Care Center,27831 Smyth Dr,Valencia,CA,91355,(661) 255-1114
Harlan Family Child Care,Family Child Care Home,,Chino,CA,91710,(909) 364-1888
Kathryne Barracoso Family Child Care,Family Child Care Home,,Irvine,CA,92604,(949) 395-9751
The Goddard School ,Child Care Center,2021 Wildcat Blvd,Rocklin,CA,95765,(916) 778-6620
Child Development Services at Country Hills Elementary,Child Care Center,151 N Associated Rd,Brea,CA,92821,(714) 990-7527
Little Munchkins Academy,Family Child Care Home,,Hercules,CA,94547,(510) 245-0678
Ahrens Child Care Center,Child Care Center,201 N. University St.,Redlands,CA,92374,(909) 793-8601
Hill Family Child Care,Family Child Care Home,,Oxnard,CA,93036,(805) 616-8348
Alma Mendoza,Family Child Care Home,,San Jose,CA,95116,(408) 334-5018
Providence Montessori Child Care,Family Child Care Home,,Oceanside,CA,92057,(760) 722-1856
Glendale Presbyterian Preschool,Child Care Center,125 S Louise St,Glendale,CA,91205,(818) 242-2660
Faith Chapel Learning Academy,Child Care Center,9400 Campo Rd,Spring Valley,CA,91977,(619) 567-7557
Shining Stars Christian Preschool,Child Care Center,10 Goodyear,Irvine,CA,92618,(949) 305-9090
St Kieran's Preschool ,Child Care Center,1347 Camillo Way,El Cajon,CA,92021,(619) 588-6881
Milestones Montessori of Lake Forest,Child Care Center,23224 Lake Center Dr,Lake Forest,CA,92630,(949) 830-9999
Riley Family Child Care,Family Child Care Home,,Moreno Valley,CA,92553,(951) 563-7279
Small Wonders,Child Care Center,712 E Chapel Street,Santa Maria,CA,93454,(805) 260-2047
Lakeside Union School District - ESS Program (Wintergardens International Academy),Child Care Center,8501 Pueblo Rd.,Lakeside,CA,92040,(619) 390-2534
The Learning Experience ,Child Care Center,517 E Alessandro Blvd,Riverside,CA,92508,(951) 776-2459
"Trump's Del Mar Hills Nursery School, Inc",Child Care Center,13692 Mango Drive,Del Mar,CA,92014,(619) 301-7256
Betteravia Early Education Center,Child Care Center,2125 S Centerpoint Pkwy,Santa Maria,CA,93455,(805) 349-0369
Peppertree Montessori,Child Care Center,426 College Blvd Suite I,Oceanside,CA,92057,(760) 940-1931
Assurance Home Day Care,Family Child Care Home,,Menifee,CA,92585,(571) 274-0747
Montessori East County Preschool - Infant Location,Child Care Center,9840 Maine Ave.,Lakeside,CA,92040,(619) 561-0902
Family Campus Preschool,Child Care Center,10540 Chapman Ave,Garden Grove,CA,92840,(714) 741-0970
Nicole Crumble-Ward Family Child Care,Family Child Care Home,,Fresno,CA,93727,(559) 320-5985
Cuevas Family Child Care ,Family Child Care Home,,San Jancinto,CA,92582,(951) 210-0530
Buchanan Elementary ,Child Care Center,40116 Torrey Pines Rd,Murrieta,CA,92562,(951) 696-1600
Emagine U at Play	,Child Care Center,14421 Elsworth St Suite 103 & 106,Moreno Valley,CA,92553,(951) 656-3490
International School of Monterey,Child Care Center,1716 Yosemite St,Seaside,CA,93955,(831) 583-2165
Learning Lab Preschool,Child Care Center,5000 Barranca Pkwy,Irvine,CA,92604,(949) 339-3511
DMUSD After School Program @ Sage Canyon,Child Care Center,5290 Harvest Run Dr,San Diego,CA,92130,(858) 793-0071
Hurtado Family Child Care,Family Child Care Home,,Diamond Bar,CA,91765,(909) 396-7110
Evergreen Learning Center,Child Care Center,7631 Evergreen Dr,Goleta,CA,93117,(805) 685-7725
Learning Tree Montessori Preschool,Family Child Care Home,,Lancaster,CA,93534,(661) 400-5271
Country Hill Montessori Inc,Child Care Center,6131 Kenneth Ave,Fair Oaks,CA,95628,(916) 969-2929
Sunrise Children's Center,Child Care Center,1421 Rimpau Ave,Corona,CA,92879,(951) 272-2022
The Learning Experience ,Child Care Center,6153 Commerce Blvd,Rohnert Park,CA,94928,(707) 585-5992
"Kern, Gabriela Family Childcare",Family Child Care Home,,Spring Valley,CA,91977,(619) 832-6609
Wiz Child Center Inc,Child Care Center,119 West Arbor Vitae St,Inglewood,CA,90301,(310) 671-4246
"Jeffries, Maria Family Child Care",Family Child Care Home,,San Diego,CA,92105,(619) 756-7578
"Perez, Sonja Family Child Care",Family Child Care Home,,Hanford,CA,93230,(650) 534-7596
Kensington Montessori School,Child Care Center,29702 Kensington Dr,Laguna Niguel,CA,92677,(949) 363-7373
Adventure Point Early Learning Center,Child Care Center,1808 E. 17 St.,National City,CA,91950,(619) 259-2480
Little Big Time Child Development Center,Child Care Center,1412 20th St,Sacramento,CA,95811,(916) 446-1200
Kingdom Kidz Childcare,Family Child Care Home,,Oceanside,CA,92057,(760) 213-7660
"Luna, Jennifer Family Child Care",Child Care Center,1940 N. Kensington Way,Hanford,CA,93230,(559) 737-8735
Alvarez Family Child Care,Family Child Care Home,,Playa Vista,CA,90094,(310) 591-6060
Beach Babies #4,Child Care Center,2270 East El Segundo Blvd,El Segundo,CA,90245,(310) 322-8902
Bancroft 4th R,Child Care Center,2929 Belmar St,Sacramento,CA,95826,(916) 277-6100
Mentor Preschool on Lake,Child Care Center,232 N. Lake Ave. #100,Pasadena,CA,91101,(626) 396-7008
Ahlstrand Family Child Care,Family Child Care Home,,Corona,CA,92880,(714) 651-1295
YMCA of Metro Los Angeles/NV El Oro Way,Child Care Center,12230 El Oro Way,Granada Hills,CA,91344,(818) 368-3231
"Yawn, Cynthia Family Child Care",Family Child Care Home,,Oceanside,CA,92058,(760) 492-4398
Towne and Country Early Education Center,Child Care Center,201 E. Madison Avenue,Placentia,CA,92870,(714) 524-2780
Primrose School Of Livermore,Child Care Center,2901 Las Positas Road,Livermore,CA,94551,(925) 215-7372
Brighter Days Family Childcare,Family Child Care Home,,Moreno Valley,CA,92551,(951) 533-3294
Adventure Club School Age- Cirby School,Child Care Center,814 Darling Way,Roseville,CA,95678,(916) 746-1260
The Montessori Center,Child Care Center,740 Pine Ave,Carlsbad,CA,92008,(442) 333-9359
Sacramento Waldorf School,Child Care Center,3750 Bannister Road,Fair Oaks,CA,95628,(916) 860-2532
Carlsbad Educational Foundation- Kelly Elem.,Child Care Center,4885 Kelly Dr.,Carlsbad,CA,92008,(760) 331-5566
Trajan Discovery Club-Trajan Elementary,Child Care Center,6601 Trajan Dr,Orangevale,CA,95662,(916) 971-5941
Oak Creek CDC,Child Care Center,4 Dove Creek,Irvine,CA,92618,(714) 357-7920
Callie Kirkpatrick CDC,Child Care Center,28800 Reviere Drive,Menifee,CA,92584,(714) 357-7920
Southshore Child Development Center,Child Care Center,30975 Southshore Drive,Menifee,CA,92584,(714) 357-7920
Sterling Montessori & Bambini Montessori,Child Care Center,821 Sterling Parkway Ste 100 & 200,Lincoln,CA,95648,(916) 434-7000
Patricia Estey ,Family Child Care Home,,Antelope,CA,95843,(916) 716-3760
Menifee Child Development Center,Child Care Center,25625 Briggs Road,Menifee,CA,92585,(714) 357-7920
Building Kidz of Scotts Valley,Child Care Center,106 Vine Hill School Road,Scotts Valley,CA,95066,(831) 438-4813
Oak Meadows CDC,Child Care Center,28600 Poinsetta Street,Murrieta,CA,92563,(714) 357-7920
Small World Learning CTR No 2,Child Care Center,1749 N Avalon Blvd,Wilmington,CA,90744,(310) 549-0303
Cesar Chavez School Age CDC,Child Care Center,1221 Anderson Rd,Davis,CA,95616,(530) 753-3808
"Alexander, Patricia",Family Child Care Home,,Elk Grove,CA,95758,(916) 691-6821
Big Future Charter Preschool,Child Care Center,933 W San Marcos Blvd,San Marcos,CA,92078,(760) 744-3900
Building Kidz School- Eureka,Child Care Center,1485 Eureka Road Suite G170,Roseville,CA,95661,(916) 780-5437
"Cortez, Juana Family Child Care",Family Child Care Home,,San Diego,CA,92139,(619) 475-2868
KCE Champions LLC @ Growth Public Schools,Child Care Center,9320 Tech Center Drive,Sacramento,CA,95826,(503) 872-1464
Isaza Sandra,Family Child Care Home,,Santa Clara,CA,95051,(408) 595-1808
Big Future Preschool,Child Care Center,15009 Pomerado Road,Poway,CA,92064,(858) 883-2985
Rainbow Rising Â– Cypress Village,Child Care Center,359 Rush Lily,Irvine,CA,92620,(949) 333-1488
Berling Family Child Care,Family Child Care Home,,Hemet,CA,92545,(951) 489-7486
Play-Ology,Child Care Center,3084 Sunrise Blvd Ste 4,Rancho Cordova,CA,95742,(916) 853-5678
Brenda Cuesta FCCH,Family Child Care Home,,Fairfield,CA,94534,(707) 514-9112
Maria Gonzalez,Family Child Care Home,,Los Gatos,CA,95033,(408) 353-8695
Rashid Family Child Care,Family Child Care Home,,San Pedro,CA,90732,(562) 337-4502
Tutor Time Learning Center,Child Care Center,5855 De Soto Ave,Woodland Hills,CA,91367,(818) 710-1677
Ortega Family Child Care,Family Child Care Home,,Covina,CA,91722,(626) 419-1858
KCE Champions LLC @ Mason,Child Care Center,10337 San Ramon Drive,San Diego,CA,92126,(503) 872-1464
Amy Lee Ulloa,Family Child Care Home,,Santa Maria,CA,93455,(805) 264-8234
Chapman Montessori School ,Child Care Center,11832 Euclid Street,Garden Grove,CA,92840,(714) 591-5927
Kid Ventures Liberty Station Preschool,Child Care Center,2865 Sims Road,San Diego,CA,92106,(619) 573-9625
Ocean View Pre-School,Child Care Center,1900 Western Ave,San Pedro,CA,90732,(310) 514-1048
