provider_name,type_of_care,address,city,state,zip,phone,email
La Rue Park Child Development Center,Child Care Center,50 Atrium Way,Davis,CA,95616,(530) 753-8716,snfaria@ucdavis.edu
Carousel Preschool,Child Care Center,8333 Airport Blvd.,Los Angeles,CA,90045,(310) 216-6641,jane.uy@carouselschool.com
KinderCare Learning Center LLC,Child Care Center,2329 Vehicle Dr,Rancho Cordova,CA,95670,(916) 635-5700,301063@klcorp.com
Azusa Discovery Center,Child Care Center,155 W. Arrow Highway,Azusa,CA,91702,(626) 334-1806,jhdmaddox60@msn.com
Little Peoples Corner Preschool/daycare,Child Care Center,3844 Walnut Drive #c,Eureka,CA,95503,(707) 445-0339,lsfloren@yahoo.com
Olive Knolls Christian School,Child Care Center,6201 Fruitvale Ave.,Bakersfield,CA,93308,(661) 393-3566,wmayes@okcs.us
Peace Lutheran Early Childhood Education Center,Child Care Center,924 San Juan Rd,Sacramento,CA,95834,(916) 927-4060,peacepreschool10@yahoo.com
Kids on Campus,Child Care Center,6889 El Fuerte Street,Carlsbad,CA,92009,(760) 744-4776,carol.allen@smusd.org
Kiddie Academy Child Care Learning Center,Child Care Center,3766 Mission Ave. Suite # 110,Oceanside,CA,92058,(760) 439-5552,kiddieacademy1@aol.com
Action Day Learning Center,Child Care Center,400 Stafford Street,Folsom,CA,95630,(916) 985-0976,Folsom@actiondaylearningcenter.com
La Quinta Preschool,Child Care Center,49-955 Moon River Dr,La Quinta,CA,92253,(760) 564-2848,kmurphy@desertymca.org
Heather Ridge Child Care Center,Child Care Center,820 St Marks Street,Redding,CA,96003,(530) 241-7226,hrcc1@sbcglobal.net
KinderCare Learning Center,Child Care Center,917 Hampshire Rd,Westlake Village,CA,91361,(805) 494-5152,000874@klcorp.com
Girls Inc. Of Greater North Santa Barbara,Child Care Center,4973 Hollister Ave,Goleta,CA,93110,(805) 967-0319,dboneck@girlsincsb.org
Treehouse Christian Preschool 2,Child Care Center,3301 Coffee Rd.,Modesto,CA,95355,(209) 312-9449,treehouseprek2@gmail.com
Sefi Day School,Child Care Center,380 Telegraph Canyon Rd.,Chula Vista,CA,91910,(619) 422-7115,sefidayschool@gmail.com
Bright Horizons Tierrasanta,Child Care Center,6090 Santo Rd.,San Diego,CA,92124,(858) 467-1800,laura.clements@brighthorizons.com
KinderCare Learning Center LLC,Child Care Center,2515 West Sunflower Ave,Santa Ana,CA,92704,(714) 540-4750,300579@kindercare.com
Childtime Children's Center,Child Care Center,27321 Nicolas Rd,Temecula,CA,92591,(951) 693-4843,0258@childtime.com
Michelle Harris Family Child Care,Family Child Care Home,,San Diego,CA,92126,(858) 586-7239,mishdharris16@yahoo.com
La Petite Academy ,Child Care Center,12668 Sabre Springs Pkwy,San Diego,CA,92128,(858) 486-7197,7240@lpacorp.com
Barajas Family Child Care,Family Child Care Home,,San Jacinto,CA,92583,(714) 334-1531,alejandrobarajas1965@gmail.com
Tutor Time Child Care/Learning Center ,Child Care Center,14273 Baseline Ave,Fontana,CA,92336,(909) 350-2422,site4@tutortime.com
KinderCare Learning Center LLC,Child Care Center,2515 E. South St.,Anaheim,CA,92806,(714) 774-5141,300218@klcorp.com
Noahs Ark Learning Center,Child Care Center,1410 Foothill Drive,Vista,CA,92084,(760) 724-5445,noahsarkvista@aol.com
Narinder Family Child Care Home,Family Child Care Home,,Yuba City,CA,95993,(530) 674-5991,n_kang07@yahoo.com
ABC Child Care Village,Child Care Center,40045 Village Road,Temecula,CA,92591,(951) 491-0940,ecollazo@abcvillage.com
Gonzalez Haydee Family Child Care,Family Child Care Home,,Oceanside,CA,92056,(760) 631-2674,gonzalezdaycare@sbcglobal.net
La Petite Academy at Vista,Child Care Center,725 Shadowridge Dr,Vista,CA,92083,(760) 727-0648,7241@lapetite.com
La Jolla Family YMCA- Torrey Pines Elementary,Child Care Center,8350 Cliffridge Ave,La Jolla,CA,92037,(858) 453-3483,mbaguilar@ymca.org
Elizabeth Garza Family Child Care,Family Child Care Home,,Vista,CA,92084,(760) 724-2759,garzae@cox.net
La Petite Academy Inc-Grand Ave,Child Care Center,722 S. Grand Avenue,Diamond Bar,CA,91765,(909) 860-4009,7202@lapetite.com
Merry Go Round Learning Center ,Child Care Center,2749 Lemon Grove Ave,Lemon Grove,CA,91945,(619) 469-7281,careysciotto@cox.net
Eberly Day Care,Family Child Care Home,,Oceanside,CA,92056,(760) 806-4710,pjwoogie@live.com
KinderCare Learning Center LLC,Child Care Center,1611 Woodcreek Dr,Fairfield,CA,94534,(707) 426-2275,301034@klcorp.com
Learning Center Child Development Preschool,Child Care Center,17565 Los Alamos St,Fountain Valley,CA,92708,(714) 593-0753,sbixler@bgchv.com
Ivy Crest Montessori Private School,Child Care Center,2025 E. Chapman Ave.,Fullerton,CA,92831,(714) 879-6091,lmomongan@ivycrest.org
Kids' Care Club,Child Care Center,9995 Carmel Mountain Road #B8,San Diego,CA,92129,(858) 538-5437,ginger@kidscareclub.com
Hillcrest Country Day School,Child Care Center,2000 West Rd,La Habra Heights,CA,90631,(562) 943-8332,
KinderCare Learning Center LLC,Child Care Center,5251 E Las Lomas St,Long Beach,CA,90815,(562) 961-8882,301626@klcorp.com
KinderCare Learning Center LLC ,Child Care Center,8887 Vintage Park Dr,Sacramento,CA,95828,(916) 682-1111,301358@klcorp.com
New Life Figarden School,Child Care Center,4230 W Figarden Dr,Fresno,CA,93722,(559) 225-8687,nlds1985@yahoo.com
KinderCare Learning Center LLC,Child Care Center,9735 Cuyamaca St,Santee,CA,92071,(619) 562-3423,300897@kc-education.com
Campos Maritza Family Child Care,Family Child Care Home,,San Diego,CA,92115,(619) 583-7180,mc-daycare@hotmail.com
Brown Family Child Care,Family Child Care Home,,Murrieta,CA,92563,(619) 565-8667,preciouslambs87@gmail.com
KinderCare Learning Center LLC,Child Care Center,2354 Fenton Street,Chula Vista,CA,91914,(619) 656-9853,301770@klcorp.com
Sunshine House - Loma Vista Kid Zone,Child Care Center,2110 San Jose Ave,Brentwood,CA,94513,(925) 513-1113,sunshinehouseLV@gmail.com
Sylvia Alvarez-Tostado,Family Child Care Home,,San Diego,CA,92154,(619) 575-6791,sylviaalvareztostado@gmail.com
Paulette Johnson,Family Child Care Home,,San Diego,CA,92113,(619) 527-0463,kids4everfamily@yahoo.com
KinderCare Learning Center LLC,Child Care Center,420 Natoma Station Dr,Folsom,CA,95630,(916) 353-0687,301697@klcorp.com
Discovery Isle Child Development Center,Child Care Center,32220 Temecula Parkway,Temecula,CA,92592,(951) 303-3055,kristi.polk@discoveryisle.com
KinderCare Learning Center LLC,Child Care Center,1101 Paseo Ladera,Chula Vista,CA,91910,(619) 482-1800,303073@klcorp.com
KinderCare Learning Center LLC ,Child Care Center,265 W. Grantline Road,Tracy,CA,95376,(209) 835-9247,301051@klcorp.com
KinderCare Learning Center LLC,Child Care Center,610 E Nuevo Rd,Perris,CA,92571,(951) 943-6476,303002@klcorp.com
"Owensbrown, Stephanie Family Child Care",Family Child Care Home,,Chula Vista,CA,91913,(619) 621-1764,Achildsplace0687@cox.net
Avan Family Child Care,Family Child Care Home,,Chula Vista,CA,91910,(619) 947-9190,avannoory@yahoo.com
KinderCare Learning Center LLC,Child Care Center,23301 Olivewood Plaza Dr.,Moreno Valley,CA,92553,(951) 924-1956,300782@klcorp.com
"Salvador, Ariel & Anita Family Child Care",Family Child Care Home,,San Diego,CA,92123,(858) 467-9821,anitasalvador05@yahoo.com
Copley Family YMCA - Central Elementary-Preschool,Child Care Center,4063 Polk Avenue,San Diego,CA,92105,(619) 280-9622,cflores-gonzalez@ymca.org
South Coast YMCA-Hidden Hills,Child Care Center,25142 Hidden Hills Road,Laguna Niguel,CA,92677,(949) 542-3904,ssciortino@ymcaoc.org
KinderCare Learning Center LLC,Child Care Center,24369 Skyview Ridge Dr,Murrieta,CA,92562,(951) 696-0825,301458@klcorp.com
"Robinson Tanner, Ericka Family Child Care",Family Child Care Home,,San Diego,CA,92114,(818) 318-6915,froggiemee79@gmail.com
KinderCare Learning Center LLC,Child Care Center,1200 Plum Tree Rd.,Carlsbad,CA,92011,(760) 435-0001,301634@klcorp.com
Wee Care Preschool,Child Care Center,3580 Mt. Acadia Blvd,San Diego,CA,92111,(858) 560-0985,diane@weecarepreschools.com
New Generations Learning Center Plus,Child Care Center,9878 Hibert St,San Diego,CA,92131,(858) 271-9878,lorij@nglc.org
KinderCare Education LLC,Child Care Center,11290 Paseo Montanoso,San Diego,CA,92127,(858) 672-1200,ranchobernardo@kindercare.com
La Petite Academy Inc.,Child Care Center,4179 Avenida Dela Plata,Oceanside,CA,92056,(760) 941-5406,srodriguez3@lapetite.com
KinderCare Learning Center LLC,Child Care Center,1655 Hidden Valley Pkwy,Corona,CA,92879,(951) 898-5677,301670@klcorp.com
Community Congregational Church,Child Care Center,276 F Street,Chula Vista,CA,91910,(619) 420-2046,apple2@cox.net
"Dejohnette, Michelle Family Child Care",Family Child Care Home,,San Diego,CA,92114,(619) 955-8568,growingthevillage@gmail.com
Montessori School of Oceanside,Child Care Center,3525 Cannon Road,Oceanside,CA,92056,(760) 941-3883,msopto@yahoo.com
Childtime Learning Center,Child Care Center,700 E Esplanade Dr,Oxnard,CA,93036,(805) 983-7779,0259@childtime.com
Ames Child Care Center,Child Care Center,270 R.T. Jones Road,Mountain View,CA,94035,(650) 604-5100,claire.hung@ameschildcare.org
Angelica's Childcare,Family Child Care Home,,San Diego,CA,92126,(858) 536-5991,angelica69@san.rr.com
Scripps Exploring Academy,Child Care Center,9855 Erma Rd Suite 128,San Diego,CA,92131,(858) 693-3702,tbasanec@gmail.com
Childtime Children's Center ,Child Care Center,4280 Via Rancho Road,Oceanside,CA,92057,(760) 967-5846,0256@childtime.com
"Rosemont Playschool, Inc., Mather Playschool",Child Care Center,10265 Rockingham Dr Ste 150,Sacramento,CA,95827,(916) 366-5800,books.mather@gmail.com
Childtime Children's Center-Chula Vista,Child Care Center,770 Rancho Del Rey Parkway,Chula Vista,CA,91910,(619) 397-0165,0255@childtime.com
Castles Preschool,Child Care Center,55 Jan Ct.,Chico,CA,95928,(530) 892-2273,castlekids123@yahoo.com
KinderCare Learning Center LLC,Child Care Center,5445 Canyon Crest Dr,Riverside,CA,92507,(951) 683-1626,301224@klcorp.com
Discovery Isle Child Development Center,Child Care Center,23785 Washington Avenue,Murrieta,CA,92562,(951) 304-3033,ashley.kerr@nlcinc.com
Southwestern College Child Development Center,Child Care Center,900 Otay Lakes Road,Chula Vista,CA,91910,(619) 216-6695,cdc@swccd.edu
Kids' Care Club,Child Care Center,10414 Craftsman Way,San Diego,CA,92127,(858) 675-7000,Tobi@kidscareclub.com
Bonita Country Day School,Child Care Center,625 Otay Lakes Rd,Chula Vista,CA,91913,(619) 656-0141,admin@bonitacountryday.org
KinderCare Learning Center LLC,Child Care Center,3536 College Blvd.,Oceanside,CA,92056,(760) 940-2008,301062@klcorp.com
"Reyes, Maribel Family Child Care",Family Child Care Home,,Oceanside,CA,92054,(760) 696-8488,maribelsdaycare1@yahoo.com
Action Day Primary Plus- Infant Center,Child Care Center,2154 Lincoln Avenue,San Jose,CA,95125,(408) 266-8188,lincolnic@actiondayprimaryplus.com
KinderCare Learning Center LLC,Child Care Center,11249 Baseline Rd.,Rancho Cucamonga,CA,91730,(909) 581-0944,terravista@kindercare.com
KinderCare Learning Center LLC,Child Care Center,5141 Foothills Blvd,Roseville,CA,95747,(916) 772-5252,301566@kindercare.com
Horizon Christian Preschool,Child Care Center,5331 Mt. Alifan Drive,San Diego,CA,92111,(858) 277-9376,mmoser@horizonsd.org
KinderCare Learning Center LLC,Child Care Center,2360 Pickwick Dr,Camarillo,CA,93010,(805) 445-8485,301645@klcorp.com
KinderCare Learning Center,Child Care Center,10110 Church Street,Rancho Cucamonga,CA,91730,(909) 945-9381,monique.acosta@klcorp.com
Marilla-Lakeside Early Advantage Preschool,Child Care Center,9745 Marilla Dr,Lakeside,CA,92040,(619) 390-2534,sremers@lsusd.net
LUSD-ESS @ Lakeside Farms Elementary,Child Care Center,11915 Lakeside Ave,Lakeside,CA,92040,(619) 390-2534,sremers@lsusd.net
KinderCare Learning Center LLC,Child Care Center,2251 Sunset Blvd.,Rocklin,CA,95765,(916) 315-3399,301580@klcorp.com
KinderCare Learning Center LLC,Child Care Center,6150 Agee St,San Diego,CA,92122,(858) 453-7530,universitycity@kindercare.com
Berumen Day Care,Family Child Care Home,,Oceanside,CA,92058,(760) 730-5306,berumenmib@aol.com
Merry Go Around,Child Care Center,9175 Kearny Villa Rd,San Diego,CA,92126,(858) 536-1008,yvette@merrygoaround.org
Sonia's Family Childcare,Family Child Care Home,,Vista,CA,92083,(760) 630-8676,Soniadagni@aol.com
KinderCare Learning Center LLC,Child Care Center,18727 Carmenita Rd.,Cerritos,CA,90703,(562) 924-8718,300474@klcorp.com
KinderCare Education LLC,Child Care Center,1190 W. Herndon,Pinedale,CA,93650,(559) 438-7740,070304@klcorp.com
Montessori School of Oceanside #2,Child Care Center,4760 Oceanside Blvd Suite B10,Oceanside,CA,92056,(760) 724-8955,mont27@sbcglobal.net
Hearts And Hands Christian Childcare Center and Preschool,Child Care Center,40 Blanca Lane,Watsonville,CA,95076,(831) 724-0175,hhwatsonville@hhpreschool.com
Maria Tanita,Family Child Care Home,,San Diego,CA,92106,(619) 226-2275,auntiefatima@gmail.com
"Sprowell, Elizabeth and Robert Family Child Care",Family Child Care Home,,Oceanside,CA,92056,(760) 940-1953,iowabob@cox.net
Tutor Time Child Care Learning Center,Child Care Center,9440 Cuyamaca St,Santee,CA,92071,(619) 448-4445,6216@tutortime.com
"Scott, Ixchelle Family Child Care",Family Child Care Home,,Chula Vista,CA,91915,(619) 746-2664,strawberrysweets73079@yahoo.com
Shoreline Baptist Church/Shoreline Christian Preschool,Child Care Center,10350 Ellis Ave,Fountain Valley,CA,92708,(714) 962-6886,cmearig@shorelinebaptist.org
KinderCare Learning Center LLC,Child Care Center,44400 Foxton Ave,Lancaster,CA,93535,(661) 948-1767,301227@klcorp.com
VUSD AM-PM,Child Care Center,1234 Arcadia Avenue,Vista,CA,92084,(760) 726-8179,cheriborger@vistausd.org
Columbia Elementary School District,Child Care Center,10142 Old Oregon Trail,Redding,CA,96002,(530) 223-3874,banderson@columbiasd.com
KinderCare Learning Center LLC,Child Care Center,7897 Mission Grove Parkway,Riverside,CA,92508,(951) 789-4762,301736@klcorp.com
Cajon Valley Union School,Child Care Center,3845 Avocado School Rd,La Mesa,CA,91941,(619) 441-6172,andrabadon@cajonvalley.net
Gordon Family Child Care,Family Child Care Home,,Torrance,CA,90504,(310) 327-3317,bernettagordon@yahoo.com
Pilgrim Lutheran School-Child Care Program,Child Care Center,497 E Street,Chula Vista,CA,91910,(619) 420-6233,dburge@pilgrimcv.org
Tutor Time Child Care/Learning Center,Child Care Center,5805 Corporate Avenue,Cypress,CA,90630,(714) 484-1000,6003@tutortime.com
KinderCare Learning Center LLC,Child Care Center,3223 Associated Rd,Fullerton,CA,92835,(714) 990-0889,301771@klcorp.com
"Brown, Barbara Family Day Care",Family Child Care Home,,San Diego,CA,92129,(858) 571-8701,trini_mom_143@yahoo.com
Sherrie's Home Day Care,Family Child Care Home,,Shasta Lake,CA,96019,(530) 275-1935,kidsrus14@att.net
Grace Lutheran Child Development Center,Child Care Center,3967 Park Blvd,San Diego,CA,92103,(619) 987-0181,rblas@gracesandiego.com
Kid's World Preschool,Child Care Center,41956 Third Street,Temecula,CA,92590,(951) 676-5445,Kidsworld@vanaveryprep.com
"Kids Play, Inc",Child Care Center,1664 Hilby Ave,Seaside,CA,93955,(831) 899-9000,amandakaps@aol.com
"Sauceda, Maria Family Child Care",Family Child Care Home,,Vista,CA,92083,(760) 560-7031,mssauceda@cox.net
Lofton Family Child Care,Family Child Care Home,,Hemet,CA,92545,(951) 766-5081,tracylofton_1@hotmail.com
Bonita Myers Family Daycare,Family Child Care Home,,El Cajon,CA,92021,(619) 444-9633,paul77@sbcglobal.net
Eunice Mendoza Family Child Care,Family Child Care Home,,Turlock,CA,95382,(209) 656-0242,em4qcc@sbcglobal.net
"La Petite Academy, Inc.",Child Care Center,795 Corral Canyon Rd,Bonita,CA,91902,(619) 421-5238,7235@lapetite.com
KCE Champions LLC at Helen Casetllo Elementary,Child Care Center,9850 Fire Poppy Dr,Elk Grove,CA,95757,(916) 690-8718,subsidy@kc-education.com
Fun Time Family Child Care,Family Child Care Home,,San Diego,CA,92154,(619) 271-8956,mayfclark@yahoo.com
Julie Munoz Family Child Care,Family Child Care Home,,National City,CA,91950,(619) 773-7807,littletreasuresfamchildcare@yahoo.com
Socorro Gonzales,Family Child Care Home,,Murrieta,CA,92563,(951) 696-0974,chargergonz5@gmail.com
Gold/Rodriguez Family Childcare,Family Child Care Home,,Winchester,CA,92596,(760) 766-5132,agold00@aol.com
So. Bay Fam. YMCA - Discovery Elem.,Child Care Center,1100 Camino Biscay,Chula Vista,CA,91910,(619) 421-9622,ctriana@ymca.org
Kindercare Learning Center @ Old Depot,Child Care Center,10036 Old Depot Plaza Road,Chatsworth,CA,91311,(818) 882-8016,070376@klcorp.com
Learning Universe # 302,Child Care Center,5202 N Blythe Ave,Fresno,CA,93722,(559) 275-0627,center0302@klcorp.com
KinderCare Learning Centers LLC,Child Care Center,2425 Oakbrook Dr.,Thousand Oaks,CA,91362,(805) 492-2495,300856@klcorp.com
KinderCare Learning Center LLC,Child Care Center,3760 Brockton Dr,Pleasanton,CA,94588,(925) 846-1240,300878@klcorp.com
Kindercare Learning Center #984,Child Care Center,150 E Leland Rd,Pittsburg,CA,94565,(925) 432-8800,pzimmerman@klcorp.com
KinderCare Learning Center LLC,Child Care Center,1197 S Victoria Avenue,Ventura,CA,93003,(805) 339-9363,301666@kindercare.com
KinderCare Learning Center LLC,Child Care Center,1650 Stoner Creek Road,City of Industry,CA,91748,(626) 965-3550,300743@klcorp.com
Primrose School of Pleasanton,Child Care Center,7110 Koll Center Parkway,Pleasanton,CA,94566,(925) 600-7746,director@primrosepleasanton.com
KinderCare Education LLC,Child Care Center,1741 Santa Clara Dr,Roseville,CA,95661,(916) 784-1039,070386@klcorp.com
KinderCare Education LLC,Child Care Center,3431 Marlee Way,Rocklin,CA,95677,(916) 624-7831,000663@kindercare.com
KinderCare Learning Center LLC,Child Care Center,9250 Elk Grove Florin Road,Elk Grove,CA,95624,(916) 714-2772,301865@klcorp.com
KinderCare Learning Center LLC,Child Care Center,6825 Purslane Way,Citrus Heights,CA,95621,(916) 723-9696,300820@klcorp.com
KinderCare Education LLC,Child Care Center,860 N Hillview Dr,Milpitas,CA,95035,(408) 263-0444,000388@klcorp.com
KinderCare Learning Center,Child Care Center,400 S. Abel St.,Milpitas,CA,95035,(408) 263-7212,300873@klcorp.com
KinderCare Learning Center LLC,Child Care Center,17730 Rinaldi St.,Granada Hills,CA,91344,(818) 363-8442,301012@kindercare.com
KinderCare Learning Center LLC,Child Care Center,840 Bing Dr,Santa Clara,CA,95051,(408) 246-2141,300460@klcorp.com
Kindercare Learning Center LLC,Child Care Center,8765 Sierra College Blvd,Roseville,CA,95661,(916) 789-9898,301623@klcorp.com
KinderCare Learning Center LLC,Child Care Center,993 E. Champlain Avenue,Fresno,CA,93720,(559) 433-6630,301750@klcorp.com
Juniorversity Inc.,Child Care Center,2400 S Central Ave,Compton,CA,90220,(310) 638-3500,gwen@juniorversity.com
KinderCare Education LLC,Child Care Center,2065 West El Camino Real,Mountain View,CA,94040,(650) 967-4430,301507@klcorp.com
KinderCare Education LLC,Child Care Center,10191 Foothill Blvd.,Rancho Cucamonga,CA,91730,(909) 989-6136,300845@klcorp.com
KinderCare Learning Center LLC ,Child Care Center,43536 22nd St W,Lancaster,CA,93536,(661) 948-3570,301181@klcorp.com
KinderCare Learning Center LLC,Child Care Center,11925 Amador Valley Court,Dublin,CA,94568,(925) 875-0400,301595@klcorp.com
KinderCare Learning Center LLC,Child Care Center,1101 Rose Dr,Benicia,CA,94510,(707) 745-0916,301101@klcorp.com
KinderCare Education LLC,Child Care Center,4108 Lone Tree Way,Antioch,CA,94531,(925) 754-1236,000409@klcorp.com
KinderCare Learning Center LLC,Child Care Center,33788 Yucaipa Boulevard,Yucaipa,CA,92399,(909) 797-4713,301824@klcorp.com
KinderCare Learning Center LLC,Child Care Center,1730 E. Washington St,Colton,CA,92324,(909) 824-1004,301048@klcorp.com
KinderCare Learning Center LLC ,Child Care Center,4655 Lassen Road,Livermore,CA,94551,(925) 455-1560,300838@klcorp.com
KinderCare Learning Center LLC,Child Care Center,1175 Via Verde Rd,San Dimas,CA,91773,(909) 592-2220,301361@klcorp.com
Sheehan's Family Childcare,Family Child Care Home,,Menifee,CA,92584,(951) 570-7131,sheehanlittlebear@gmail.com
KinderCare Learning Center LLC,Child Care Center,3808 Townsgate Drive,San Diego,CA,92130,(858) 794-7710,delmarhighlands@kindercare.com
KinderCare Learning Center LLC,Child Care Center,16149 W Foothill Blvd,Fontana,CA,92335,(909) 823-2323,303010@klcorp.com
KinderCare Education at Work LLC,Child Care Center,453 La Moree Rd,San Marcos,CA,92078,(760) 750-8750,072221@klcorp.com
KinderCare Learning Center LLC,Child Care Center,30075 Alicia Parkway,Laguna Niguel,CA,92677,(949) 249-2321,301180@kc-education.com
KinderCare Learning Center LLC,Child Care Center,13815 Peyton Dr,Chino Hills,CA,91709,(909) 464-2255,301529@klcorp.com
KinderCare Education LLC,Child Care Center,975 W Carson St,Torrance,CA,90503,(310) 222-4274,070374@klcorp.com
KinderCare Learning Center LLC,Child Care Center,1001 E Imperial Hwy.,Placentia,CA,92870,(714) 528-4161,301660@klcorp.com
"Childtime Childcare, Inc. @ Sierra",Child Care Center,2091 Sierra Ave,Clovis,CA,93611,(559) 297-5013,0221@childtime.com
Kindercare Learning Center LLC,Child Care Center,15928 Los Serranos Country Club Drive,Chino Hills,CA,91709,(909) 606-7744,301635@klcorp.com
KinderCare Learning Center LLC,Child Care Center,10065 Paseo Montril,San Diego,CA,92129,(858) 484-3232,300882@klcorp.com
KinderCare Learning Center,Child Care Center,3602 Wheeler Ave,La Verne,CA,91750,(909) 596-8200,303020@klcorp.com
KinderCare Education at Work LLC,Child Care Center,10068 Pacific Heights Blvd,San Diego,CA,92121,(858) 546-9115,081038@klcorp.com
Good Shepherd Montessori School,Child Care Center,1350 W 25th St,San Pedro,CA,90732,(310) 547-4986,trina.mendoza@sbcglobel.net
"Kindercare Learning Center, Inc. @ Oakdale",Child Care Center,1237 Oakdale Road,Modesto,CA,95355,(209) 521-5351,301115@klcorp.com
KinderCare Learning Center LLC,Child Care Center,7801 Mariners Drive,Stockton,CA,95219,(209) 477-3723,300971@kindercare.com
Kindercare Learning Center LLC,Child Care Center,1785 Villa Ave,Clovis,CA,93612,(559) 297-1888,301015@kindercare.com
KinderCare Education LLC,Child Care Center,10704 Scott Ave,Whittier,CA,90604,(562) 947-7100,070332@klcorp.com
KinderCare Learning Center LLC,Child Care Center,3959 Park Drive,El Dorado Hills,CA,95762,(916) 939-0391,301749@klcorp.com
KinderCare Learning Center LLC,Child Care Center,9394 Bruceville Road,Elk Grove,CA,95758,(916) 684-4040,301248@klcorp.com
KinderCare Education LLC,Child Care Center,2321 Eagle Rock Ave,Brentwood,CA,94513,(925) 513-4118,301830@kc-education.com
KinderCare Education LLC,Child Care Center,2850 Cherry Lane,Walnut Creek,CA,94597,(925) 943-6777,070343@kc-education.com
KinderCare Education LLC,Child Care Center,401 N Buena Vista St,Burbank,CA,91505,(818) 846-1063,070207@kindercare.com
Three Angels Preschool and Infant Center,Child Care Center,6300 Telephone Rd,Ventura,CA,93003,(805) 639-0363,mary3angels@roadrunner.com
Maria Ledezma,Family Child Care Home,,San Diego,CA,92154,(619) 428-5517,mledezma11@yahoo.com
KinderCare Learning Center LLC,Child Care Center,9945 Slater Avenue,Fountain Valley,CA,92708,(714) 968-4451,301583@klcorp.com
H Street Children's Center,Child Care Center,194 H St,Chula Vista,CA,91910,(619) 422-4904,hstcc@yahoo.com
Connie Vera,Family Child Care Home,,Chula Vista,CA,91911,(619) 656-8579,connievera62@yahoo.com
KinderCare Leaning Center,Child Care Center,1515 Cirby Way,Roseville,CA,95561,(916) 782-2101,000641@klcorp.com
Lujan Family Child Care,Family Child Care Home,,Sun City,CA,92586,(951) 679-0824,fredalujan@aol.com
Poway Unified School District - Painted Rock ESS,Child Care Center,16711 Martincoit Road,Poway,CA,92064,(858) 521-2800,mhart@powayusd.com
The Little Country Preschool,Child Care Center,1571 S. Hale Ave.,Escondido,CA,92029,(760) 746-0881,lcp1571@cox.net
Loma Linda Children Center,Child Care Center,25228 Shepardson Dr ,Loma Linda,CA,92354,(909) 796-0161,llacc@lla.org
Cottage Kids Children's Center,Child Care Center,2800 Cottage Way,Sacramento,CA,95825,(916) 979-2011,cotg@brighthorizons.com
Little Scholars Preschool,Child Care Center,1605 Kimball Rd,Red Bluff,CA,96080,(530) 527-3932,littlescholars09@yahoo.com
"Williams, V & L., Santiago, C. Family Child Care",Family Child Care Home,,Spring Valley,CA,91977,(619) 479-8694,docvsw@yahoo.com
Koala Kubhouse Childcare Home,Family Child Care Home,,Murrieta,CA,92563,(619) 250-6067,tjskoalakubhouse@yahoo.com
Harrison Family Day Care,Family Child Care Home,,Santee,CA,92071,(619) 562-8925,zackmitchell1@yahoo.com
Palomar Family YMCA- Bernardo ,Child Care Center,1122 Mountain Heights Dr.,Escondido,CA,92029,(760) 745-7490,asoto@ymca.org
Palomar Family YMCA- Reidy Creek,Child Care Center,2869 N. Broadway,Escondido,CA,92026,(760) 745-7490,asoto@ymca.org
KCE Champions LLC @ Sunrise Elementary,Child Care Center,11821 Cobble Brook Drive,Rancho Cordova,CA,95742,(916) 294-0061,subsidy@kc-education.com
New Montessori School,Child Care Center,15243 E. Nelson Avenue,La Puente,CA,91744,(626) 369-4335,newmontessori@yahoo.com
"Ramirez, Maria Elena Family Child Care",Family Child Care Home,,San Diego,CA,92124,(858) 565-6591,ramirezmmary@aol.com
The Growing Place Montessori,Child Care Center,13242 Pomerado Road,Poway,CA,92064,(858) 679-1554,jennifer@thegrowingplace.net
Temple Beth El Child Development Center,Child Care Center,2675 Central Ave.,Riverside,CA,92506,(951) 682-7282,tanya.soleski@tbecdc.com
Poway Unified School District - Pomerado Elementary School ESS,Child Care Center,12321 Ninth Street,Poway,CA,92064,(858) 521-2800,mhart@powayusd.com
Discovery Isle Child Development Center,Child Care Center,6130 Paseo Del Norte,Carlsbad,CA,92011,(760) 431-7090,vanessa.milroy@discoveryisle.com
Tutor Time Child Care Learning Center,Child Care Center,7191 Boulder Ave,Highland,CA,92346,(909) 864-0829,6191@tutortime.com
"Jennings, Dymphna Family Child Care",Family Child Care Home,,Chula Vista,CA,91914,(619) 616-8527,5chocolatechips@gmail.com
Eastlake Community Church Preschool,Child Care Center,2351 Otay Lakes Rd,Chula Vista,CA,91915,(619) 421-4156,preschool@eastlakechurch.com
Erica's Lil Tikes Child Care,Family Child Care Home,,San Diego,CA,92124,(619) 841-8170,ericasliltikes@att.net
"Chez Grand Mere, Inc",Child Care Center,1510 West Almond Ave,Orange,CA,92862,(714) 634-8118,chezalmond@gmail.com
Jones Olivetta Russell,Family Child Care Home,,San Diego,CA,92113,(619) 237-1246,olivetta.russell@yahoo.com
Childtime Children's Center @ World Trade,Child Care Center,One World Trade Center Ste 199,Long Beach,CA,90831,(562) 437-7498,0229@childtime.com
Emerson Child Development Center,Child Care Center,2625 Josie Ave,Long Beach,CA,90815,(562) 421-8210,cyoung@lbschools.net
Green Family Child Care,Family Child Care Home,,Perris,CA,92570,(956) 657-7700,ansinag@yahoo.com
Sonshine Factory,Child Care Center,44514 20th St. W,Lancaster,CA,93534,(661) 949-3550,eortiz@lancasterchurch.com
Pinecrest Schools - Lancaster,Child Care Center,2110 West Ave K,Lancaster,CA,93536,(661) 723-0366,mpedraza@pinecrestschools.com
Discoveries Learning Center,Child Care Center,4519 Hollister Ave,Santa Barbara,CA,93110,(805) 683-3001,discoveries@brighthorizons.com
Bright Horizons at 221 Main Street,Child Care Center,221 Main St,San Francisco,CA,94105,(415) 495-1706,221main@brighthorizons.com
Faith Day Care Center,Child Care Center,505 East Bonita Ave,San Dimas,CA,91773,(909) 599-0783,faithdcpreschool@ymail.com
East County Christian Preschool,Child Care Center,10701 N. Magnolia Ave.,Santee,CA,92071,(619) 258-2029,eccps@newheightscommunity.org
Bright Horizons at San Clemente,Child Care Center,2015 Calle Frontera,San Clemente,CA,92673,(949) 492-5555,sanclemente@brighthorizons.com
The Phoenix Schools (Carmichael),Child Care Center,2921 Garfield Avenue,Carmichael,CA,95608,(916) 481-6144,carmichael@phoenixschools.com
St. Mary's Preschool,Child Care Center,130 East. 13th Ave.,Escondido,CA,92025,(760) 743-1275,darlenekv@msn.com
Sandra Lechuga,Family Child Care Home,,Atascadero,CA,93422,(805) 466-8537,sandralechugad@yahoo.com
"Miramontes, Carina Family Child Care",Family Child Care Home,,Chula Vista,CA,91910,(619) 934-1564,rejoicencare@yahoo.com
Bright Horizons Encinitas,Child Care Center,1430 Amargosa,Encinitas,CA,92024,(760) 942-0500,encinitas@brighthorizons.com
Yahjian Family Child Care,Family Child Care Home,,La Canada Flintridge,CA,91011,(818) 957-6369,gyahjian@hotmail.com
Bright Horizons at Dublin,Child Care Center,7035 Dublin Blvd,Dublin,CA,94568,(925) 479-9573,dublin.ca@brighthorizons.com
Marisa Martinez Family Child Care,Family Child Care Home,,Chula Vista,CA,91911,(619) 585-7424,cvlearnandgrow@yahoo.com
La Petite Academy,Child Care Center,14040 Bear Valley Rd,Victorville,CA,92392,(760) 241-4748,7200@lapetite.com
Good Shepherd Preschool,Child Care Center,4800 Irvine Center Drive,Irvine,CA,92604,(949) 552-1967,molly@gspirvine.org
YMCA Of Metro LA- North Valley,Child Care Center,11630 Indian Hills Rd,Mission Hills,CA,91345,(818) 368-3231,Lauriepinkston@ymcala.org
The Learning Center,Child Care Center,1570 Marion St.,Kingsburg,CA,93631,(559) 897-7928,thelearningcenterk@sbcglobal.net
Debbie Galvez Family Childcare,Family Child Care Home,,San Diego,CA,92139,(619) 267-8105,debbie_galvez@sbcglobal.net
Scripps Tender Loving Care,Family Child Care Home,,San Diego,CA,92131,(858) 621-0631,miriamkaveh@gmail.com
Tutor Time Child Care/Learning Center,Child Care Center,6020 Hamner Avenue,Eastvale,CA,91752,(951) 361-4466,6005@tutortime.com
Arroyo Family Child Care,Family Child Care Home,,Murrieta,CA,92563,(760) 505-0937,antonio_rry@hotmail.com
My Room to Grow Preschool,Child Care Center,13613 Cynthia Ln.,Poway,CA,92064,(858) 776-1468,kids@powaypreschool.com
"Ramirez, Cruz Family Child Care",Family Child Care Home,,Oceanside,CA,92057,(760) 613-3501,ramirezc5@cox.net
Patricia Delgado Family Child Care,Family Child Care Home,,Chula Vista,CA,91914,(619) 656-9615,patriciadelg@sbcglobal.net
Anne Sullivan Preschool and Kindergarten,Child Care Center,21776 Palomar St.,Wildomar,CA,92595,(951) 678-3557,admin@annesullivanschool.com
"Juarez, Sherry",Family Child Care Home,,National City,CA,91950,(619) 263-9955,SHERRY.ADAMS1@COX.NET
Bert & Ernie's Preschool,Child Care Center,255 North Lincoln Ave Suite G,Dixon,CA,95620,(707) 678-4440,bertanderniespreschool@hotmail.com
Tutor Time,Child Care Center,5309 Beach Blvd,Buena Park,CA,90621,(714) 690-0112,tutortimebuenapark@yahoo.com
KCE Champions LLC at Marengo Ranch Elementary,Child Care Center,1000 Elk Hills Drive,Galt,CA,95632,(916) 753-7001,subsidy@kc-education.com
Bussey Family Child Care,Family Child Care Home,,Temecula,CA,92592,(951) 240-7853,juliebsdaycare@yahoo.com
"Johnson, Keysha Licensed Family Child Care",Family Child Care Home,,San Diego,CA,92114,(619) 512-1540,msklg1@yahoo.com
Step by Step Christian Preschool & Infant Center,Child Care Center,755 Civic Center Drive,Vista,CA,92084,(760) 941-8991,silvia@sbschristiancenter.com
Pinecrest Schools,Child Care Center,4974 Cochran Ave,Simi Valley,CA,93063,(805) 527-6015,ppasquin@pinecrestschools.com
Hordagoda Roshini Sivapriya,Family Child Care Home,,Woodland Hills,CA,91637,(818) 887-0852,hordagodafamily@yahoo.com
Marisol Cochran Day Care,Family Child Care Home,,Oceanside,CA,92056,(760) 295-6826,marisolp75@msn.com
Palomar Community College ECE Lab School,Child Care Center,1140 W Mission Road,San Marcos,CA,92069,(760) 744-1150,rrobelin@palomar.edu
Maryvale Early Education Center,Child Care Center,7600 E Graves Ave,Rosemead,CA,91770,(626) 537-3316,gsantoyo@maryvale.org
Child Prodigy,Family Child Care Home,,National City,CA,91950,(619) 534-5385,cppc.2006@sbcglobal.net
R Lil Angels Day care ,Family Child Care Home,,Antioch,CA,94509,(925) 727-5268,rlilangelsdaycare@yahoo.com
Katie's Kids,Family Child Care Home,,Chula Vista,CA,91913,(619) 656-2272,katie.l.pender@gmail.com
Martha Family Child Care,Family Child Care Home,,San Diego,CA,92104,(619) 283-5269,martha9090@live.com
Penny & Peggy Nairn 24 Hour Childcare ,Child Care Center,9213 N. Columbus Ave,North Hills,CA,91342,(818) 652-7618,pnp24hr@gmail.com
Penny And Peggy Nairn 24 Hour Childcare,Child Care Center,15300 Dearborn,North Hills,CA,91343,(818) 652-7618,pnp24hr@gmail.com
Harry Pregerson Child Care Center,Child Care Center,255 E. Temple Street,Los Angeles,CA,90012,(213) 894-1556,tiffany.hp@mwpccc.org
Kountry Kids Preschool,Child Care Center,229 S. Shepherd St.,Sonora,CA,95370,(209) 533-1500,decroyd@yahoo.com
Bright Horizons Del Mar,Child Care Center,3720 Arroyo Sorrento Rd,San Diego,CA,92130,(858) 509-0419,lisa.silas@brighthorizons.com
Kids Care Club,Child Care Center,40665 Winchester Rd,Temecula,CA,92591,(951) 296-9456,jill@kidscareclub.com
Margarita's Child Care,Family Child Care Home,,San Diego,CA,92105,(619) 563-1982,sarahimargarita@hotmail.com
4th R-H. Allen Hights,Child Care Center,3200 North Park Drive,Sacramento,CA,95835,(916) 566-6422,sdelgadillo@cityofsacramento.org
"Medina, Mary Family Child Care",Family Child Care Home,,San Diego,CA,92110,(619) 251-6067,aroyallimos@yahoo.com
"Abdullah, Donna Family Child Care",Family Child Care Home,,San Diego,CA,92117,(858) 278-0260,dspreschool@cox.net
Bowers Child Development Infant Program,Child Care Center,1840 Benton Ave,Santa Clara,CA,95050,(408) 423-1115,rflores@scusd.net
Montessori School of San Diego,Child Care Center,1323 W. Spruce St.,San Diego,CA,92103,(619) 295-7591,montessorisandiego@sbcglobal.net
Budnie Skelton,Family Child Care Home,,Sacramento,CA,95832,(916) 397-0495,bskelton08@comcast.net
Y's Kids Linwood/Visalia YMCA,Child Care Center,3129 S. Lindwood,Visalia,CA,93277,(559) 627-0700,edie@visaliaymca.org
Peregrine Project,Child Care Center,2907 Portage Bay West,Davis,CA,95616,(530) 753-5500,leebalin@peregrineschool.org
Apple Valley Child Care,Child Care Center,18609 Corwin Road,Apple Valley,CA,92307,(760) 242-5437,his_will_for_me@yahoo.com
Childrens Lighthouse of Riverside,Child Care Center,19743 Lurin Ave,Riverside,CA,92508,(951) 653-6688,riverside@childrenslighthouse.com
Kiddie Academy of Vacaville,Child Care Center,880 Alamo Dr.,Vacaville,CA,95688,(707) 446-4222,vacaville@kiddieacademy.net
Del Mar Union School District,Child Care Center,13555 Boquita Dr,Del Mar,CA,92014,(858) 793-0071,pliu@dmusd.org
"Garcia, Maria Family Child Care",Family Child Care Home,,Spring Valley,CA,91977,(619) 267-8025,elsagarcia009@gmail.com
One World Montessori School ,Child Care Center,2495 Cabrillo Avenue,Santa Clara,CA,95051,(408) 615-1254,oneworldmontessori@sbcglobal.net
Canyon Montessori Center,Child Care Center,761 S Weir Canyon Road,Anaheim Hills,CA,92808,(714) 974-1365,canyonmontessoricenter@gmail.com
All Saints Episcopal School Preschool,Child Care Center,3674 Seventh Ave.,San Diego,CA,92103,(619) 298-0313,battlesallsaints@yahoo.com
Greer Family Child Care,Family Child Care Home,,Winchester,CA,92596,(951) 452-6345,lillian2301@gmail.com
Childtime Children's Center ,Child Care Center,6635 Alhambra Ave Suite 300,Martinez,CA,94553,(925) 947-6800,0222@childtime.com
Jones-Bennett Family Child Care,Family Child Care Home,,Perris,CA,92571,(951) 940-5735,savy1_bennett@hotmail.com
Cynthia Inez-Punogin,Family Child Care Home,,Palmdale,CA,93550,(661) 998-0037,inezpunogincynthia@yahoo.com
Saddleback Valley YMCA,Child Care Center,23072 Avenida Empressa,Rancho Santa Margarita,CA,92688,(949) 380-3502,jajett@ymcaoc.org
Crystal Lotz,Family Child Care Home,,Yucca Valley,CA,92284,(760) 369-0618,clotz@roadrunner.com
Patricia Cruz,Family Child Care Home,,San Diego,CA,92117,(858) 974-1509,1patycruz@gmail.com
Evelyn Martin,Family Child Care Home,,Vallejo,CA,94589,(707) 645-0774,martinevelyn@att.net
La Costa Valley Preschool & Kindergarten,Child Care Center,2276 Calle Barcelona,Carlsbad,CA,92009,(760) 436-2797,admissions.lcvpk@gmail.com
Debra Ann Angelone,Family Child Care Home,,Lake Elsinore,CA,92530,(951) 471-2547,
Rita Ruiz Family Child Care,Family Child Care Home,,Lemon Grove,CA,91945,(619) 713-0399,beamergirl57@yahoo.com
Adriana Hernandez,Family Child Care Home,,Menifee,CA,92584,(951) 679-9799,nanandez1@yahoo.com
Cheryl Miller Family Child Care,Family Child Care Home,,San Diego,CA,92119,(619) 644-8711,cmiller80@cox.net
Maria Jones,Family Child Care Home,,San Diego,CA,92139,(619) 721-5679,heymrsj61@yahoo.com
"Alvarado, Olga Family Child Care",Family Child Care Home,,El Cajon,CA,92020,(619) 440-2048,olgachildcare2002@hotmail.com
Happy DayCare for Infants and Toddlers,Family Child Care Home,,San Diego,CA,92104,(619) 646-4155,happydaycareusa@gmail.com
Goshen Day Care,Family Child Care Home,,Visalia,CA,93291,(559) 651-3353,
Lake Elsinore USD Child Care Program,Child Care Center,520 Chaney St,Lake Elsinore,CA,92530,(951) 253-7055,janet.cooper@leusd.k12.ca.us
Sommers Family Childcare,Family Child Care Home,,Atascadero,CA,93422,(805) 466-0933,
Ghislaine Francis Staden,Family Child Care Home,,San Jose,CA,95132,(408) 263-2466,francisstaden@hotmail.com
Kent Family Child Care,Family Child Care Home,,Vista,CA,92081,(760) 727-8463,amy.kent@roadrunner.com
Lockett Family Child Care,Family Child Care Home,,San Diego,CA,92114,(619) 581-4829,wepraisepreschool@yahoo.com
Priscilla Blancarte,Family Child Care Home,,Cathedral City,CA,92234,(760) 416-7770,ricardo.jimenez625@gmail.com
"Dawson, Tamra Family Child Care",Family Child Care Home,,El Cajon,CA,92019,(619) 334-1314,tandtdawson52@yahoo.com
Maria Casas,Family Child Care Home,,Cardiff,CA,92007,(760) 917-1114,teamcasas@yahoo.com
The Wunderkind Corp,Family Child Care Home,,San Ramon,CA,94582,(925) 230-8614,thewunderkind@gmail.com
Vandyke Family Daycare,Family Child Care Home,,Corona,CA,92883,(951) 277-3912,krzymom97@aol.com
Waugh Kids Care - Preschool,Child Care Center,880 Maria Dr,Petaluma,CA,94954,(707) 762-0202,sue1633@aol.com
Sonia Terriquez Family Day Care,Family Child Care Home,,Chula Vista,CA,91911,(619) 476-0244,sterriquez@juno.com
KinderCare Learning Center LLC,Child Care Center,4514 Lark Ellen Dr,Covina,CA,91722,(626) 332-4001,300219@kindercare.com
Linton Family Child Care,Family Child Care Home,,Ramona,CA,92065,(760) 315-3474,temshaa@aol.com
Melba Whitaker,Family Child Care Home,,Sacramento,CA,95831,(916) 393-3603,melann22@aol.com
Lewis Family Child Care,Family Child Care Home,,Rancho Cucamonga,CA,91730,(909) 477-3332,lewisfamilydaycare@yahoo.com
Lifetime Montessori,Child Care Center,14727 Camino de la Luna,San Diego,CA,92127,(858) 759-0631,kristin@lifetimemontessorischool.com
South Hills CommunityChurch,Child Care Center,2585 S. Main Street,Corona,CA,92881,(951) 734-4455,chalon.forgarty@southhills.org
Holy Family Preschool / Daycare Center,Child Care Center,7817 Old Auburn Road,Citrus Heights,CA,95610,(916) 722-4620,leberhardt@holyfamilyca.org
Angels Nest Child Development Center,Child Care Center,475 Florin Rd.,Sacramento,CA,95831,(916) 428-4651,angelsnestschool@sbcglobal.net
"Cabana, Sarah & Jack Jr. Family Child Care",Family Child Care Home,,Chula Vista,CA,91910,(619) 207-0012,jack.cabana@gmail.com
Bay Christian School,Child Care Center,4725 Evora Rd,Concord,CA,94520,(925) 458-9872,preschool@ctcs1.org
Saddleback Valley YMCA - Las Flores,Child Care Center,25862 Antonio Pkwy,Las Flores,CA,92688,(949) 380-3502,jajett@ymcaoc.org
Robert H. Lange Preschool,Child Care Center,24772 Chrisanta Drive,Mission Viejo,CA,92691,(949) 837-2500,katherineyeakel@rhlpreschool.com
"Cadence Education, Inc Â– Clarksville ",Child Care Center,76 Clarksville Road,Folsom,CA,95630,(916) 983-0224,ar@cadence-education.com
FSD Preschool at Discovery School,Child Care Center,7500 Vaquero Avenue,Bakersfield,CA,93308,(661) 589-3830,mawestendorf@fruitvale.k12.ca.us
Alphabet Soup Childcare,Child Care Center,1224 Cottonwood Street,Woodland,CA,95695,(530) 666-4859,karpow@pacbell.net
Kristina Nevarez,Family Child Care Home,,Lemon Grove,CA,91945,(619) 309-7230,kpintor88@yahoo.com
"Mendoza, Michelle & Steven",Family Child Care Home,,San Jose,CA,95148,(408) 274-6181,mmendoza215@msn.com
Maricruz Vera,Family Child Care Home,,Woodland,CA,95695,(530) 668-1676,
STAR Creekside Oaks,Child Care Center,2030 First St Room 9,Lincoln,CA,95648,(916) 434-8085,creekside@starsacramento.org
So. Bay Fam. YMCA - Heritage,Child Care Center,1450 Santa Lucia Rd,Chula Vista,CA,91913,(619) 421-9622,ctriana@ymca.org
Highland Ranch ESS,Child Care Center,14840 Waverly Downs Way,San Diego,CA,92128,(858) 521-2800,mhart@powayusd.com
Ella Hughes,Family Child Care Home,,Seaside,CA,93955,(831) 917-3053,ellahug5@aol.com
Carrillo Family Child Care,Family Child Care Home,,Victorville,CA,92392,(760) 951-9009,animalcrackerschildcare@yahoo.com
Mulberry Tree Preschool,Child Care Center,13841 E. Christine Dr.,Whittier,CA,90605,(562) 696-5114,
Rainbow Canyon Preschool & Day Care,Child Care Center,4122 Chino Avenue,Chino,CA,91710,(909) 591-4476,antoinettemccue01@verizon.net
Alpine Country Day School,Child Care Center,1508 Midway Drive,Alpine,CA,91901,(619) 445-3333,alpinepreschool@gmail.com
Christ Community Preschool,Child Care Center,25382 Mackenzie,Laguna Hills,CA,92653,(949) 586-5030,
Amasha Griffin,Family Child Care Home,,Apple Valley,CA,92308,(760) 247-5027,108locs@gmail.com
House's Family Daycare,Family Child Care Home,,Fallbrook,CA,92028,(760) 645-3303,Baysley1@aol.com
YMCA Metropolitan of Los Angeles,Child Care Center,23350 Justice Street,West Hills,CA,91304,(818) 999-2006,sandradonis@ymcala.org
Catalina M. Espino,Family Child Care Home,,Murrieta,CA,92563,(760) 212-7933,cathy92054@yahoo.com
Zenaida Mendoza-Lopez,Family Child Care Home,,Mather,CA,95655,(916) 362-4008,zenilopez@sbcglobal.net
Joyful Hearts Learning Center,Child Care Center,9590 Chocolate Summit Dr,El Cajon,CA,92021,(619) 561-4777,jhlcbilling@acffamily.com
Poway Unified School District - Morning Creek ESS,Child Care Center,10925 Morning Creek Dr. S.,San Diego,CA,92128,(858) 521-2800,mhart@powayusd.com
Messiah Lutheran Chruch,Child Care Center,4861 Liverpool St.,Yorba Linda,CA,92886,(714) 528-8632,donna.swanson@messaihyl.com
CCLC - Capital City ,Child Care Center,744 P. Street,Sacramento,CA,95814,(916) 444-0029,jturner@cclc.com
Anchondo Family Chile Care,Family Child Care Home,,Glendora,CA,91740,(626) 347-5112,ELLENANCHONDO@VERIZON.NET
Tutor Time,Child Care Center,610 E Dunne Ave,Morgan Hill,CA,95037,(408) 778-1977,ttmorganhill@gmail.com
Tiny Fingers and Toes,Family Child Care Home,,San Marcus,CA,92069,(760) 877-3434,blanca1160@yahoo.com
A Sunny Daycare,Family Child Care Home,,san diego ,CA,92123,(858) 569-4901,minevaldez@hotmail.com
Extended Day Child Care - Frederiksen,Child Care Center,7243 Tamarack Drive,Dublin,CA,94568,(925) 833-0127,ksilva@extendeddaychildcare.org
Rocking Horse Ranch Preschool,Child Care Center,4134 Fairway Dr.,Soquel,CA,95073,(831) 462-2702,rhrnance@aol.com
Maureen Vasquez,Child Care Center,4500 Redwood Road,Oakland,CA,94619,(510) 531-1302,vasquez_maureen@yahoo.com
Bright Corner FCC,Family Child Care Home,,National City,CA,91950,(619) 479-3762,brightcornerfamilychildcare@gmail.com
Francisca Harris,Family Child Care Home,,Chula Vista,CA,91915,(619) 781-8212,danmar4child@gmail.com
Elysa Carter,Family Child Care Home,,Sacramento,CA,95833,(916) 504-0785,missellie04@hotmail.com
Shell Beach YMCA,Child Care Center,2100 Shell Beach Road,Shell Beach,CA,93449,(805) 773-1439,aseibel@sloymca.org
Tutor Time Child Care/Learning Center,Child Care Center,7390 Ellena West,Rancho Cucamonga,CA,91730,(909) 948-8311,6009@tutortime.com
Nelson Family Child Care,Family Child Care Home,,Norwalk,CA,90650,(562) 219-0040,nelsonfamilycare@yahoo.com
Ceballos Family Child Care,Family Child Care Home,,Temecula,CA,92592,(951) 553-1681,ncceballos@yahoo.com
Children's Castle,Child Care Center,1052 E Madison Ave,El Cajon,CA,92021,(619) 593-6090,kimphuynh94@yahoo.com
School Time Montessori,Child Care Center,10235 Wells Avenue,Riverside,CA,92503,(951) 689-1151,eresha1@hotmail.com
Garcia Family Child Care,Family Child Care Home,,Whittier,CA,90601,(562) 508-9177,misstonigarcia@gmail.com
Merryhill Country School at Elk Grove,Child Care Center,6613 Laguna Park Dr.,Elk Grove,CA,95758,(916) 684-4044,karina.medina@merryhillschool.com
Egoavil Family Child Care,Family Child Care Home,,Alhambra,CA,91801,(626) 458-9021,rmegoavil@yahoo.com
"DeLucchi, Sandra Family Child Care",Family Child Care Home,,Chula Vista,CA,91915,(619) 656-8441,sdsandradelucchi@gmail.com
"Washington, Elainea Family Child Care",Family Child Care Home,,Spring Valley,CA,91977,(619) 646-9905,elaineadaycare@yahoo.com
"Sanabia, Rosa Family Child Care",Family Child Care Home,,Chula Vista,CA,91910,(619) 730-6799,
"Millan, Griselda and Raul Family Child Care",Family Child Care Home,,San Diego,CA,92154,(619) 227-5908,lachikka12@yahoo.com
Amy Child Care,Family Child Care Home,,West Sacramento,CA,96591,(916) 376-0839,amyzchildcare@yahoo.com
"Kelley, Deborah Family Childcare",Family Child Care Home,,San Diego,CA,92114,(619) 697-8284,kelleydeborah@hotmail.com
Progressive Play Preschool,Child Care Center,16315 Bear Valley Road,Hesperia,CA,92345,(760) 956-4960,dsthreatt@verizon.net
World Changers Academy,Child Care Center,470 East H St.,Dixon,CA,95620,(707) 365-5639,erica_707dixon@yahoo.com
Glenna Shire,Family Child Care Home,,Roseville,CA,95661,(916) 788-0526,glennashire@yahoo.com
Building Kidz School,Child Care Center,250 East Dana Street,Mountain View,CA,94041,(650) 967-8000,adlana@buildingkidz.com
Pilavian Family Child Care,Family Child Care Home,,Granada Hills,CA,91344,(818) 366-9392,info@kathysdaycare.com
Montessori Children's House of Lemon Grove,Family Child Care Home,,San Diego,CA,92114,(619) 403-8988,missdenise.mchlg@gmail.com
"Barnes, Renee Family Child Care Home",Family Child Care Home,,Susanville,CA,96130,(530) 257-0873,reneebarn23@yahoo.com
Rook Family Child Care,Family Child Care Home,,Menifee,CA,92585,(951) 246-3267,mylittlelambsdc@gmail.com
Judy Joulios,Family Child Care Home,,San Francisco,CA,94080,(650) 755-3067,judy_joulios@comcast.net
"Webster, Karen",Family Child Care Home,,San Jose,CA,95136,(408) 360-9978,
"Villalpando, Maria",Family Child Care Home,,San Jose,CA,95127,(408) 254-2332,mariavillalpando67@yahoo.com
"Haney, Christy Family Child Care",Family Child Care Home,,Clouis,CA,93611,(559) 761-4761,bizzylittlebeez@yahoo.com
Irene Saliba,Family Child Care Home,,Rancho Santa margarita,CA,92688,(949) 589-7098,eisaliba@cox.net
Lighthouse Early Childhood Center,Child Care Center,5055 Governor Dr,San Diego,CA,92122,(858) 292-8253,angela@fbcsd.com
Meher Montessori School,Child Care Center,2009 S. Garfield Ave.,Monterey Park,CA,91754,(323) 724-0683,adelamunoz@mehermontessori.org
Miller Family Child Care,Family Child Care Home,,Winnetka,CA,91306,(818) 347-2866,kidsncare02@sbcglobal.net
"Coleman, Tiffany Family Childcare",Family Child Care Home,,Oceanside,CA,92057,(760) 978-5275,tiffanycoleman41@hotmail.com
Marconi Montessori School,Child Care Center,5619 Marconi Ave,Carmichael,CA,95608,(916) 488-5619,shrimab@hotmail.com
Baldonado Family Child Care,Family Child Care Home,,Murrieta,CA,92563,(951) 246-3867,hermjan@verizon.net
"Beede, Julia Liza Family Child Care",Family Child Care Home,,Oceanside,CA,92057,(760) 231-7073,lizabeede@hotmail.com
Maribel Carrillo,Family Child Care Home,,National City,CA,91950,(619) 527-8412,maryj30111@gmail.com
Smith Family Child Care,Family Child Care Home,,Wildomar,CA,92595,(957) 246-9942,marys.sweetpeas1@verizon.net
Lorine's Learning Academy,Child Care Center,702 W. 16th Street,San Bernardino,CA,92405,(909) 883-6040,LLacademyInc@aol.com
Rise N Shine Preschool,Child Care Center,9449 Winter Gardens Blvd,Lakeside,CA,92040,(619) 390-0200,info@risenshinepreschool.com
Amador Family Child Care,Family Child Care Home,,Los Angeles,CA,90047,(323) 756-7122,jenniferamador74@yahoo.com
Canino Family Child Care,Family Child Care Home,,Menifee,CA,92584,(951) 244-8667,donna.canino@yahoo.com
Tutor Time Child Care/Learning Center,Child Care Center,1550 Bristol St North,Newport Beach,CA,92660,(949) 955-2672,lwest@tutortime.com
"Butticci, Michelle Family Child Care",Family Child Care Home,,Merced,CA,95340,(209) 723-5333,mpasden@sbcglobal.net
Munchkin Kare,Family Child Care Home,,Fresno,CA,93727,(559) 453-2902,valeria.serna1@yahoo.com
Poway Hilltop Preschool,Child Care Center,12348-B Casa Avenida Rd,Poway,CA,92064,(858) 486-6712,marla.hilltoppreschool@gmail.com
Fullerton Child Development Center,Child Care Center,1701 E. Chapman,Fullerton,CA,92831,(714) 526-7855,
Melissa Holmquist,Family Child Care Home,,Temecula,CA,92592,(951) 587-8437,melissaholmquist@hotmail.com
"Mehrabli, Cefrelyn Family Child Care",Family Child Care Home,,Oceanside,CA,92057,(760) 439-7905,mehrabli@cox.net
Mayer Family Child Care,Family Child Care Home,,Palmdale,CA,93552,(661) 285-5077,shellymay2010@yahoo.com
Cortez Family Child Care,Family Child Care Home,,Alhambra,CA,91801,(626) 282-2094,christinecortez@msn.com
Bonnie Cole Family Day Care,Family Child Care Home,,Long Beach,CA,90806,(562) 492-6162,bcole16273@aol.com
"Acosta, Martha Family Child Care",Family Child Care Home,,San Diego,CA,92154,(619) 906-8173,Manery88@gmail.com
"Lopez, Erika Family Child Care",Family Child Care Home,,Chula Vista,CA,91910,(619) 415-4310,Eri_Mtzoo@hotmail.com
The Nest House,Family Child Care Home,,Oceanside,CA,92058,(442) 888-4554,thenesthouse@gmail.com
Stepping Stones Child Development Center,Child Care Center,29910 Hunter Road,Murrieta,CA,92563,(951) 304-7777,steppingstonescdc1@yahoo.com
Hands Together A Center for Children,Child Care Center,201 E Civic Ctr Dr,Santa Ana,CA,92701,(714) 485-9221,dave.peters@handstogether-sa.org
Laranjo Family Child Care Home - Phyllis,Family Child Care Home,,Fulton,CA,95439,(707) 528-8303,laranjo6@msn.com
Judith Camacho & Angel Corona,Family Child Care Home,,Sacramento,CA,95834,(916) 283-6068,judithsdaycare@gmail.com
"Heights Christian School, LaMirada Campus",Child Care Center,12200 Oxford Drive,LaMirada,CA,90638,(562) 902-1779,rneal@heights.net
Tahoe Forest Children's Center,Child Care Center,10121 Pine Avenue,Truckee,CA,96160,(530) 582-3572,tfcc@tfhd.com
Donna Urtiaga,Family Child Care Home,,Palm Desert,CA,92211,(760) 341-2499,urtiaga5@yahoo.com
Kinderkirk Preschool and Daycare Center,Child Care Center,1111 Vallecito Road,Carpinteria,CA,93013,(805) 684-4070,info@kinderkirk.org
"Cumplido, Sandra Family Day Care",Family Child Care Home,,Chula Vista,CA,91911,(619) 370-0563,sandraasdaycare@gmail.com
"Schummer, Veronica Family Child Care",Family Child Care Home,,Chula Vista,CA,91910,(619) 422-6584,aplusfamilychildcare@yahoo.com
"Garcia, Leticia & Rene Family Child Care",Family Child Care Home,,Chula Vista,CA,91911,(619) 426-1513,littleheavenp77@hotmail.com
"Tanabe, Sylvia Family Day Care",Family Child Care Home,,Lemon Grove,CA,91945,(619) 697-6519,stanabesmith@sbcglobal.net
Fleur De Lis Nursery School,Child Care Center,3743 Front St,San Diego,CA,92103,(619) 295-6781,beverly@fleurdelis.sdcoxmail.com
Mi Escuelita Family Child Care,Family Child Care Home,,National City,CA,91950,(619) 474-8371,zaida_paola_g@hotmail.com
Maxwell Family Child Care,Family Child Care Home,,Winchester,CA,92596,(951) 550-7083,summer.maxwell@hotmail.com
"Pastenes, Erica Family Child Care",Family Child Care Home,,Chula Vista,CA,91910,(619) 964-6578,citclali02@yahoo.com
First Presbyterian Church of Oceanside Preschool,Child Care Center,2001 S. El Camino Real,Oceanside,CA,92054,(760) 757-5120,cwisener@fpcoceanside.org
Renascence School International,Child Care Center,2987 Mesa Verde East,Costa Mesa,CA,92626,(714) 783-7070,cmizera@rschooloc.org
Juanetta Perkins,Family Child Care Home,,Atascadero,CA,93422,(805) 712-9611,perkinsjuanetta@gmail.com
Hernandez Family Child Care,Family Child Care Home,,Temecula,CA,92592,(951) 303-8461,desiree2444@aol.com
California Young World #5,Child Care Center,1110 Fairwood Ave,Sunnyvale,CA,94089,(408) 245-7285,Cyndi@californiayoungworld.org
 YMCA- Castro,Child Care Center,505 Escuela Ave,Mountian View,CA,94043,(408) 351-6465,swinder@ymcasv.org
YMCA Kid's Place- Almond,Child Care Center,550 Almond Ave,Los Altos,CA,94024,(408) 351-6465,lalvarado@ymcasv.org
Jenkins Foster Family Home,Family Child Care Home,,Menifee,CA,92584,(951) 795-3010,v_jenkins2@yahoo.com
Weaver Elementary Extended Day Care,Child Care Center,11872 Wembley Road,Los Alamitos,CA,90720,(562) 799-4700,ymortensen@losal.org
Presbyterian Preschool,Child Care Center,1550 Pacific Ave,Santa Rosa,CA,95404,(707) 542-7396,carlyn_knight@comcast.net
Gogunska Family Child Care,Family Child Care Home,,Los Angeles,CA,90046,(323) 702-3796,ogogunska@yahoo.com
Good Steward Day Care,Child Care Center,9229 Utica Ave #160,Rancho Cucamonga,CA,92730,(909) 948-0016,goodstewarddaycare@yahoo.com
YMCA-Terrel,Child Care Center,5925 Pearl Ave,San Jose,CA,95136,(408) 351-6465,lalvarado@ymcasv.org
Vivas-Vogel Family Child Care,Family Child Care Home,,Azusa,CA,91702,(626) 815-8786,nena21w@yahoo.com
Discovery Isle Child Development Center ,Child Care Center,3791 Oceanic Way,Oceanside,CA,92056,(760) 433-3911,ashley.griggs@discoveryisle.com
Genesis Family Childcare,Family Child Care Home,,Paso Robles,CA,93446,(805) 286-4209,genesisfamilychildcare14@yahoo.com
Kathy's Day Care,Family Child Care Home,,Palo Alto,CA,94303,(650) 855-9351,Kathy_lashkari@yahoo.com
"Falcon, Ysamel",Family Child Care Home,,Fremont,CA,94555,(510) 793-8788,ysafalcon2006@yahoo.com
Camarillo Progressive Montessori School,Child Care Center,4451 E. Las Posas Rd.,Camarillo,CA,93010,(805) 484-1460,camarillomontessori@gmail.com
"Sandoval, Maria Family Child Care",Family Child Care Home,,San Diego,CA,92154,(619) 662-6003,mariasand12@hotmail.com
Mary Star of the Sea Preschool,Child Care Center,717 S. Cabrillo Ave,San Pedro,CA,90731,(310) 833-3541,marystarpreschool@gmail.com
STAR Education,Child Care Center,7050 Franklin School Rd.,Loomis,CA,95650,(916) 660-0610,franklin@starsacramento.org
Lourdes & Eduardo Family Child Care,Family Child Care Home,,Santee,CA,92071,(619) 562-0509,enevarezvos@aol.com
Romero Family Child Care,Family Child Care Home,,Downey,CA,90241,(562) 806-1435,jazmina.romero@yahoo.com
Children's Cottage Preschool,Child Care Center,1078 East Ave,Napa,CA,94559,(707) 224-3825,info@childrenscottage.com
"Parada, Layvanh Family Child Care",Family Child Care Home,,San Diego,CA,92104,(619) 519-4626,layvanhparada@hotmail.com
Maria Montessori School,Child Care Center,4544 Pocahontas Ave,San Diego,CA,92117,(858) 270-9350,sdbbrose@yahoo.com
Susie Q's Daycare,Family Child Care Home,,La Mesa,CA,91942,(619) 589-0870,susieqs79.ar@gmail.com
Cynthia's Child Development Home,Family Child Care Home,,San Diego,CA,92124,(858) 539-5497,avilacyn73@yahoo.com
Eva Rocha,Family Child Care Home,,Salinas,CA,93906,(831) 443-8534,evar219@gmail.com
Little School House Inc.,Child Care Center,1281 Edwards Avenue,Santa Rosa,CA,95401,(707) 528-8118,mindymeronek@yahoo.com
Kids Academy,Family Child Care Home,,San Diego,CA,92117,(858) 737-9388,askus@kidsacademyinc.com
A. Bunger Baby Daycare,Family Child Care Home,,Lincoln,CA,95648,(916) 408-7105,alllin01@aol.com
Daisy's Daycare,Family Child Care Home,,Sacramento,CA,95835,(916) 419-4306,daisyspreschoolandnursery@gmail.com
Chavira Family Daycare,Family Child Care Home,,Madera,CA,93637,(559) 675-3700,chavira.n1@comcast.net
Happy Honey Bee Kids,Family Child Care Home,,San Diego,CA,92114,(619) 734-5238,5354childcare@gmail.com
Little Angels Child Development Center,Child Care Center,406 I Street,Chula Vista,CA,91910,(619) 621-5695,littleangelscdc1@gmail.com
Leap Into Learning Childcare,Family Child Care Home,,Suisun City,CA,94585,(707) 422-1375,sweetsunshine33@yahoo.com
Kidz R Us Daycare,Child Care Center,14215 Tuolumne Rd.,Sonora,CA,95370,(209) 532-9992,kidzrus123@gmail.com
Elsa Thrower,Family Child Care Home,,Sacramento,CA,95835,(510) 978-5277,elsathrower@yahoo.com
"Carter, Deleshea & Boyd, Mariah FCC",Family Child Care Home,,San Diego,CA,92139,(619) 602-7008,tre-angel@cox.net
Lil Guys and Gals Childcare,Family Child Care Home,,Lemoore,CA,93245,(559) 423-5825,lilguysandgals@live.com
West Hills Montessori,Child Care Center,24373 Vanowen St,West Hills,CA,91307,(818) 702-0818,brittany@whmontessori.com
Kingston Academy,Child Care Center,6048 Etiwanda Ave,Mira Loma,CA,91752,(951) 681-4182,kingstonacademy2@gmail.com
Brighten Academy Preschool,Child Care Center,1825 Austin Avenue,Clovis,CA,93611,(559) 294-1310,kristinpeterson@brightenacademypreschool.com
Sherree Rodriguez,Family Child Care Home,,Oceanside,CA,92058,(760) 224-0574,sherreerod@yahoo.com
Arrow Montessori School - San Dimas,Child Care Center,818 W. Gladstone St,San Dimas,CA,91773,(909) 599-0025,arrowsch@verizon.net
"Millan, Romualda & Cassandra Family",Family Child Care Home,,El Cajon,CA,92019,(619) 440-6599,cassie_millan@yahoo.com
Grow Smart Children's Academy,Child Care Center,6271 Jackson Drive,San Diego,CA,92119,(619) 464-0305,hunan00@hotmail.com
Melinda Heights Elementary School,Child Care Center,21011 Rancho Trabuco,Rancho Santa Margarita,CA,92688,(949) 460-2701,valentine@svusd.org
Martha Esparza,Family Child Care Home,,Long Beach,CA,90504,(562) 739-3436,martha_john40@verizon.net
Hernandez FCC AKA Little Maeg's Childcare,Family Child Care Home,,Oxnard,CA,93036,(805) 794-9661,littlemaegschildcare@gmail.com
"Cordova, Marisela Family Child Care",Family Child Care Home,,Chula Vista,CA,91913,(619) 779-0961,mariselamolina14@yahoo.com
Yuki Minami,Family Child Care Home,,Garden Grove,CA,92841,(714) 638-8391,tuyetyuki_email@yahoo.com
"A Child's Way, An Early Learning Center",Child Care Center,701 Paloma Ave,Burlingame,CA,94010,(650) 343-2630,jhollandsjh@gmail.com
Harper Family Child Care,Family Child Care Home,,Perris,CA,92570,(951) 943-2305,ms.jackieharper@yahoo.com
Ascension Lutheran Preschool,Child Care Center,1140 N. Midway Dr.,Escondido,CA,92027,(760) 747-4276,ascensionpre@yahoo.com
"Padrick, Dorothea Family Day Care",Family Child Care Home,,San Diego,CA,92114,(619) 262-5360,peppergrove@hotmail.com
Julie Burke,Family Child Care Home,,Galt,CA,95632,(209) 744-1319,juliegann@rocketmail.com
"Smith, Catherine Family Child Care",Family Child Care Home,,San Diego,CA,92126,(864) 909-1454,enchant2006@yahoo.com
"Williams,  Ashley Family Child Care",Family Child Care Home,,San Diego,CA,92124,(229) 291-4131,ashley_12brown@yahoo.com
"Weil, Babette & Sarah Family Child Care",Family Child Care Home,,San Diego,CA,92126,(858) 610-3875,lcdrweil@hotmail.com
Magallanes Family Child Care,Family Child Care Home,,Moreno Valley,CA,92553,(951) 214-2452,magallaneste@att.net
"Sanchez, Martina Family Child Care",Family Child Care Home,,San Diego,CA,92154,(619) 423-2621,marcielotierra1@hotmail.com
Rocio Arango,Child Care Center,5 Jay Court,Pleasanton,CA,94566,(408) 203-1308,micasita0203@gmail.com
"Hudson, Holly Family Child Care",Family Child Care Home,,San Diego,CA,92124,(810) 358-8818,hollyhudson13@gmail.com
Magic Hours Childrens' Center,Child Care Center,8330 Westmore Rd,San Diego,CA,92126,(858) 271-8383,Hweber@magichourspreschool.com
Merryhill School-Rocklin,Child Care Center,4149 Rocklin Rd,Rockline,CA,95677,(916) 624-4511,sue.stewart@nlcinc.com
"Alvarez, Veronica & Juan Family Child",Family Child Care Home,,Lemon Grove,CA,91945,(619) 825-9926,sharky1432003@yahoo.com
Dora Juarez Family Child Care,Family Child Care Home,,San Diego,CA,92115,(619) 265-8241,dora.juarez57@yahoo.com
A Place To Grow Montessori,Child Care Center,3535 S. Akers,Visalia,CA,93277,(559) 627-3535,office@aplacetogrowmontessori.com
"Duarte, Paola Family Child Care",Family Child Care Home,,Chula Vista,CA,91913,(619) 421-3909,safaridaycare@hotmail.com
"Kelly, Debbie Family Day Care",Family Child Care Home,,Spring Valley,CA,91977,(619) 475-9140,special_ks@cox.net
"McBath, Audrey Family Child Care",Family Child Care Home,,El Cajon,CA,92021,(619) 956-6777,audreydaycare@hotmail.com
Kiddie Academy of Murrieta,Child Care Center,41755 Juniper Street,Murrieta,CA,92562,(951) 600-0545,murrieta@kiddieacademy.net
"Tanguay, Theresa Family Child Care",Family Child Care Home,,Ramona,CA,92065,(760) 787-5703,danceme001@aol.com
Dela Cruz Eden Family Childcare,Family Child Care Home,,San Diego,CA,92126,(858) 566-9342,msedendelacruz@yahoo.com
Mills Family Daycare,Family Child Care Home,,San Pedro,CA,90731,(310) 831-0966,millsfm4@pacbell.net
Grove Garden 1st Preschool,Child Care Center,8461 Garden Grove Rd,Garden Grove,CA,92844,(714) 537-8900,1stpreschool@mail.com
Torres Family Child Care,Family Child Care Home,,Temecula,CA,92592,(951) 234-9226,catjet2@gmail.com
Park Village ESS,Child Care Center,7930 Park Village Rd,San Diego,CA,92129,(858) 521-2800,mhart@powayusd.com
Rainbow Children's Center,Child Care Center,9817 'A' Baseline Rd.,Rancho Cucamonga,CA,91730,(909) 484-5797,rainbowchildrenscenter@gmail.com
Teesha Miller,Family Child Care Home,,Carmichael,CA,95608,(916) 944-0069,mooremiller@comcast.net
Sharon Family Child Care,Family Child Care Home,,El Cajon,CA,92020,(619) 971-1485,sharon.shelden@gmail.com
North City Preschool,Child Care Center,11717 Poway Rd.,Poway,CA,92064,(858) 748-4678,karenknud@northcitypreschool.com
Price Family Child Care,Family Child Care Home,,San Bernardino,CA,92407,(909) 880-0316,kcnq2395@verizon.net
A+ Academics Preschool,Child Care Center,1934 G Street,Modesto,CA,95354,(209) 544-8194,childsplay0@aol.com
"Gallegos, Maria Family Child Care",Family Child Care Home,,National City,CA,91950,(619) 773-5173,lorergallegos@hotmail.com
Angelica Lopez,Family Child Care Home,,San Diego,CA,92105,(619) 436-8125,aloangielopez@yahoo.com
Diego Family Child Care,Family Child Care Home,,Los Angeles,CA,90044,(323) 242-3855,aprilsflowers@live.com
"Christensen, Laura Family Child Care",Family Child Care Home,,San Diego,CA,92117,(858) 336-0519,llcfamday14@gmail.com
My Super Sweet Family Child Care,Family Child Care Home,,National City,CA,91950,(619) 274-3322,mirandam619@hotmail.com
Christa Ketchum Family Child Care,Family Child Care Home,,Loyalton,CA,96118,(530) 993-0226,ketchum@psln.com
Ramirez Family Child Care,Family Child Care Home,,Murrieta,CA,92562,(760) 805-8369,cathyramirez7@yahoo.com
"Wiley, Cathy Family Child Care",Family Child Care Home,,San Marcos,CA,92069,(760) 744-2782,cattherat@icloud.com
Cook Family Child Care,Family Child Care Home,,Winchester,CA,92596,(951) 223-3001,ourlittleangelsfv@gmail.com
Busy Bees Child Development Center ,Child Care Center,561 Third Avenue,Chula Vista,CA,91910,(619) 573-2970,busybeeslearntoread@gmail.com
"Shiraishi, Sara Family Child Care",Family Child Care Home,,Chula Vista,CA,91913,(760) 550-0319,aww.daycare@cox.net
American Martial Arts Academy,Child Care Center,1313 E. Los Angeles Ave,Simi Valley,CA,93065,(805) 527-5508,konnie.k@amaa-usa.com
Kimberly Shelton Family Child Care,Family Child Care Home,,Valley Center,CA,92082,(760) 751-9623,Kimshelton8667@aol.com
Patterson Unified School District After School,Child Care Center,1320 Henley Parkway,Patterson,CA,95363,(209) 892-4770,acassidy@patterson.k12.ca.us
Mi Casita Daycare,Family Child Care Home,,San Diego,CA,92154,(619) 920-4027,karlavera79@hotmail.com
Ever Learing Day Care,Family Child Care Home,,San Diego,CA,92154,(619) 823-8093,pattyswanson53@yahoo.com
"Sandoval, Linda Family Child Care",Family Child Care Home,,San Diego,CA,92115,(619) 278-9899,lllssandoval@yahoo.com
YMCA of Superior California,Child Care Center,1300 College St,Woodland,CA,95695,(530) 662-1086,wprawl@ymcasuperiorcal.org
KinderCare Learning Center LLC,Child Care Center,295 S Lexington Dr,Folsom,CA,95630,(916) 983-6169,301508@kindercare.com
Athanasia Brown,Family Child Care Home,,Dale City,CA,94015,(650) 755-5508,
Poway Unified School District - Willow Grove Elementary School ESS Program,Child Care Center,14727 Via Azul,San Diego,CA,92127,(858) 521-2800,mhart@powayusd.com
Gonzalez Family Childcare Inc.,Family Child Care Home,,North Hills,CA,91343,(818) 810-5787,victoria_zald@hotmail.com
Espinoza Family Child Care,Family Child Care Home,,Oxnard,CA,93036,(805) 351-5967,andreaespinoza13@aol.com
Hortencia Andrade,Family Child Care Home,,Watsonville,CA,95076,(831) 724-1732,erendira.andrade25@gmail.com
"Garcia, Yessica Family Child Care",Family Child Care Home,,National City,CA,91950,(619) 433-7597,ychavez900@gmail.com
Bethanie Coggins,Family Child Care Home,,San Diego,CA,92110,(805) 760-2964,coggins9090@gmail.com
Tiny Thinkers School,Child Care Center,15737 Parthenia St.,North Hills,CA,91343,(818) 892-2655,info@tinythinkersschool.com
JUMP Preschool Inc,Child Care Center,3327 Kenora Dr.,Spring Valley,CA,91977,(619) 303-1541,jumppreschool@yahoo.com
Brighton Schools - Natoma Station,Child Care Center,405 Natoma Station Drive,Folsom,CA,95630,(916) 985-2222,sue@brightonschools.com
St. Luke's Preschool and Nursery,Child Care Center,515 Second St.,Woodland,CA,95695,(530) 402-1607,director.stlukes@yahoo.com
El Rancho Nursery School,Child Care Center,5636 El Camino Ave,Carmichael,CA,95608,(916) 482-8656,elranchoschool@att.net
"Cazares, Gina Family Child Care",Family Child Care Home,,San Diego,CA,92120,(619) 315-1373,zanerocky@yahoo.com
Dahlia Taylor Family Day Care,Family Child Care Home,,San Diego,CA,92105,(619) 264-6076,mygritsandeggs@cox.net
Hanley Family Child Care,Family Child Care Home,,Long Beach,CA,90805,(562) 256-0627,lmhanley@yahoo.com
Tender Loving Care,Child Care Center,2324 Parker Avenue,Tracy,CA,95376,(209) 835-9088,info@tenderlovingcaretracy.com
"Rose, Sandra",Family Child Care Home,,Placerville,CA,95667,(530) 642-9060,rose1435@sbcglobal.net
"Richter, Angela Family Child Care",Family Child Care Home,,Spring Valley,CA,91977,(619) 434-2940,angelac2cc@cox.net
Tender Hearts Childcare Center,Child Care Center,2118 Woodland Ave,Modesto,CA,95358,(209) 550-5930,thccdirector@msn.com
"Noorwala, Rubina Family Child Care",Family Child Care Home,,San Diego,CA,92124,(858) 277-6052,rnoorwala@gmail.com
Crown Preschool,Child Care Center,199 6th Street,Coronado,CA,92118,(619) 522-6085,lisa.alonso@coronadousd.net
"Passalacqua, Mary Famaily Child Care",Family Child Care Home,,Fallbrook,CA,92028,(760) 731-0400,marypass@wildblue.net
Kids Adventure Learning Center,Child Care Center,1834 Valencia Dr.,Fullerton,CA,92833,(714) 525-7377,dphan3@gmail.com
"Hartung, Linda Family Day Care",Family Child Care Home,,Ramona,CA,92065,(760) 789-8570,lkhartung@hotmail.com
"Luna, Yvonne Family Child Care",Family Child Care Home,,Chula Vista,CA,91913,(619) 954-0607,flacoluna1@att.net
Little Red School House,Child Care Center,4601 Fruitvale Ave,Bakersfield,CA,93308,(661) 588-2227,aggiec1@aol.com
"Brown, Felicia",Family Child Care Home,,Manteca,CA,95337,(209) 824-7971,brightstardaycare@verizon.net
St. Basil's Preschool,Child Care Center,1225 Tuolumne St.,Vallejo,CA,94591,(707) 642-5966,sbs.preschool@gmail.com
Yucaipa Christian Preschool,Child Care Center,34968 Ave H,Yucaipa,CA,92399,(909) 797-6814,ycp@yucaipachristianschool.org
"Weinman, Moira Family Day Care",Family Child Care Home,,Lemon Grove,CA,91945,(619) 469-4025,moiranana4025@gmail.com
"Carpenter, Charlene Family Day Care",Family Child Care Home,,San Diego,CA,92126,(858) 578-2514,charlenecarpenter61@yahoo.com
Bell Family Child Care,Family Child Care Home,,Murrieta,CA,92563,(858) 442-7523,maggieslittlesprouts@gmail.com
Phillips Family Child Care,Family Child Care Home,,Menifee,CA,92584,(951) 663-6882,lorrainephillips@littleoaksmontessori.com
Chilo's Daycare,Family Child Care Home,,South San Francisco,CA,94080,(650) 515-8943,chilosdaycare@comcast.net
Alvarado Family Child Care,Family Child Care Home,,LOS ANGELES,CA,90011,(323) 233-9364,mja0365@hotmail.com
Kavod Elementary Charter School,Child Care Center,3201 Marathon Drive,San Diego,CA,92123,(858) 227-9450,alexa.greenland@kavodelementary.org
International Pre-School and Kindergarten,Child Care Center,5940 Winchester St.,San Diego,CA,92139,(619) 479-2410,efd.ipsk@gmail.com
Cornerstone Christian School,Child Care Center,34570 Monte Vista Drive,Wildomar,CA,92595,(951) 674-9381,mbox@ccs-w.org
A Child's Place ,Child Care Center,11223 11th Ave,Hesperia,CA,92345,(760) 949-8498,dbongirno@vvcc.com
Shaner Family Childcare,Family Child Care Home,,Lake Elsinore,CA,92530,(951) 582-4879,hollishaner@gmail.com
Poway Unified School District,Child Care Center,11775 Shoal Creek Drive,San Diego,CA,92128,(858) 521-2800,mhart@powayusd.com
"Clark, Correna Family Child Care",Family Child Care Home,,San Diego,CA,92110,(619) 610-9399,correnaclark@hotmail.com
Gina and Me Day Care,Family Child Care Home,,San Jose,CA,95111,(408) 531-7537,genasc277@yahoo.com
Little Ones Childrens Center,Child Care Center,301 Fulton Rd,Santarosa,CA,95401,(707) 578-8363,tara@littleonescc.org
AB/CD Family Child Care,Family Child Care Home,,Oceanside,CA,92057,(760) 453-7375,valeriebankhead@yahoo.com
Montessori Childrens World,Child Care Center,14212 Edwards St,Westminster,CA,92683,(714) 894-4924,montessoricw@aol.com
"Jacobson, Joelette",Family Child Care Home,,Colfax,CA,95713,(530) 368-6137,
MerryHill School- Calvine Preschool,Child Care Center,9036 Calvine Road,Sacramento,CA,95829,(916) 689-7322,Nieva.Gatbonton@nlcinc.com
Cordova Community Preschool,Child Care Center,2451 Zinfandel Drive,Rancho Cordova,CA,95670,(916) 635-5086,directorofccps@yahoo.com
KCE Champions LLC @ Arnold Adreani Elementary,Child Care Center,9927 Wildhawk West Drive,Sacrameneto,CA,95829,(916) 405-6094,subsidy@kc-education.com
Happy Lion Day Care Center,Child Care Center,2929 Castro Rd,San Pablo,CA,94806,(510) 734-9119,info@happyliondaycare.com
Intellichildren of San Marcos,Child Care Center,212 W San Marcos Blvd,San Marcos,CA,92069,(760) 471-0221,carolwilson@gmail.com
East County Family YMCA Golden,Child Care Center,7885 Golden Ave,Lemon Grove,CA,91945,(619) 462-9622,tbarker@ymca.org
Hung's Family Child Care,Family Child Care Home,,Alhambra,CA,91803,(626) 703-4323,sonb8c@hotmail.com
Madriaga Family Child Care,Family Child Care Home,,Canopa Park,CA,91304,(818) 348-2976,ur2homechildcare@yahoo.com
Tina Family Childcare,Family Child Care Home,,San Diego,CA,92127,(858) 832-1173,tinacav29@cox.net
Sotelo Family Child Care,Family Child Care Home,,Murrieta,CA,92563,(619) 632-8963,Sotelochildcare@yahoo.com
Ashly Henderson,Family Child Care Home,,Elk Grove,CA,95758,(916) 896-5122,bekindpreschool@gmail.com
Little Lamb Family Childcare,Family Child Care Home,,Chula Vista,CA,91915,(619) 216-1352,asucena.portillo@yahoo.com
Little Sprouts Family DayCare,Family Child Care Home,,Brentwood,CA,94513,(925) 516-9278,littlesproutsabc@yahoo.com
Cloward Family Day Care,Family Child Care Home,,Ramona,CA,92065,(760) 789-1161,Cloward1@cox.net
Crystale Barajas,Family Child Care Home,,Lincoln,CA,95648,(916) 409-5240,cslittles@hotmail.com
"Williams, Shavonne Family Child Care",Family Child Care Home,,San Diego,CA,92114,(619) 252-6056,graciousvonne@gmail.com
Ceniceros Family Child Care,Family Child Care Home,,Moreno Valley,CA,92555,(951) 363-8040,cfcc@inbox.com
Cross Roads Children's Center,Child Care Center,2372 Erringer Rd.,Simi Valley,CA,93065,(805) 526-2887,childrensplay@sbcglobal.net
Little Sprouts Family Childcare,Family Child Care Home,,escondido,CA,92027,(760) 877-0343,littlesproutsfcc376623130@hotmail.com
Tiny Toes Childcare,Family Child Care Home,,Murrieta,CA,92562,(951) 970-1031,g_na@live.com
Lake Elsinore Unified School District Childcare,Child Care Center,23 Ponte Russo,Lake Elsinore,CA,92532,(951) 253-7055,janet.cooper@leusd.k12.ca.us
Shank Family Child Care,Family Child Care Home,,Murrieta,CA,92563,(951) 265-2369,carriesclubhouse@gmail.com
"Fulton, Jamila Family Child Care",Family Child Care Home,,San Diego,CA,92124,(858) 836-1564,jamila.fulton@gmail.com
Foothill Preschool,Child Care Center,317 East Foothill Boulevard,San Luis Obispo,CA,93405,(805) 543-6973,foothillpreschool@sbcglobal.net
Day Care Fun 101,Family Child Care Home,,El Cajon,CA,92021,(619) 219-0850,daycarefun101@gmail.com
"Whitaker, Leondra Family Child Care",Family Child Care Home,,Chula Vista,CA,91911,(619) 633-6414,aleondra@ymail.com
Kidz Korner Preschool,Child Care Center,3396 Johnson Ave,San Luis Obispo,CA,93401,(805) 544-5194,kidzkornerslo@aol.com
Maria Yepez,Family Child Care Home,,Escondido,CA,92029,(760) 489-0124,mariatinayepez@gmail.com
Sheela Hayat Home Daycare,Family Child Care Home,,Monterey,CA,93940,(831) 649-1038,nilofarhayat@yahoo.com
Smith Family Child Care,Family Child Care Home,,Poway,CA,92064,(858) 679-1105,smith81785@SBCglobal.net
"Villa, Ada Family Child Care",Family Child Care Home,,Chula Vista,CA,91913,(619) 985-0003,brightmindspreschool@hotmail.com
"Sastoque, Elizabeth & Bonilla, Ana",Family Child Care Home,,San Diego,CA,92126,(858) 525-5837,junglegymdc@yahoo.com
Foster Family Child Care,Family Child Care Home,,Simi Valley,CA,93063,(805) 522-3172,Cherylspsdc@att.net
Cano Family Child Care,Family Child Care Home,,Los Angeles,CA,90016,(323) 394-7861,urbanomarta@yahoo.com
Soto Family Child Care,Family Child Care Home,,Menifee,CA,92584,(951) 679-8182,lyspreschool@gmail.com
Kids & Care Preschool & Day Care Center,Child Care Center,9560 I Ave.,Hesperia,CA,92345,(760) 956-5000,kidsncare@verizon.net
La Petite Academy,Child Care Center,19860 Beach Blvd,Huntington Beach,CA,92648,(714) 962-0339,bbrown5@lapetite.com
Maria Finete,Family Child Care Home,,San Diego,CA,92117,(858) 274-9990,mariajose1967@msn.com
Sprouting Seeds Child Care,Family Child Care Home,,South San Francisco,CA,94080,(650) 952-3537,info@sschildcare.com
Machado Family Child Care Home,Family Child Care Home,,Petaluma,CA,94952,(707) 794-8444,luvena@comcast.net
Suaraz Claudia Maria Family Day Care,Family Child Care Home,,San Diego,CA,92124,(858) 571-8590,claudia03903@yahoo.com
Idalia Mellado,Family Child Care Home,,Chula Vista,CA,91911,(619) 656-7902,melladoidalia@yahoo.com
Chayna Bessette,Family Child Care Home,,National City,CA,91950,(760) 610-4255,Chayna3@gmail.com
St Simon,Child Care Center,1840 Grant Road,Los Altos,CA,94024,(650) 968-9952,admin@stsimon.org
Sheppard's Flock Day Care,Family Child Care Home,,Spring Valley,CA,91977,(619) 796-5437,sheppardsflockdc@gmail.com
Walnut Creek Christian Academy,Child Care Center,2336 Buena Vista Ave,Walnut Creek,CA,94597,(925) 935-1587,bookkeeper@wccaeagles.org
Lily Family Child Care,Family Child Care Home,,Lemon Gove,CA,91945,(619) 787-7716,melen0943@gmail.com
Precious Sprout,Family Child Care Home,,Sacramento,CA,95835,(916) 917-2520,krystaljpickett@gmail.com
Lashton's Loving Child Care,Family Child Care Home,,San Diego,CA,92123,(858) 255-1090,lashtonchildcare@gmail.com
Ni-Ni's Loving Hands Child Care,Family Child Care Home,,Suisun City,CA,94585,(707) 429-9001,nichelle.jones@comcast.net
Gloria Hurtado Family Child Care,Family Child Care Home,,Escondido,CA,92026,(760) 741-1656,g_hurtado59@yahoo.com
Adobe Christian Preschool,Child Care Center,2875 Adobe Road,Petaluma,CA,94954,(707) 762-7713,preschool@adobecc.org
Del Mar Union School District - Ocean Air School ,Child Care Center,11444 Canter Heights Dr.,San Diego,CA,92130,(858) 793-0071,pliu@dmusd.org
"Chandler, Shawn Family Day Care",Family Child Care Home,,Lakeside,CA,92040,(619) 561-5128,parkatotdaycare@gmail.com
"Juarez, Sandra Family Child Care",Family Child Care Home,,Poway,CA,92064,(619) 850-8328,sandy_sweden@hotmail.com
Voracek Family Daycare,Family Child Care Home,,Lancaster,CA,93536,(661) 940-0458,julie.LV@roadrunner.com
Star Lincoln Crossing,Child Care Center,635 Groveland Ln,Lincoln,CA,95648,(916) 409-0797,abrand@starsacramento.org
Strong Foundations Learning Center,Child Care Center,72400 La Canada Way,Thousand Palms,CA,92276,(760) 343-2163,tiffanyhughes86@gmail.com
Rosa's Daycare,Family Child Care Home,,Sacramento,CA,95838,(916) 929-6354,amor.es.dolor@gmail.com
Sanchez Family Day Care,Family Child Care Home,,National City,CA,91950,(619) 799-4885,david.sanchez2011@gmail.com
Poway Unified School District- Midland ESS,Child Care Center,13910 Midland Road,Poway,CA,92064,(858) 521-2800,mhart@powayusd.com
Sally A. Guzman,Family Child Care Home,,Huntington Beach,CA,92647,(714) 650-9366,
Brenda Cabrera,Child Care Center,2445 Whitmore Ave suite #130,Ceres,CA,95307,(209) 538-3912,Brenda.Cabrera@SBCGlobal.net
Martin Robbie Family Child Care,Family Child Care Home,,San Diego,CA,92126,(858) 566-2899,JLHdaycare@yahoo.com
Garcia Family Child Care,Family Child Care Home,,Oxnard,CA,93030,(805) 487-5070,magkarisa@verizon.net
Corpus Christi Preschool,Child Care Center,480 Corral Canyon Rd,Bonita,CA,91902,(619) 482-3956,arzulati@yahoo.com
Happy Munchkins Academy,Family Child Care Home,,San Diego,CA,92154,(360) 929-1430,nina@hmasandiego.com
"Parnell, Priscilla Family Day Care",Family Child Care Home,,San Diego,CA,92139,(619) 470-4815,msjazzi619@att.net
Helen Vazquez Family Child Care,Family Child Care Home,,Merced,CA,95348,(209) 201-7427,helenchildcare@yahoo.com
Giant Step Learning Center,Child Care Center,758 St. Clair St,Costa Mesa,CA,92626,(714) 540-1775,enroll@giantsteplearningcenter.com
Dina's Home Child Care,Family Child Care Home,,San Diego,CA,92115,(619) 885-1191,delga1973@hotmail.com
Cherished Childhood Childcare,Family Child Care Home,,Menifee,CA,92584,(951) 491-1665,cherishedchildhood123@gmail.com
Simi Valley Family YMCA - Big Springs,Child Care Center,3401 Big Springs Ave,Simi Valley,CA,93063,(805) 583-5338,tpatton@sevymca.org
Kerman Unified State Preschool,Child Care Center,14655 West F St.,Kerman,CA,93630,(559) 842-4505,Leslie.helm@kermanusd.com
Grow Smart Children's Academy- Spring Valley,Child Care Center,8735 Jamacha Blvd.,Spring Valley,CA,91977,(619) 479-7577,growsmart2013@hotmail.com
Hordagoda Family Child Care,Family Child Care Home,,North Hills,CA,91343,(818) 571-1905,shashika.H@hotmail.com
K & K's Family Day Care,Family Child Care Home,,Union City,CA,94587,(510) 962-0086,kandkdaycare@gmail.com
YMCA Sunshine P/S Starbuck Site,Child Care Center,15740 Starbuck St.,Whittier,CA,90603,(562) 943-7241,mhernandez@ymcawhittier.org
Decker Laci Family Child Care,Family Child Care Home,,San Diego,CA,92110,(504) 701-9961,lacidecker@yahoo.com
"Martinez, Rowena Family Day Care Home",Family Child Care Home,,Escondido,CA,92027,(760) 877-7499,eapmartinez@yahoo.com
Gardena Christian Academy,Child Care Center,16311 South Western Ave,Gardena,CA,90247,(310) 527-0348,ultimate525@aol.com
Mission Valley YMCA,Child Care Center,1875 Illion St.,San Diego,CA,92110,(619) 298-3576,csearley@ymca.org
My Little Koalas Family Childcare,Family Child Care Home,,Chula Vista,CA,91910,(619) 421-4996,lourdespak1@hotmail.com
The McBride Family Daycare,Family Child Care Home,,Winchester,CA,92596,(951) 852-2723,riod47@hotmail.com
Hutchison Child Development Center,Child Care Center,1055 Extension Center Dr.,Davis,CA,95616,(530) 752-3455,hutchison@brighthorizons.com
"Manna's Martial Arts, Inc",Child Care Center,12285 World Trade Dr. Suite B,San Diego,CA,92128,(858) 487-6470,office@manna.us
"Rosas, Maria de Lourdes Family Child Care",Family Child Care Home,,San Diego,CA,92154,(619) 804-2199,mlrosas27@yahoo.com
Tamara Hauser Family Day Care,Family Child Care Home,,El Cajon,CA,92020,(619) 593-1269,firestarr68@gmail.com
Oak Middle School Extended Day Care Center,Child Care Center,10821 Oak Street,Los Alamitos,CA,90720,(562) 799-4700,ymortensen@losal.org
North Valley Family YMCA at Haskell,Child Care Center,15850 Tulsa St.,Granada Hills,CA,91344,(818) 368-3231,lauriepinkston@ymcala.org
Helping Hands,Family Child Care Home,,Temecula,CA,92592,(760) 473-7456,lotssgoingon@yahoo.com
Mt Erie Trolley Preschool,Child Care Center,280 47th St.,San Diego,CA,92102,(619) 262-4747,mterieschools@gmail.com
Monterey Ridge Preschool,Child Care Center,17117 4S Ranch Pkwy,San Diego,CA,92127,(858) 521-2846,vfollmer@powayusd.com
Sunshine Family Day Care,Family Child Care Home,,Antioch,CA,94531,(925) 238-5861,markstowell38@yahoo.com
"Zieske, Michelle Family Child Care",Family Child Care Home,,Spring Valley,CA,91977,(619) 905-5526,zieskecare@cox.net
Little Sprouts Daycare,Family Child Care Home,,San Diego,CA,92114,(619) 415-1867,littlesproutsdaycare2006@yahoo.com
Leslie's Daycare,Family Child Care Home,,Escondido,CA,92025,(619) 243-9479,mallatralla@yahoo.com
Ratliff Day Care,Family Child Care Home,,Escondido,CA,92027,(760) 518-2995,s4ratliff@aol.com
Tender Care Pre-School and Child Care,Family Child Care Home,,San Diego,CA,92105,(619) 263-0920,judyrandant57@gmail.com
Options Surround Care-Jordan,Child Care Center,10654 Jordan Road,Whittier,CA,90603,(626) 284-9935,pmarquez@optionsforlearning.org
Cook Family Child Care,Family Child Care Home,,Temecula,CA,92592,(951) 541-9198,kidsknowbestchildcare@yahoo.com
Community Christian School Preschool,Child Care Center,170 South O Street,Lincoln,CA,95648,(916) 434-0516,ccpreschool@sbcglobal.net
Elena Lopez Family Child Care,Family Child Care Home,,San Diego,CA,92139,(619) 470-1472,itzmyroom2@att.net
Hale Family Child Care,Family Child Care Home,,Los Angeles,CA,90008,(323) 294-7925,bznesswomn4u@yahoo.com
Morris Family Child Care,Family Child Care Home,,Lake Elsinore,CA,92532,(951) 314-5746,kellim.50@gmail.com
Pigtails and Snails Home Day Care,Family Child Care Home,,San Diego,CA,92124,(619) 368-8212,tmarieglover@gmail.com
Monrovia Preschool,Child Care Center,303 W. Colorado Blvd.,Monrovia,CA,91016,(626) 357-2838,monroviapreschool@yahoo.com
BUSD Discovery Play School at Timber Point Elementary,Child Care Center,40 Newbury Ln.,Discovery Bay,CA,94505,(925) 809-7556,snieva@byron.k12.ca.us
S.E.E.D @ Antelope Hills Elementary,Child Care Center,36105 Murrieta Oaks Ave.,Murrieta,CA,92562,(951) 696-1600,dvenegas@murrieta.k12.ca.us
Mini Miracles,Family Child Care Home,,Wildomar,CA,92595,(951) 445-4064,maxinemackenzie@yahoo.com
Hearts and Hands Christian Childcare and Preschool,Child Care Center,4111 Alder Ave.,Fremont,CA,94536,(510) 792-6200,hhfremont@hhpreschool.com
Dalia Damian,Family Child Care Home,,Madera,CA,93637,(559) 675-8687,daliad90@gmail.com
Katina L. Gregory Day Care,Family Child Care Home,,Carlsbad,CA,92008,(442) 244-0635,katina4kids@yahoo.com
Parsons Play Place Family Daycare,Family Child Care Home,,Lakeside,CA,92040,(760) 315-5666,parsonsplayplace@yahoo.com
Heritage Learning Center,Child Care Center,26720 Ynez Ct.,Temecula,CA,92591,(951) 676-1537,msilberman@heritagelearning.org
"Bogajczyk, Beverly Family Daycare",Family Child Care Home,,Lakeside,CA,92040,(619) 334-9060,bevbog@cox.net
"Mends-Cole, Jessica & Brown, Candace FCC",Family Child Care Home,,San Diego,CA,92123,(619) 494-9889,jessica_mendscole@yahoo.com
Thomsen Learning Center,Family Child Care Home,,Ramona,CA,92065,(760) 518-9930,thomsenlc@gmail.com
Flora Child Care,Family Child Care Home,,Albany,CA,94706,(510) 575-4610,zhangfang99@gmail.com
Loving Hearts Daycare,Family Child Care Home,,Temecula,CA,92591,(951) 541-1565,mnnfed@gmail.com
Divine Beginnings Daycare and Academy,Family Child Care Home,,Hayward,CA,94541,(510) 501-8776,4broom3@sbcglobal.net
Skinner Rachel Family Child Care,Family Child Care Home,,San Diego,CA,92154,(619) 750-6270,rmskinner76@gmail.com
Rise and Shine Family Daycare LLC,Family Child Care Home,,Oceanside,CA,92057,(760) 547-1356,riseandshinefdc@gmail.com
Outlaw-Troutman Family Child Care,Family Child Care Home,,Murrieta,CA,92563,(619) 804-4194,karoutlaw72@hotmail.com
Champions/Eagle Ranch,Child Care Center,12545 Eagle Ranch Pkwy,Victorville,CA,92392,(760) 948-6820,subsidy@kc-education.com
Building Blocks Home & Playcare,Family Child Care Home,,Santee,CA,92071,(760) 865-9644,buildingblockshp@gmail.com
Lake Balboa Family Child Care,Family Child Care Home,,Lake Balboa,CA,91406,(818) 220-8000,lusbo@yahoo.com
Fountain Valley School District,Child Care Center,9800 Yorktown Blvd.,Huntington Beach,CA,92646,(714) 962-4072,sullivanc@fvsd.us
Nora's Family Daycare,Family Child Care Home,,Sunnyvale,CA,94086,(408) 373-0936,norasfamdaycare@gmail.com
Bentley Family Child Care,Family Child Care Home,,Corona,CA,92883,(714) 651-9833,summerweecare@ymail.com
Friendly Childrens Garden Preschool and Daycare,Child Care Center,1836 Dixie St.,Oceanside,CA,92054,(760) 722-1626,friendlychildrensgardenpreschool@yahoo.com
Mariam Mohamed,Family Child Care Home,,La Mesa,CA,91941,(619) 755-2322,mariammoh12@gmail.com
Cindy L Baudler Family Child Care Home,Family Child Care Home,,San Marcos,CA,92078,(760) 736-9932,cindylbaudler@gmail.com
Lucy LeBaron Family Childcare,Family Child Care Home,,Chula Vista,CA,91913,(619) 207-7216,lucyle310@msn.com
The  Dot and the Line Daycare,Family Child Care Home,,La Mesa,CA,91941,(619) 770-8820,marthapaez2@gmail.com
"Roque Segarra, Mitzy Family Child Care",Family Child Care Home,,San Diego,CA,92154,(619) 690-9395,mitzyroque@yahoo.com
"Woldu, Lia Family Child Care",Family Child Care Home,,San Diego,CA,92115,(619) 255-9290,liachildcare@hotmail.com
"Pilgrim,Thrishia Family Child Care",Family Child Care Home,,San Diego,CA,92104,(619) 357-0003,trishapilgrim@yahoo.com
SonRise Christian Preschool,Child Care Center,463 South Stage Coach Ln.,Fallbrook,CA,92028,(760) 728-1032,preschool@sonrisefallbrook.com
Amairany's Family Daycare,Family Child Care Home,,Chula Vista,CA,91915,(619) 482-4568,amairany1124@gmail.com
KinderCare Learning Center LLC,Child Care Center,1551 Bailey Rd.,Concord,CA,94521,(925) 682-9560,300858@klcorp.com
"Kenebrew, Carol Family Child Care",Family Child Care Home,,San Diego,CA,92124,(619) 922-2601,spiritualwoman8@yahoo.com
Carden Kids Academy,Child Care Center,1 University Dr.,Camarillo,CA,93012,(805) 482-6386,cardenkidspreschool@gmail.com
Next Generation Educational Center,Child Care Center,8989 Mira Mesa Blvd.,San Diego,CA,92126,(858) 536-8800,jfazica@nextgenerationec.com
Sylvia Lopez-Romo Child Care,Family Child Care Home,,Chula Vista,CA,91910,(619) 206-5400,lopezromo@cox.net
St. David's School Pre-Kindrgarten,Child Care Center,5613 Garvin Avenue,Richmond,CA,94905,(510) 232-1736,bswanson@csdo.org
"Aguilar Gonzalez, Gladys",Family Child Care Home,,Chula Vista,CA,91914,(619) 633-4473,gladysfamilychildcare@gmail.com
Juju's Fun Learning Center,Family Child Care Home,,San Diego,CA,92124,(619) 598-4150,jujusfunlearningcenter@gmail.com
Racing To Success Daycare,Family Child Care Home,,Vista,CA,92083,(760) 521-8866,Jacklyn_naranjo@yahoo.com
Rosa Cibrian,Family Child Care Home,,Chula Vista,CA,91911,(619) 852-6452,marcela_cibrian@hotmail.com
Mini Miracles Academy,Child Care Center,139 Canyon Drive,Oceanside,CA,92054,(760) 439-7492,minimiraclesacademy@yahoo.com
"Carreno, Ana & Cuauhtemoc Family Child Care",Family Child Care Home,,Chula Vista,CA,91914,(619) 850-7357,timcarreno@hotmail.com
Lopez Maria Family Child Care,Family Child Care Home,,Chula Vista,CA,91911,(619) 382-0410,ofeamarallopez@gmail.com
"Kid Time, Inc",Child Care Center,200 Mayhew Way,Walnut Creek,CA,94597,(925) 930-6550,kidtimeinc1@gmail.com
Kiddie Academy of Huntington Beach,Child Care Center,19342 Beach Blvd.,Huntington Beach,CA,92648,(714) 968-0078,hbkiddieacademy@yahoo.com
Lopez Vanessa Family Day Care,Family Child Care Home,,Chula Vista,CA,91913,(619) 271-8862,turtlemv@yahoo.com
De Silva Family Child Care,Family Child Care Home,,Menifee,CA,92584,(951) 777-4961,chamalidesilva1@gmail.com
"Osorio, America & Aguirre, Luz Family Child Care",Family Child Care Home,,La Mesa,CA,91942,(619) 825-3309,ososchildcare@gmail.com
Carlsbad Educational Foundation- Jefferson Elem.,Child Care Center,3743 Jefferson St,Carlsbad,CA,92008,(760) 929-1555,charlotte@carlsbaded.org
Elizabeth Hasbun,Family Child Care Home,,Anaheim,CA,92804,(714) 527-4051,richardhasbun@aol.com
Beth L. Upton,Family Child Care Home,,Imperial Beach,CA,91932,(619) 423-2344,Lady_blu_ms@hotmail.com
Lisa D Homework Club ,Child Care Center,77-530 Enfield Lane G2,Palm Desert,CA,92211,(760) 574-4115,Lisa@lisadhomeworkclub.com
Concepcion Villegas,Family Child Care Home,,Murrieta,CA,92562,(209) 678-8777,connie.villegas@ymail.com
Chino Montessori School,Child Care Center,6010 Riverside Dr.,Chino,CA,91710,(909) 465-6008,ic_badiola@yahoo.com
Little Scholars Montessori,Child Care Center,6868 Capri Ave,Ventura,CA,93003,(805) 676-1488,ventura@lsmcares.com
Gloria V. Smith Family Day Care,Family Child Care Home,,Lemon Grove,CA,91945,(619) 964-4861,glorianunez58@yahoo.com
Munchkinland San Francisco,Family Child Care Home,,San Francisco,CA,94121,(415) 386-2006,email@munchkinlandsf.com
Sonshine Kids School ,Child Care Center,3595 Sonoma Ave,Santa Rosa,CA,95405,(707) 544-1620,lauraagogo@aol.com
"Gil, Maria Family Child Care",Family Child Care Home,,Chula Vista,CA,91914,(619) 405-4178,qkiss23@yahoo.com.mx
(DUP) Kidsbel,Child Care Center,609 S. Westmoreland Ave.,Los Angeles,CA,90005,(213) 785-1158,kidsbelschool@gmail.com
Encinitas Country Day School - San Elijo Campus,Child Care Center,3616 Manchester Ave,Encinitas,CA,92024,(760) 942-1111,accounting@ecdschools.org
Kids Land Academy (Bakshi Family Child Care),Family Child Care Home,,Redlands,CA,92374,(909) 731-0350,kidslandacademy@gmail.com
"Caha, Katherine Family Child Care",Family Child Care Home,,Spring Valley,CA,91977,(619) 335-6182,happyhilltopsd@gmail.com
Penleigh Child Development Center,Child Care Center,1400 E. St. Unit D & E,Sacramento,CA,95814,(916) 822-5020,ranvel@sbcglobal.net
Eagles Nest Preschool,Child Care Center,10262 Colima Rd,Whittier,CA,90603,(562) 903-1460,eaglesnestwctr@gmail.com
Kindercare Education as Champions,Child Care Center,9300 Wren Ave,Gilroy,CA,95020,(408) 707-9381,hdelacruz@klcorp.com
"Ramirez, Olga. Family Child Care",Family Child Care Home,,Chula Vista,CA,91913,(619) 788-1045,olgaschildcare@hotmail.com
Kidsbel,Child Care Center,609 S. Westmoreland Ave,Los Angeles,CA,90005,(213) 785-1158,kidsbelschool@gmail.com
Imelda  Garcia Sandoval,Family Child Care Home,,West Covina,CA,91791,(626) 319-4679,imeldaacosta1920@gmail.com
Channel Islands Young Men's Christian Association,Child Care Center,1099 Bedford Dr,Camarillo,CA,93012,(805) 484-0423,carolynn.arnot@ciymca.org
Herreras Family Childcare,Family Child Care Home,,Glendora,CA,91740,(626) 274-6860,mariasalinasherrera@gmail.com
Tutor Time Child Care/Learning Center ,Child Care Center,10420 Alta Loma Drive,Rancho Cucamonga,CA,91737,(909) 484-8899,6008@tutortime.com
Educare Children's Center,Child Care Center,50 El Camino Drive,Corte Madera,CA,94925,(415) 924-9902,rossana@educarecc.com
"YMCA- North Valley Y, Calahan St. Elementary School",Child Care Center,18722 Knapp St,Northridge,CA,91324,(818) 368-3231,lauriepinkston@ymcala.org
Bi Xia Day Care,Family Child Care Home,,Oakland,CA,94602,(510) 530-3763,zhenbixia@yahoo.com
Fusion P/S Academy III/Little Cone Zone,Child Care Center,701 B St,Marysville,CA,95901,(916) 296-8011,clint@fusionkids.com
Lisa Cassel,Family Child Care Home,,San Jacinto,CA,92583,(951) 487-8235,casselcat@gmail.com
Navarrete Family Child Care,Family Child Care Home,,Whittier,CA,90601,(562) 908-4950,annadaycare5424@gmail.com
Kids on Campus @Discovery Elementary,Child Care Center,730 Applewilde Dr.,San Marcos,CA,92078,(760) 752-1279,carol.allen@smusd.org
Evangelina Godina,Family Child Care Home,,Spring Valley,CA,91977,(619) 713-5512,eva28godina@hotmail.com
Sprouting Tree Learning Center,Child Care Center,9750 Galvin Ave,San Diego,CA,92126,(858) 226-2164,amendoza@sproutingtreelearningcenter.com
Treehouse Christian Preschool 2,Child Care Center,921 Woodrow Ave.,Modesto,CA,95350,(209) 527-2250,treehouseprek@yahoo.com
Rainbow Rising-Northwood ,Child Care Center,28 Carson St.,Irvine,CA,92620,(949) 651-0224,northwood@rainbowrising.org
East County Family YMCA- Dailard,Child Care Center,6425 Cibola Rd.,San Diego,CA,92120,(619) 462-9622,tbarker@ymca.org
Silvia Alvarado,Family Child Care Home,,Perris,CA,92571,(951) 581-3683,silvialvaradoDE@hotmail.com
Brighten Academy Preschool  Inc,Child Care Center,290 N. Villa Avenue,Clovis,CA,93612,(559) 294-1310,kristinpeterson@brightenacademypreschool.com
First Christian Church Child Development Center,Child Care Center,1751 North Park Avenue,Pomona,CA,91768,(909) 629-3636,cdc@fccpomona.org
Little Feet Playschool Home DayCare,Family Child Care Home,,El Cajon,CA,92020,(619) 402-8271,hkayandrews@yahoo.com
UCSF Kirkham Child Development Center,Child Care Center,10 Kirkham St,San Francisco,CA,94143,(415) 664-1217,kirkham@brighthorizons.com
"Wong, Hung Har ",Family Child Care Home,,San Francisco,CA,94112,(415) 586-9228,elleellechen@hotmail.com
Precious Time for Precious Kids,Child Care Center,3420 Mesa Verdes Drive,El Dorado Hills,CA,95762,(916) 941-0984,Laura@santos5.com
Kellies Academy for Kids Child Dev. Ctr.,Child Care Center,5702 Clark Drive,Huntington Beach,CA,92649,(714) 377-0533,kelliesacademyforkids@gmail.com
Valley Presbyterian Preschool,Child Care Center,9240 Haskell,North hills,CA,91343,(818) 892-1622,A.reynosavps@gmail.com
Evans Family Day Care,Family Child Care Home,,Hawthorne,CA,90250,(323) 777-5493,fayeevans32@yahoo.com
Salwa Hamed,Family Child Care Home,,Walnut Creek,CA,94595,(925) 930-6564,ZHAMED@AOL.COM
Meherbani Khalsa ,Family Child Care Home,,San Diego,CA,92103,(619) 692-3521,meherbani@sbcglobal.net
Skyline Preschool,Child Care Center,12540 Skyline Boulevard,Oakland,CA,94619,(510) 530-0884,director.skylinepreschool@gmail.com
La Mesa United Methodist Children's Center,Child Care Center,4690 Palm Ave,La Mesa,CA,91941,(619) 466-8407,lmumcc@gmail.com
Montessori Learning Center ,Child Care Center,331 N. Harbor,Anahelm,CA,92805,(714) 999-6618,mlcanaheim@gmail.com
Cornerstone Preschool Palo Alto ,Family Child Care Home,,Palo Alto,CA,94303,(650) 646-1341,heesungkim2@gmail.com
Woodcrest Preschool ,Child Care Center,6043 Tampa Ave.,Tarzana,CA,91356,(818) 345-3002,director.tarzana@woodcrestschool.org
Cornerstone Children's Center,Child Care Center,2407 Dana St.,Berkeley,CA,94704,(510) 280-6126,tarag@fpcberkeley.org
Aim High Child Care Center Inc.,Child Care Center,200 Griffith Ln,Brentwood,CA,94513,(925) 516-3945,info@aimhighcare.com
Kids First Academy Inc,Child Care Center,2430 Willow Pass Rd,Bay Point,CA,94565,(925) 709-5437,kidsfirstschool@gmail.com
Milani Dupre,Family Child Care Home,,Sacramento,CA,95835,(916) 419-9552,augustinesdreams@gmail.com
Poway Unified School District- Turtleback,Child Care Center,15855 Turtleback Rd,San Diego,CA,92127,(858) 521-2800,mhart@powayusd.com
Garlich Family Child Care LLC,Family Child Care Home,,Wildomar,CA,92595,(909) 821-1006,pamelagarlich@yahoo.com
Growing Brilliant Ventures,Child Care Center,101 Hazelmere Dr,Folsom,CA,95630,(916) 984-3800,stephanie@growingbrilliant.com
Our Lady of Guadalupe Preschool,Child Care Center,340 Massey Street,Hermosa Beach,CA,90254,(310) 372-7486,yewilcox@ourladyofguadalupeschool.org
New Harvest Church,Child Care Center,698 N. Minnewawa Ave,Clovis,CA,93611,(559) 797-7030,michellerobbins@nhclife.org
Jacqeline Macnear,Child Care Center,1214 Chestnut Lane,Davis,CA,95616,(530) 400-3517,jmacnear@yahoo.com
Extended Day Child Care Dougherty,Child Care Center,5301 Hibernia Dr,Dublin,CA,94568,(925) 803-4154,ncasabar@extendeddaychildcare.org
Kiddie Corral Child Care,Family Child Care Home,,Vacaville,CA,95687,(707) 320-2588,kiddiecorralchildcare@yahoo.com
Claires Montessori,Child Care Center,7331 Beech Ave,Orangevale,CA,95662,(916) 987-5663,clairghattas@jps.net
Nettles Gloria Family Child Care,Family Child Care Home,,San Diego,CA,92124,(619) 806-2178,nettles_gloria@yahoo.com
Rise & Shine Daycare ,Family Child Care Home,,Fresno,CA,93705,(559) 240-8682,dvu730l@gmail.com
Alonzo Family Childcare,Family Child Care Home,,Temecula,CA,92592,(619) 855-2019,roxi_foxy2@hotmail.com
Kiddie Academy of Diamond Bar,Child Care Center,21385 Cold Spring Lane,Diamond Bar,CA,91765,(909) 444-4848,elizabeth@kiddieacademydiamondbar.com
"Quezada, Alejandra Family Child Care",Family Child Care Home,,San Diego,CA,92129,(858) 722-1279,nancy.bethlehem@gmail.com
Christ the Cornerstone Preschool,Child Care Center,9028 Westmore Road,San Diego,CA,92126,(858) 566-1741,accounting@ctc-academy.org
Jaber Family Child Care,Family Child Care Home,,Eastvale,CA,92880,(909) 263-5702,arshajaber@gmail.com
Resurrection Lutheran Infant Care Center,Child Care Center,7557 Amador Valley Blvd,Dublin,CA,94568,(925) 828-2122,rlc-sharon@pacbell.net
Kids on Campus-Paloma,Child Care Center,660 Camino Magnifico,San Marcos,CA,92069,(760) 752-1279,carol.allen@smusd.org
Little Sunshine,Family Child Care Home,,San Diego,CA,92105,(619) 727-0437,littlesunshinedc@hotmail.com
Good Samaritan Preschool and Infant/Toddler Center,Child Care Center,1350 Shatto St.,Los Angeles,CA,90017,(213) 977-2355,msakatian@goodsam.org
Santa Margarita Children's Center,Child Care Center,1055 Las Ovejas Ave Suite #5,San Rafael,CA,94903,(415) 499-1277,office@smccenter.us
Partners in Learning ,Child Care Center,5251 Chesebro Road,Agoura Hills,CA,91301,(818) 865-8600,partnersinlearning@sbcglobal.net
Sanchez Family Child Care,Family Child Care Home,,Moreno Valley,CA,92555,(951) 310-5323,mirnarosas17@hotmail.com
Danville Montessori School,Child Care Center,919 Camino Ramon,Danville,CA,94526,(925) 838-7434,danmont@aol.com
Theory of Play Child Development Center,Child Care Center,2105 N. Tracy Blvd,Tracy,CA,95376,(209) 597-5705,theoryofplay@yahoo.com
"Mitchell, Andrea Family Child Care ",Family Child Care Home,,Santee,CA,92071,(405) 301-0515,dandie87@gmail.com
STAR Education - Broadway,Child Care Center,1015 Lincoln Blvd,Venice,CA,90291,(310) 755-8482,broadway@starinc.org
SAY-Marvin Extended Day Program,Child Care Center,5720 Brunswick St.,San Diego,CA,92120,(858) 565-4148,sayextendeddayprogram@saysandiego.org
Anita Gonzalez,Family Child Care Home,,Bakersfield,CA,93311,(760) 379-6802,allaboutkidzdaycare@yahoo.com
Santos Family Day Care,Family Child Care Home,,Bellflower,CA,90706,(562) 506-4843,asantos042615@gmail.com
A Good Time Out,Child Care Center,3400 Calloway Dr Suite 501,Bakersfield,CA,93312,(661) 410-8463,melanie@agoodtimeout.net
Redeemer Lutheran Preschool,Child Care Center,16351 Springdale St,Huntington Beach,CA,92649,(714) 840-7117,preschool.director@redeemer-lutheran.net
Prince of Peace Lutheran Nursery School,Child Care Center,1421 W Ball Rd,Anaheim,CA,92802,(714) 774-0993,mmilla@princeofpeaceanaheim.org
BrightStar Learning Center,Child Care Center,6621 Glen Drive,Huntington Beach,CA,92647,(714) 895-4063,blclearningcenter@yahoo.com
Our Lady of Lourdes Preschool,Child Care Center,741 Ware Ave,Colusa,CA,95932,(530) 458-8208,shodgesoll@frontiernet.net
Wiseburn Child Development Center (Anza),Child Care Center,12110 S Hindry Ave,Hawthorne,CA,90250,(310) 725-2102,khiggins@wiseburn.org
Marleys Preschool ,Child Care Center,223 Seal Beach Blvd,Seal Beach,CA,90742,(562) 598-2900,amberzaky@marleyspreschool.com
Carter-Bedoya Family Child Care,Family Child Care Home,,Whittier,CA,90604,(562) 906-0101,brighterbeginningsinchildcare@gmail.com
Children's Montessori Center,Child Care Center,19 North Hidalgo Ave,Alhambra,CA,91801,(626) 282-8258,cindyjreimers@gmail.com
Best Beginning Family Day Care,Family Child Care Home,,Pittsburg,CA,94565,(925) 473-0395,bestbeginnings1@yahoo.com
Kids Place to Explore and Learn LLC,Child Care Center,1820 West Grant Line Road,Tracy,CA,95377,(209) 834-5086,info@kidsplace2exploreandlearn.com
Happy Times Child Development Center,Child Care Center,755 Civic Center Dr,Vista,CA,92084,(760) 560-7031,childcarehappytimes@gmail.com
Carlsbad Educational Foundation - Hope Elem.,Child Care Center,3010 Tamarack Ave,Carlsbad,CA,92008,(760) 929-1555,charlotte@carlsbaded.org
Kids Depot of Otay Ranch,Child Care Center,1394 E. Palomar St. Suite 210,Chula Vista,CA,91913,(619) 656-0506,info@kids-depot.com
Adventure Club - Blue Oaks,Child Care Center,8150 Horncastle Ave,Roseville,CA,95747,(916) 746-1260,jrutledge@roseville.ca.us
Mona M Beltran-Blay,Family Child Care Home,,Garden Grove,CA,92845,(714) 891-4513,mmblay@verizon.net
Sunshine - Valencia Valley,Child Care Center,23601 Carrizo Dr,Valencia,CA,91355,(661) 254-2687,jamie@sunshinedaycamp.com
Hacienda Child Development Center,Child Care Center,4671 Chabot Dr.,Pleasanton,CA,94588,(925) 463-2885,tcompton@headsup.org
Creative Learning Academy,Child Care Center,28721 Los Alisos,Mission Viejo,CA,92692,(919) 539-6315,creativelearningp@gmail.com
Macedo Family Childcare,Family Child Care Home,,Lake Elsinore,CA,92530,(951) 805-8902,l.macedo@verizon.net
Contreras Family Child Care,Family Child Care Home,,Los Angeles,CA,90011,(323) 233-7154,ibarra33elsa@yahoo.com
Mottard Family Care,Family Child Care Home,,Camarillo,CA,93010,(805) 388-7659,stephaniesfcc@aol.com
Sunview Elementary,Child Care Center,7721 Juliette Low Dr,Huntington Beach,CA,92647,(714) 847-2551,lleecing@ovsd.org
Toni Seidel Family Child Care,Family Child Care Home,,Santee,CA,92071,(619) 448-7133,toni24@cox.net
Cherished Moments,Family Child Care Home,,Camarillo,CA,93012,(805) 982-0619,paulamarton@yahoo.com
ABC Pre-School Day Care Center ,Child Care Center,263 Carpenteria Rd,Aromas,CA,95004,(831) 726-2357,kris.abcpreschool@gmail.com
VUSD AM-PM - Hannalei,Child Care Center,120 Hannalei Dr,Vista,CA,92084,(760) 643-2675,cheriborger@vistausd.org
VUSD AM-PM - Alamosa,Child Care Center,5130 Alamosa Park Dr,Oceanside,CA,92056,(760) 643-2675,cheriborger@vistausd.org
Anna Family Daycare ,Family Child Care Home,,San Diego,CA,92122,(858) 455-7501,crzyknitter15@gmail.com
Mary Bailey-Talboy,Family Child Care Home,,Citrus Heights,CA,95610,(916) 367-8747,marytalboyoregon@gmail.com
Ludolph Christina Family Childcare,Family Child Care Home,,San Diego,CA,92124,(303) 475-9440,christina81591@hotmail.com
Extended Day Child Care Center-Murray School,Child Care Center,8435 Davona Dr,Dublin,CA,94568,(925) 829-4043,sronningen@extendeddaychildcare.org
A Child's Place Learning Center Inc,Child Care Center,1941 Church Street,Costa Mesa,CA,92627,(949) 646-4318,acplearningcenter@sbcglobal.net
USC Alcazar Child Development Center,Child Care Center,2215 Alcazar Street,Los Angeles,CA,90033,(323) 405-6400,cecile.allainkeatley@brighthorizons.com
TelStar Montessori Child Care Center,Child Care Center,9320 Telstar Ave,El Monte,CA,91731,(626) 312-6381,telstarmontessori9320@gmail.com
Happy Hearts Family Child Care,Family Child Care Home,,North Hollywood,CA,91606,(818) 309-7838,maribelmichel@rocketmail.com
OUSD-Child Development Services @ NOHL Canyon Elementary,Child Care Center,4100 Nohl Ranch Rd,Anahem,CA,92807,(714) 628-5413,msperakos@orangeusd.org
Terese's Daycare,Family Child Care Home,,Anaheim,CA,92804,(714) 995-2770,terese5@att.net
Palcare,Child Care Center,945 California Dr,Burlingame,CA,94010,(650) 340-1289,tina@palcare.org
Montana Preschool,Family Child Care Home,,Santa Monica,CA,90402,(310) 663-2169,director@montanapreschoolsantamonica.com
Grand Lake Montessori,Child Care Center,466 Chetwood St,Oakland,CA,94610,(510) 836-4313,office@grandlakemontessori.com
A Village Child Care,Family Child Care Home,,Long Beach,CA,90804,(562) 343-2900,kambraiawatts@yahoo.com
Copley-Price Family YMCA Preschool Child Care,Child Care Center,4300 El Cajon Blvd,San Diego,CA,92105,(619) 280-9622,cflores-gonzalez@ymca.org
Tiffinnie Family Child Care Home,Family Child Care Home,,San Diego,CA,92154,(626) 806-2909,tiffinnie82@gmail.com
Winding Walk Child Care,Family Child Care Home,,Cula Vista,CA,91915,(619) 395-5146,yeli.fernandez@windingwalkchildcare.com
San Miguel Daycare,Family Child Care Home,,San Miguel,CA,93451,(805) 467-3273,torresana355@gmail.com
Kidz Club Family Day Care ,Family Child Care Home,,Palmdale,CA,93552,(661) 350-7972,marilynestrada100@hotmail.com
Great Kids Childcare,Family Child Care Home,,Tracy,CA,95376,(209) 346-5173,ddcare4u@sbcglobal.net
Bertha Gonzalez Family Child Care,Family Child Care Home,,San Diego,CA,92102,(619) 779-5335,gonzalezberthabertha@gmail.com
Tribue Family Child Care,Family Child Care Home,,Menifee,CA,92584,(951) 430-1570,ms.tribue@gmail.com
Bahana Family Child Care,Family Child Care Home,,San Diego,CA,92113,(619) 231-1054,mago.ba31@yahoo.com
Little Oaks Child Care & Preschool,Family Child Care Home,,Elk Grove,CA,95757,(916) 627-0091,littleoakseg@gmail.com
Alicia Delgado Childcare,Family Child Care Home,,Lemon Grove,CA,91945,(619) 741-4788,josedg75@yahoo.com
Michelle Lainez,Family Child Care Home,,Chula Vista,CA,91910,(805) 427-6676,welshmichelle805@gmail.com
Hazels Christian Preschool and Childcare Center II,Child Care Center,1528 Oakdale Rd,Modesto,CA,95355,(209) 521-4422,hazelschristianpreschool@gmail.com
Academy of Scholars/SCCSC,Child Care Center,520 18th St,Sacramento,CA,95811,(916) 607-4236,stefani@sccsc.org
Martha Dolores Family Child Care,Family Child Care Home,,San Diego,CA,92154,(619) 210-3850,monasplayhouse@hotmail.com
Orozco Jennifer Family Child Care,Family Child Care Home,,San Diego,CA,92124,(815) 514-3592,orozcojenn4@gmail.com
Empire Montessori Preschool ,Child Care Center,3765 Washington Blvd,Fremont,CA,94538,(510) 979-1696,empiremontessorifremont@gmail.com
Rossmoor Childrens Center Inc,Child Care Center,4161 Green Ave,Los Alamitos,CA,90720,(562) 431-6553,payal@ezcarepro.com
Milestone Academy Preschool ,Child Care Center,444 E Market Room #5,Daly City,CA,94014,(650) 755-2348,milestonechild@gmail.com
Ochoa Family Child Care,Family Child Care Home,,Huntington Park,CA,90255,(323) 583-7217,georgeesarah@sbcglobal.net
Carden Dominion School Inc,Child Care Center,25313 Narbonne Ave,Lomita,CA,90717,(310) 530-5242,terri.cardenschool@yahoo.com
4th R - Hollywood Park,Child Care Center,4915 Harte Way,Sacramento,CA,95822,(916) 277-6186,hpark4thr@cityofsacramento.org
Cristina and Alfonso Delgado,Family Child Care Home,,Lemon Grove,CA,91945,(619) 248-2205,criiis764@gmail.com
Denise Perez Family Child Care,Family Child Care Home,,Lodi,CA,95240,(209) 371-9459,deniseap1937@gmail.com
St Marys Montessori School,Child Care Center,7370 W Liberty Parkway,Fontana,CA,92336,(909) 200-4747,justine.g@stmarysmontessorischool.com
Tanisha Montgomery,Family Child Care Home,,San Diego,CA,92124,(858) 598-5351,mrsmonty7@gmail.com
Camarillo Family YMCA,Child Care Center,5750 Fieldcrest Dr,Camarillo,CA,93012,(805) 484-0423,carolynn.arnot@ciymca.org
Honroe Family Childcare,Family Child Care Home,,Lake Elsinore,CA,92532,(951) 471-8859,presiousluv1@yahoo.com
Bright Stars Children's Center LLC,Child Care Center,1055 Las Ovejas Avenue,San Rafael,CA,94903,(415) 310-7543,brightstars81@yahoo.com
Mel-O-Dee Montessori Center,Child Care Center,3659 Motor Ave,Los Angeles,CA,90034,(310) 837-3431,manola@melodeemontessori.com
Gaytan Family Child Care,Family Child Care Home,,Los Angeles,CA,90039,(818) 805-8381,martell.lupita@hotmail.com
Little Tree Playschool ,Child Care Center,7275 Santa Teresa Blvd.,San Jose,CA,95139,(408) 800-2113,littletree@newcreationchurch-sj.org
Quavonte Ray Family Child Care,Family Child Care Home,,San Diego,CA,92115,(901) 692-0268,quavonteray.13@gmail.com
M & M Mini Care,Family Child Care Home,,Torrance,CA,90501,(310) 782-6121,dakarekids@yahoo.com
Bright Montessori School ,Child Care Center,1479 E Broadway,Glendale,CA,91205,(818) 244-0111,brightmontessori@gmail.com
Westwood Elementary - ESS Program,Child Care Center,17449 Matinal Rd.,San Diego,CA,92127,(858) 521-2800,mhart@powayusd.com
Kathleen May Colbert,Family Child Care Home,,Redding,CA,96001,(530) 246-2174,colbert750@gmail.com
El Camino Preschool,Child Care Center,2002 California St.,Oceanside,CA,92054,(760) 722-5050,heike@elcaminopreschool.com
Happy Angels Haven,Family Child Care Home,,Laguna Hills,CA,92653,(949) 830-4169,humera_00@hotmail.com
"Aguiar, Justina Family Child Care",Family Child Care Home,,San Diego,CA,92114,(619) 906-6833,jazaguiar@yahoo.com
Barton's Nursery School ,Child Care Center,645 Pomona Ave.,Oroville,CA,95965,(530) 533-0573,mthreedogs@gmail.com
Barton's Infant Center,Child Care Center,615 Pomona Ave.,Oroville,CA,95965,(530) 533-0573,mthreedogs@gmail.com
Village Montessori School of Irvine ,Child Care Center,4552 Sandburg Way,Irvine,CA,92612,(949) 786-7494,djackson@irvinemontessori.com
"Poindexter, Tamika Family Child Care",Family Child Care Home,,San Diego,CA,92124,(619) 602-5509,tamtam712@gmail.com
South Coast Montessori,Child Care Center,7421 Mirano Dr,Goleta,CA,93117,(805) 845-6555,brian@southcoastmontessori.org
Harriet Apponsah Family Child Care,Family Child Care Home,,San Diego,CA,92115,(973) 393-5430,harietsika@yahoo.com
Woodcrest Pre-school,Child Care Center,21772 Lake Forest Drive,Lake Forest,CA,92630,(949) 859-0805,director.LF@woodcrestschool.org
Jacquelynn Miller,Family Child Care Home,,San Diego,CA,92114,(619) 501-1290,jackieslittlecampers3@gmail.com
Center for Early Intervention on Deafness,Child Care Center,1035 Grayson St,Berkeley,CA,94710,(510) 848-4800,jessica@ceid.org
The Lighthouse Church Preschool,Child Care Center,1511 20th Street,Santa Monica,CA,90404,(310) 829-2828,LCP1511@gmail.com
Jernigan Family Child Care,Family Child Care Home,,Perris,CA,92571,(951) 259-7702,Lexyjernigan@gmail.com
Brighter Beginnings,Child Care Center,1128 W. 7th St.,San Pedro,CA,90731,(310) 832-8606,bbelc@sbcglobal.net
Toddler Tech Inc,Child Care Center,2211 G Street,Bakersfield,CA,93301,(661) 861-8324,toddlertec@aol.com
Gomez Family Child Care,Family Child Care Home,,Chula Vista,CA,91913,(619) 606-6205,ifgomez07@yahoo.com
Alvarez-Dennis Rosalva Family Child Care,Family Child Care Home,,Chula Vista,CA,91911,(619) 726-7771,rosalvalvarez@gmail.com
Molina Family Child Care,Family Child Care Home,,Murrieta,CA,92563,(951) 813-0536,Avasgardencc@gmail.com
Growing Brilliant Natomas,Child Care Center,2040 Club Center Drive,Sacramento,CA,95835,(916) 900-4222,franklin@growingbrilliant.com
UCB- Clark Kerr Preschool,Child Care Center,2601 Warring Street Bldg 15,Berkeley,CA,94720,(510) 643-1482,moreida@berkeley.edu
Little People's Learning Land,Family Child Care Home,,Sacramento,CA,95864,(916) 971-1563,jenniferatwood@hotmail.com
Terrific Kids Child Care,Family Child Care Home,,Castaic,CA,91384,(661) 373-8107,Terrifickidschildcare4u@gmail.com
Viramontes Family Child Care,Family Child Care Home,,Huntington Park,CA,90255,(323) 585-6927,monaviramontes@hotmail.com
Little Einsteins Montessori Preschool,Child Care Center,24 North 5th St.,San Jose,CA,95112,(408) 280-5367,mercedes@littleeinsteinsmontessori.com
Nunez Barbara Family Child Care,Family Child Care Home,,Spring Valley,CA,91977,(858) 230-2154,nunez.barbara22@gmail.com
Wild Roots Holistic Learning Center,Child Care Center,27655 Jefferson Ave,Temecula,CA,92590,(951) 676-8300,info@wildrootspreschool.com
Park Montessori Childrens Park,Child Care Center,13130 Herrick ave.,Sylmar,CA,91342,(818) 367-5483,grace4kids@gmail.com
Palenzuela Child Care,Family Child Care Home,,San Jacinto,CA,92582,(951) 692-9542,palenzuela748@yahoo.com
Babalous Home DayCare,Family Child Care Home,,Modesto,CA,95350,(209) 900-1221,louievargas78@yahoo.com
Adventure Club - Diamond Creek ,Child Care Center,3151 Hopscotch Lane,Roseville,CA,95747,(916) 746-1260,jrutledge@roseville.ca.us
Montessori School of Oceanside #3,Child Care Center,3965 Mission Ave Ste. 4-5,Oceanside,CA,92058,(760) 722-0243,mont0029@yahoo.com
"Chen, Xiaoli Family Child Care",Family Child Care Home,,San Francisco,CA,94112,(415) 806-6988,lilicat22@yahoo.com
"Hanshew, Megan Family Child Care",Family Child Care Home,,San Diego,CA,92114,(619) 474-0813,megan@cuddlesacademy.com
Buhach Preschool,Child Care Center,3190 Collins Dr.,Merced,CA,95348,(209) 626-5741,jgama@buhachpreschool.com
Corner Clubhouse Daycare,Family Child Care Home,,Selma,CA,93662,(559) 355-8287,rcj1101@sbcglobal.net
Happy Harbor Preschool,Child Care Center,1530 North Wilmington Blvd,Wilmington,CA,90744,(310) 835-5665,contact@pacificharborschool.net
Alejandra Resendiz Family Child Care,Family Child Care Home,,Sanger,CA,93657,(559) 907-1743,alejresendiz13@gmail.com
Kids Corner Inc,Child Care Center,4044 Lark Street,San Diego,CA,92103,(619) 295-8344,kidscornerinc@cox.net
Copley-Price Family YMCA McKinley,Child Care Center,3045 Fenton St.,San Diego,CA,92104,(619) 280-9622,cflores-gonzalez@ymca.org
Copley-Price Family YMCA- Franklin,Child Care Center,4481 Copeland Ave.,San Diego,CA,92116,(619) 280-9622,cflores-gonzalez@ymca.org
Laura Suleica Sanchez,Family Child Care Home,,Hemet,CA,92544,(951) 526-4667,mommydaycare12@yahoo.com
"Lacanienta, Merlyn Family Child Care",Family Child Care Home,,San Diego,CA,92126,(858) 472-3903,lacanienta@sbcglobal.net
YMCA of Metro L.A. - Castlebay Elementary ,Child Care Center,19010 Castlebay Lane,Porter Ranch,CA,91326,(818) 368-3231,lauriepinkston@ymcala.org
Ariana Tapia Hernandez,Family Child Care Home,,San Diego,CA,92105,(619) 341-9739,arianatapia06@yahoo.com
Inspirations Preschool Center,Child Care Center,925 Vine Street,Paso Robles,CA,93446,(805) 288-6888,tdelgiorgio@ipcpreschool.com
Jacky's Daycare,Family Child Care Home,,Elk Cerove,CA,95757,(916) 626-1675,diazjacqueline28@yahoo.com
Little Rascals Daycare Place,Family Child Care Home,,Vacaville,CA,95687,(707) 685-4213,cindy.stovall@yahoo.com
Tram Nguyen Home Family Daycare,Family Child Care Home,,Fresno,CA,93720,(559) 435-5320,tracyle90@hotmail.com
Baby Yale Academy,Child Care Center,5521 Lone Tree Way Suite C100,Brentwood,CA,94513,(925) 308-7693,litareeves@aol.com
"Palma, Lizbeth Family Child Care",Family Child Care Home,,San Diego,CA,92154,(619) 929-4003,lizbethpalacios83@gmail.com
Lekeitha Garrick,Family Child Care Home,,Lakeside,CA,92040,(413) 221-3365,glekeitha46@gmail.com
Rainbow Kids Academy,Child Care Center,12914 Hazel Av,Garden Grove,CA,92841,(714) 638-8210,rasika286@gmail.com
SAY-Dingeman Annex Extended Day Program,Child Care Center,11840 Scripps Creek Dr,San Diego,CA,92131,(858) 565-4148,mhadden@saysandiego.org
Sunshine Daycare,Family Child Care Home,,Berkeley,CA,94702,(510) 334-7956,sunshinedaycareberkeley@gmail.com
"Araya, Freweini Child Care",Family Child Care Home,,San Diego,CA,92139,(619) 888-4774,freta12@gmail.com
Quiroz Family Child Care,Family Child Care Home,,Wildomar,CA,92595,(951) 446-6551,childcare92505@att.net
Burbank Community YMCA,Child Care Center,332 E. San Jose Ave,Burbank,CA,91502,(818) 562-5461,Rita2@burbankymca.org
La Crescenta Presbyterian Center For Children,Child Care Center,2902 Montrose Ave,La Crescenta,CA,91214,(818) 249-8124,cfchelen@att.net
Sandra's Family Home Daycare,Family Child Care Home,,San Diego,CA,92113,(619) 795-1660,sandrafamilyhomedaycare@gmail.com
Elizabeth Mateos Family Child Care,Family Child Care Home,,San Diego,CA,92154,(619) 271-7594,elizabethmateos@hotmail.com
Maria A Perez Family Child Care,Child Care Center,982 Rosewood Ave,Sanger,CA,93657,(559) 417-0691,angieperez01559@gmail.com
YMCA Of Orange/ Sunshine,Child Care Center,2241 E Palmyra Ave,Orange,CA,92869,(714) 633-9622,javila@ymcaoforange.org
Carmella Carrera,Family Child Care Home,,Fallbrook,CA,92028,(760) 622-2421,mella717@aim.com
Little Lamb Land Christian Preschool,Child Care Center,4168 Market St,San Diego,CA,92102,(619) 838-5732,jam429@sbcglobal.net
SRVSACCA - Kids Country - Bollinger Canyon,Child Care Center,2300 Talavera Dr,San Ramon,CA,94583,(925) 743-9108,mmarston@kidscountry.org
Right At School At Evans Ranch Elementary School,Child Care Center,30465 Evans Rd,Menifee,CA,92584,(773) 584-1343,marz.rivera@rightatschool.com
Children's Academy ,Child Care Center,2960 Oceanside Blvd Ste 2,Oceanside,CA,92054,(760) 721-2627,childrens1academy@gmail.com
Lori Phillips,Family Child Care Home,,Aliso Viejo,CA,92656,(949) 633-1305,loriaphillips49@gmail.com
Bee Z Kids Family Daycare,Family Child Care Home,,San Diego,CA,92113,(619) 206-3757,beezkids@yahoo.com
Tanya's Family Childcare,Family Child Care Home,,Chula Vista,CA,91911,(619) 623-2994,tanyasfamilychildcare@yahoo.com
Miller & Carter Family Child Care,Family Child Care Home,,Lemon Grove,CA,91945,(619) 698-5407,cartersfamilychildcare@yahoo.com
Stepping Stones To Milestones,Family Child Care Home,,San Diego,CA,92139,(619) 530-1177,crystallogburn@gmail.com
Montessori Scotts Valley,Child Care Center,123 S Navarra Dr,Scotts Valley,CA,95066,(831) 439-9625,madelynn@montessoricommunity.school
Abdel-Wahed Family Child Care,Family Child Care Home,,Murrieta,CA,92563,(757) 816-0129,eabdwah51@gmail.com
Educare Preschool,Child Care Center,5730 South St,Lakewood,CA,90713,(562) 461-7311,mslymako56@hotmail.com
Rosalinda Leon Family Child Care,Family Child Care Home,,San Diego,CA,92114,(619) 262-0888,leondaycare@cox.net
Genius Kids - Pleasanton Bernal,Child Care Center,3550 Bernal Ave Ste 100B,Pleasanton,CA,94566,(925) 425-7530,pleasantonbernal@geniuskidsonline.com
Sheldon Acres Child Development Center,Child Care Center,10393 Pleasant Grove School Rd,Elk Grove,CA,95624,(916) 686-8344,robertdelisle@sheldonacres.net
Happy Snowman Childcare,Family Child Care Home,,San Diego,CA,92113,(619) 399-8167,mely_qcuario25@hotmail.com
Miss Debbie's Daycare,Family Child Care Home,,Murrieta,CA,92563,(951) 304-0344,diapermaid@verizon.net
Muni's Family Childcare,Family Child Care Home,,San Diego,CA,92115,(619) 782-1206,muniratu6@gmail.com
Play and Learn ,Child Care Center,1898 Pleasant Hill Rd,Pleasant Hill,CA,94523,(925) 943-7007,playandlearn1@ymail.com
Turpel Family Child Care Home,Family Child Care Home,,Santa Rosa,CA,95401,(707) 478-9295,turpelfamchildcare@att.net
St. Thomas Episcopal Preschool,Child Care Center,44651 Avenida De Missiones,Temecula,CA,92592,(951) 302-8498,preschool@episcopalchurchtemecula.org
Our Little Angels Family Childcare,Family Child Care Home,,Jamul,CA,91935,(619) 669-6475,torbettkidz2@yahoo.com
Ready Set Go Children's Center,Child Care Center,4404 San Juan Ave,Fair Oaks,CA,95628,(916) 967-0100,rsgfoenrollment@gmail.com
Montessori School of Central Marin,Child Care Center,317 Auburn St,San Rafael,CA,94901,(415) 456-1748,montessoricentralmarin@gmail.com
Maricela Guzman,Family Child Care Home,,Galt,CA,95632,(209) 744-2964,
M & M Family Child Care,Family Child Care Home,,Oxnard,CA,93035,(805) 253-8094,tapiamayra12@yahoo.com
Rodriguez Family Home Daycare,Family Child Care Home,,Los Angeles,CA,90003,(323) 615-4732,culturalgarden1@gmail.com
Shining Stars Preschool and Infant Center,Child Care Center,2480 Las Posas Rd. Ste C,Camarillo,CA,93010,(805) 987-2132,camarillopreschool@gmail.com
La Habra Montessori Preschool,Child Care Center,230 S. Idaho St.,La Habra,CA,90631,(562) 691-6450,manojaw01@gmail.com
Innovative Scholar Academy Preshool,Child Care Center,9624 Melrose Ave,Elk Grove,CA,95624,(408) 910-9921,jreyes@innovativescholaracademy.com
Nana's Daycare and Learning Center,Family Child Care Home,,Pittsburg,CA,94565,(925) 643-5246,divadebbielg@yahoo.com
Little Pioneers Preschool ,Child Care Center,2225 W. Victoria Dr.,Alpine,CA,91901,(619) 445-2072,pioneerpreschool@gmail.com
Acorn Learning Center,Child Care Center,17025 Bollinger Canyon Rd,San Ramon,CA,94582,(925) 560-6488,acorn.bollinger@gmail.com
Sydne Berry,Family Child Care Home,,Brentwood,CA,94513,(925) 331-7500,sydberry11@gmail.com
Me My Family Childcare,Family Child Care Home,,Newbury Park,CA,91320,(805) 294-7655,memyfamily@thinkwiz.net
Kids Inc Preschool and Discovery Center,Child Care Center,250 Palladio Pkwy #1301,Folsom,CA,95630,(916) 805-5961,kidsinc@comcast.net
Children's Learning Center,Child Care Center,750 Sierra Ave,Clovis,CA,93612,(559) 298-7800,clcclovis@yahoo.com
Right At School at Ridgemoor Elementary School,Child Care Center,25455 Ridgemoor Rd,Sun City,CA,92586,(773) 584-1343,marz.rivera@rightatschool.com
Right At School at Herk Bouris Elementary School,Child Care Center,34257 Kalanchoe Rd,Lake Elsinore,CA,92532,(773) 584-1343,marz.rivera@rightatschool.com
Urizar Family Child Care,Family Child Care Home,,Los Angeles,CA,90062,(323) 815-5336,sandra90062@gmail.com
"Gooden, Shanice Family Child Care",Family Child Care Home,,Chula Vista,CA,91913,(760) 822-5300,kiddiecovedaycare18@gmail.com
Bravo Family Child Care,Family Child Care Home,,Indio,CA,92203,(760) 342-9793,fbravo19@yahoo.com
Mallison Family Child Care,Family Child Care Home,,Murrieta,CA,92563,(619) 784-9335,a.mallison@me.com
Genius Kids Tracy,Child Care Center,1960 W Grant Line Road,Tracy,CA,95376,(209) 834-5383,tracy@geniuskidsonline.com
YMCA of Metro LA- Germain St Elementary,Child Care Center,20730 Germain St,Chatsworth,CA,91311,(818) 368-3231,lauriepinkston@ymcala.org
Saint Andrew's Preschool,Child Care Center,1600 Santa Lucia Ave,San Bruno,CA,94066,(650) 273-4415,msjeannee@saintandys.org
Camp Kissick,Family Child Care Home,,Thousand Oaks,CA,91360,(805) 373-1486,daycampk@gmail.com
Claremont United Church Of Christ Early Childhood Center,Child Care Center,233 W Harrison Ave,Claremont,CA,91711,(909) 624-2916,krislizecc@hotmail.com
Cherry Blossom Childcare & Preschool,Child Care Center,906 S Grand Ave,Glendora,CA,91740,(626) 335-5500,Cherryblossompreschool@live.com
Boulevard Nursery School And Kindergarten,Child Care Center,23022 Victory Blvd,Woodland Hills,CA,91367,(818) 883-0607,boulevardschool18@gmail.com
YMCA Of Metro LA - Harding Site,Child Care Center,13060 Harding St,Sylmar,CA,91342,(818) 368-3231,lauriepinkston@ymcala.org
Karen Petty,Family Child Care Home,,Fair Oaks,CA,95628,(916) 965-0934,krn_ptty@yahoo.com
Christ Lutheran Church,Child Care Center,25816 Tournament Rd,Valencia,CA,91355,(661) 259-0302,clpsantaclarita@gmail.com
Leticia Hernandez,Child Care Center,15620 W El Mar Ave,Kerman,CA,93630,(559) 567-4434,leticiafamilychildcare@gmail.com
Linda Lima,Family Child Care Home,,Carlsbad,CA,92009,(760) 633-2229,llcc76@roadrunner.com
Thompson Family Child Care,Family Child Care Home,,Temecula,CA,92591,(951) 404-7415,79ljoy@gmail.com
Kidz World Academy,Child Care Center,1602 S. El Camino Real,Oceanside,CA,92056,(760) 433-9944,gmajor@gracesd.tv
Capistrano Beach Cities YMCA - Concordia,Child Care Center,3120 Avenue Del Presidente,San Clemente,CA,92672,(949) 542-3904,ssciortino@ymcaoc.org
Lisa J. Mails Elementary School,Child Care Center,35185 Briggs Rd,Murrieta,CA,92563,(951) 696-1600,dvenegas@murrieta.k12.ca.us
Next Generation Educational Center,Child Care Center,2860 Thunder Dr,Oceanside,CA,92056,(760) 295-0870,oceanside@nextgenerationec.com
Mission Valley YMCA - Bay Park,Child Care Center,2433 Denver Street,San Diego,CA,92110,(619) 298-3576,cearley@ymca.org
A Kids Life,Child Care Center,307 Sutter St.,Roseville,CA,95678,(916) 786-3660,dgomes@akidslife.org
Thoss Family Child Care ,Family Child Care Home,,Chino,CA,91710,(909) 465-1132,bsthoss@aol.com
Acuna Family Child Care ,Family Child Care Home,,Ontario,CA,91761,(909) 923-7754,debrajean80@hotmail.com
St Paul Lutheran Child Development Center,Child Care Center,1075 El Monte Ave,Mountain View,CA,94040,(650) 969-2696,andrewc@st-paul.org
Cornerstone Academy,Child Care Center,801 Silver Ave.,San Francisco,CA,94134,(415) 587-7256,albert.cheung@cebc.net
Kidz-R-Us,Family Child Care Home,,Oakley,CA,94561,(925) 727-1983,kidz.r.us@outlook.com
St. Rose-McCarthy School Day Care Program,Child Care Center,1019 N Harris St,Hanford,CA,93230,(559) 584-5218,bookkeeper@strosemccarthy.com
Barajas Family Child Care,Family Child Care Home,,San Bernardino,CA,92407,(909) 725-7305,ewfbarajas@msn.com
Jewish Community Center Of San Francisco,Child Care Center,3200 California St,San Francisco,CA,94118,(415) 292-1250,jpalmer@jccsf.org
Jewish Community Center-M. Larry Lawrence Branch,Child Care Center,4126 Executive Dr,La Jolla,CA,92037,(858) 362-1146,cynthiaz@lfjcc.org
Kelly's Home Daycare,Family Child Care Home,,Chula Vista,CA,91913,(619) 271-4050,lovemydaycare@yahoo.com
The Growing Patch Private Preschool,Child Care Center,5560 W. Spruce Ave,Fresno,CA,93722,(559) 435-4934,slogoluso@yahoo.com
Kid's Care - Buena Vista Elementary,Child Care Center,1330 Buena Vista Way,Carlsbad,CA,92008,(760) 929-1555,charlotte@carlsbaded.org
Right at School at Harvest Hill Steam Academy,Child Care Center,31600 Pat Rd,Winchester,CA,92596,(773) 584-1343,marz.rivera@rightatschool.com
"Gavin, Jovana Family Child Care",Family Child Care Home,,San Diego,CA,92114,(619) 701-5397,jgkids.03@gmail.com
Tri-Valley Montessori School,Child Care Center,1273 N Livermore Ave,Livermore,CA,94551,(925) 455-8021,dferro@valleymontessorischool.com
Monarch Montessori Preschool,Child Care Center,9282 Main St,Plymouth,CA,95669,(209) 418-5630,msdeemonarchmontessori@hotmail.com
McClendon Family Child Care,Family Child Care Home,,Perris,CA,92571,(323) 877-6264,katie.mcclendon@aol.com
Say-Tierrasanta Extended Day Program ,Child Care Center,5450 La Cuenta,San Diego,CA,92124,(858) 380-8807,sayextendeddayprogram@saysandiego.org
SAY-Sunset View Extended Day Program,Child Care Center,4365 Hill St,San Diego,CA,92107,(858) 610-0847,sayextendeddayprogram@saysandiego.org
Oakhill Academy,Child Care Center,29275 Santiago Rd,Temecula,CA,92592,(951) 506-0944,msweeney@oakhillca.org
Adventure Kids,Child Care Center,880 Manzanita Dr,Los Osos,CA,93402,(323) 509-6716,evelynchoto@gmail.com
St Francis of Assisi School Falcon's Nest Extended Care Program,Child Care Center,866 Oak Grove Rd,Concord,CA,94518,(925) 827-1848,mliang@sfaconcord.org
The Learning Experience ,Child Care Center,4831 Lone Tree Way,Antioch,CA,94531,(925) 281-7640,antioch@tlechildcare.com
Kristin's Kiddieland,Child Care Center,27101 Aliso Creek Rd #150 #151,Aliso Viejo,CA,92656,(949) 903-5437,kristinsimmons1@msn.com
Foster Extended Day Program,Child Care Center,6550 51st Street,San Diego,CA,92120,(858) 688-2156,sayextendeddayprogram@saysandiego.org
SAY-Jefferson Extended Day Program,Child Care Center,3770 Utah Street,San Diego,CA,92104,(858) 380-8817,sayextendeddayprogram@saysandiego.org
SAY-Jerabek Preschool & Extended Day Program,Child Care Center,10050 Avenida Magnifica,San Diego,CA,92131,(858) 688-2180,sayextendeddayprogram@saysandiego.org
SAY-Miramar Ranch Extended Day Program,Child Care Center,10770 Red Cedar Drive,San Diego,CA,92131,(858) 688-2177,sayextendeddayprogram@saysandiego.org
SAY-Standley Extended Day Program,Child Care Center,6298 Radcliff Drive,San Diego,CA,92122,(858) 688-2184,sayextendeddayprogram@saysandiego.org
Kate Sessions Extended Day Program,Child Care Center,2150 Beryl Street,San Diego,CA,92109,(858) 610-3724,sayextendeddayprogram@saysandiego.org
SAY-Kumeyaay Extended Day Program,Child Care Center,6475 Antigua Blvd.,San Diego,CA,92124,(858) 688-2187,sayextendeddayprogram@saysandiego.org
EVFree Preschool,Child Care Center,2801 Brea Blvd,Fullerton,CA,92835,(714) 257-4302,stefani.ernst@evfreepreschool.com
Cadman Preschool Program,Child Care Center,4370 Kamloop Ave,San Diego,CA,92117,(858) 688-2198,sayextendeddayprogram@saysandiego.org
SAY-Doyle Extended Day Program,Child Care Center,8175 Regents Rd,San Diego,CA,92122,(858) 458-1882,sayextendeddayprogram@saysandiego.org
SAY-Einstein Extended Day Program,Child Care Center,3035 Ash St,San Diego,CA,92102,(858) 380-8726,sayextendeddayprogram@saysandiego.org
YMCA - Allen @ Steinbeck,Child Care Center,820 Steinbeck Dr,San Jose,CA,95123,(408) 351-6408,ashley.rodriguez@ymcasv.org
The Lil School,Child Care Center,8089 Madison Ave #11,Citrus Heights,CA,95610,(916) 962-2137,gloria@thelilschool.com
Dingeman Extended Day Child Care Program,Child Care Center,11107 Scripps Poway Parkway,San Diego,CA,92123,(858) 565-4148,sayextendeddayprogram@saysandiego.org
Kids on Campus @ Knob Hill Elementary,Child Care Center,1825 Knob Hill Rd,San Marcos,CA,92069,(760) 752-1279,carol.allen@smusd.org
KidsPark Inc,Child Care Center,5440 Thornwood Dr,San Jose,CA,95123,(408) 213-0973,debbie@kidspark.com
Sunshine - Fair Oaks Preschool,Child Care Center,26933 Silverbell Lane,Canyon Country,CA,91387,(661) 424-1900,george@sunshinedaycamp.com
Charlotte Findlay,Family Child Care Home,,Antelope,CA,95843,(916) 833-0974,charfindlay@comcast.net
Macedo Family Child Care,Family Child Care Home,,Wildomar,CA,92595,(951) 970-4485,macedoerica@yahoo.com
Montessori At Home,Family Child Care Home,,Irvine,CA,92612,(949) 351-5827,elizadasmah@yahoo.com
Cori Franklin,Family Child Care Home,,El Cajon,CA,92019,(619) 962-8348,c_earline@yahoo.com
Choi Kids Town Center,Child Care Center,18101 Lassen St,Northridge,CA,91325,(818) 886-4898,kidstown1@hotmail.com
KCE Champions LLC @ Elevate Tierrasanta,Child Care Center,5606 Antigua Blvd,San Diego,CA,92124,(619) 746-9178,subsidy@kc-education.com
Cordova Baptist Preschool ,Child Care Center,10527 Coloma Road,Rancho Cordova,CA,95670,(916) 638-5506,cbpk@att.net
Stepping Stones Preschool,Child Care Center,1001 Stone Canyon Dr,Roseville,CA,95661,(916) 772-9304,sspreschoolroseville@gmail.com
Lilia Salgao Daycare,Family Child Care Home,,Watsonville,CA,95076,(831) 763-0610,lilia_salgado@att.net
Dandy Lion Montessori School,Child Care Center,1089 Baden Ave.,Grover Beach,CA,93433,(805) 481-1735,office@dandylionmontessori.com
Salazar Family Child Care,Family Child Care Home,,Covina,CA,91722,(626) 430-6377,kiddiecove1234@gmail.com
Rancho Murieta Learning Center,Child Care Center,7248 Murieta Dr Ste B8,Rancho Murieta,CA,95683,(916) 354-4163,rmlearningcenter@hotmail.com
Ace Tots Preschool,Child Care Center,7204 Shoreline Dr,Stockton,CA,95219,(209) 330-1030,info@acetots.com
"Lopez, Iliana Family Child Care",Family Child Care Home,,Chula Vista,CA,91913,(619) 504-8156,lopezchildcare@outlook.com
Mount Zion Christian School,Child Care Center,224 W California St,Ontario,CA,91762,(909) 983-2411,ryoung@mtzionontario.com
Dorthina Morris Family Child Care,Family Child Care Home,,Fresno,CA,93720,(559) 779-4000,aheartofchrist@aol.com
Alexa's PLAYC,Child Care Center,25170 Hancock Ave,Murrieta,CA,92562,(858) 966-8797,bcorbin@rchsd.org
Montessori Greenhouse Schools,Child Care Center,5856 Belgrave Ave,Garden Grove,CA,92845,(714) 897-3833,emma.gilani@montessorigreenhouse.com
Rancho Murieta Learning Center,Child Care Center,"7277 Lone Pine, Suite 102",Rancho Murieta,CA,95683,(916) 354-4163,rmlearningcenter@hotmail.com
Sandra Castro,Family Child Care Home,,Stockton,CA,95207,(209) 451-7502,U1053011@gmail.com
Gold Star Preschool,Child Care Center,335 South Ave,Jackson,CA,95642,(209) 256-8059,goldstarpreschool@yahoo.com
Adventure Club - Junction,Child Care Center,2150 Ellison Dr,Roseville,CA,95747,(916) 746-1260,jrutledge@roseville.ca.us
Notre Dame Infant and Preschool Center,Child Care Center,21704 W. Golden Triangle Rd. Suite 120,Santa Clarita,CA,91350,(661) 255-0053,notredamepreschool@gmail.com
Notre Dame Family Services,Child Care Center,21706 W. Golden Triangle Rd. Suite 201,Santa Clarita,CA,91350,(661) 255-0053,notredamefs@gmail.com
Harlan Family Child Care,Family Child Care Home,,Chino,CA,91710,(909) 364-1888,sharonharlan@verizon.net
Hill Family Child Care,Family Child Care Home,,Oxnard,CA,93036,(805) 616-8348,hillfamilychildcare07@gmail.com
Alma Mendoza,Family Child Care Home,,San Jose,CA,95116,(408) 334-5018,craftykidos1@gmail.com
Glendale Presbyterian Preschool,Child Care Center,125 S Louise St,Glendale,CA,91205,(818) 242-2660,gpcpreschool@gmail.com
St Kieran's Preschool ,Child Care Center,1347 Camillo Way,El Cajon,CA,92021,(619) 588-6881,bookkeeper@stkierans.sdcoxmail.com
Riley Family Child Care,Family Child Care Home,,Moreno Valley,CA,92553,(951) 563-7279,rtonnetta@yahoo.com
The Learning Experience ,Child Care Center,515 E Alessandro Blvd,Riverside,CA,92508,(951) 776-2459,riverside@tlechildcare.com
"Trump's Del Mar Hills Nursery School, Inc",Child Care Center,13692 Mango Drive,Del Mar,CA,92014,(619) 301-7256,pollytrump@hotmail.com
Peppertree Montessori,Child Care Center,427 College Blvd. Suite I,Oceanside,CA,92057,(760) 940-1931,lynn.garcia@prece.com
Assurance Home Day Care,Family Child Care Home,,Menifee,CA,92585,(571) 274-0747,anita.amponsah@gmail.com
Montessori East County Preschool - Infant Location,Child Care Center,9836 Maine Ave.,Lakeside,CA,92040,(619) 561-0902,mclaub@cox.net
Nicole Crumble-Ward Family Child Care,Family Child Care Home,,Fresno,CA,93727,(559) 320-5985,ncrumble1@yahoo.com
Cuevas Family Child Care ,Family Child Care Home,,San Jancinto,CA,92582,(951) 210-0530,toyacm848@gmail.com
Buchanan Elementary ,Child Care Center,40121 Torrey Pines Rd,Murrieta,CA,92562,(951) 696-1600,dvenegas@murrieta.k12.ca.us
Emagine U at Play	,Child Care Center,14420 Elsworth St Suite 103 & 106,Moreno Valley,CA,92553,(951) 656-3490,emagineuatplay@yahoo.com
Learning Lab Preschool,Child Care Center,5000 Barranca Pkwy,Irvine,CA,92604,(949) 339-3511,info@learninglabpreschool.com
DMUSD After School Program @ Sage Canyon,Child Care Center,5290 Harvest Run Dr,San Diego,CA,92130,(858) 793-0071,pliu@dmusd.org
Hurtado Family Child Care,Family Child Care Home,,Diamond Bar,CA,91765,(909) 396-7110,monocananga@aol.com
Evergreen Learning Center,Child Care Center,7631 Evergreen Dr,Goleta,CA,93117,(805) 685-7725,loretta@evergreensb.com
Learning Tree Montessori Preschool,Family Child Care Home,,Lancaster,CA,93534,(661) 400-5271,learningtree1642@yahoo.com
Sunrise Children's Center,Child Care Center,1421 Rimpau Ave,Corona,CA,92879,(951) 272-2022,amithmass@yahoo.com
Wiz Child Center Inc,Child Care Center,119 West Arbor Vitae St,Inglewood,CA,90301,(310) 671-4246,jerryhale1302@yahoo.com
"Jeffries, Maria Family Child Care",Family Child Care Home,,San Diego,CA,92105,(619) 756-7578,mariajeffrieschildcare@yahoo.com
"Perez, Sonja Family Child Care",Family Child Care Home,,Hanford,CA,93230,(650) 534-7596,sonjaperez101@gmail.com
"Luna, Jennifer Family Child Care",Child Care Center,1940 N. Kensington Way,Hanford,CA,93230,(559) 737-8735,jennjulz@sbcglobal.net
Alvarez Family Child Care,Family Child Care Home,,Playa Vista,CA,90094,(310) 591-6060,alvarezcamila1987@gmail.com
Bancroft 4th R,Child Care Center,2929 Belmar St,Sacramento,CA,95826,(916) 277-6100,rpatterson@cityofsacramento.org
Ahlstrand Family Child Care,Family Child Care Home,,Corona,CA,92880,(714) 651-1295,devinleahlstrand@aol.com
YMCA of Metro Los Angeles/NV El Oro Way,Child Care Center,12230 El Oro Way,Granada Hills,CA,91344,(818) 368-3231,lauriepinkston@ymcala.org
Towne and Country Early Education Center,Child Care Center,201 E. Madison Avenue,Placentia,CA,92870,(714) 524-2780,towneandcountryeec@gmail.com
Adventure Club School Age- Cirby School,Child Care Center,814 Darling Way,Roseville,CA,95678,(916) 746-1260,jrutledge@roseville.ca.us
Carlsbad Educational Foundation- Kelly Elem.,Child Care Center,4885 Kelly Dr.,Carlsbad,CA,92008,(760) 331-5566,melisa@carlsbaded.org
Trajan Discovery Club-Trajan Elementary,Child Care Center,6601 Trajan Dr,Orangevale,CA,95662,(916) 971-5941,diane.schneider@sanjuan.edu
Patricia Estey ,Family Child Care Home,,Antelope,CA,95843,(916) 716-3760,paestey@yahoo.com
Sweet Busy Bees,Child Care Center,1833 Oceanside Blvd Suite B,Oceanside,CA,92054,(760) 721-6358,sweetbusybees@live.com
Small World Learning CTR No 2,Child Care Center,1749 N Avalon Blvd,Wilmington,CA,90744,(310) 549-0303,lajuana@swlckidz.org
"Alexander, Patricia",Family Child Care Home,,Elk Grove,CA,95758,(916) 691-6821,misspatdc@aol.com
Big Future Charter Preschool,Child Care Center,933 W San Marcos Blvd,San Marcos,CA,92078,(760) 744-3900,jvillafana@bigfutureschool.com
Building Kidz School- Eureka,Child Care Center,1485 Eureka Road Suite G170,Roseville,CA,95661,(916) 780-5437,davidt@buildingkidz.com
"Cortez, Juana Family Child Care",Family Child Care Home,,San Diego,CA,92139,(619) 475-2868,juana.cortez@ymail.com
KCE Champions LLC @ Growth Public Schools,Child Care Center,9320 Tech Center Drive,Sacramento,CA,95826,(503) 872-1464,subsidy@kc-education.com
Isaza Sandra,Family Child Care Home,,Santa Clara,CA,95051,(408) 595-1808,myfirststationdaycare@gmail.com
Rainbow Rising Â– Cypress Village,Child Care Center,355 Rush Lily,Irvine,CA,92620,(949) 333-1488,scholarship@rainbowrising.org
Berling Family Child Care,Family Child Care Home,,Hemet,CA,92545,(951) 489-7486,berlingfamilychildcare@gmail.com
Brenda Cuesta FCCH,Family Child Care Home,,Fairfield,CA,94534,(707) 514-9112,pequesfdc@icloud.com
Maria Gonzalez,Family Child Care Home,,Los Gatos,CA,95033,(408) 353-8695,missmariaeg@gmail.com
Rashid Family Child Care,Family Child Care Home,,San Pedro,CA,90732,(562) 337-4502,shamadrashid@gmail.com
Ortega Family Child Care,Family Child Care Home,,Covina,CA,91722,(626) 419-1858,ortegafamilyfour@gmail.com
KCE Champions LLC @ Mason,Child Care Center,10340 San Ramon Drive,San Diego,CA,92126,(503) 872-1464,subsidy@kc-education.com
Kid Ventures Liberty Station Preschool,Child Care Center,2865 Sims Road,San Diego,CA,92106,(619) 573-9625,christena@sdkidventures.com
Ocean View Pre-School,Child Care Center,1900 Western Ave,San Pedro,CA,90732,(310) 514-1048,preschool@oceanview.org
Del Villar Karla Family Child Care,Family Child Care Home,,Chula Vista,CA,91913,(619) 633-8314,karlaptj@gmail.com
Portside Montessori - Infant Center,Child Care Center,3170 Jefferson Blvd. Suite 175,West Sacramento,CA,95691,(916) 372-7100,portsidemontessori@yahoo.com
KinderCare Education LLC,Child Care Center,334 28th Avenue,San Francisco,CA,94121,(415) 221-6133,mothergooseschool@scbglobal.net
Long Beach Day Nursery - East Branch,Child Care Center,3965 N Bellflower Blvd,Long Beach,CA,90808,(562) 591-0509,mblevins@lbdn.org
Eresvey Perales,Family Child Care Home,,Elk Grove,CA,95758,(408) 674-6988,eresvey13@hotmail.com
ABC Child Care Center,Child Care Center,29705 Solana Way,Temecula,CA,92591,(951) 699-5251,bbonazinga@abccares.com
Maliha Edrisavifeyah Family Child Care,Family Child Care Home,,San Diego,CA,92127,(858) 705-9138,malihomecare@yahoo.com
Jody Lynn Family Childcare,Family Child Care Home,,Santee,CA,92071,(619) 672-6299,greensproutsfamilychildcare@gmail.com
Kellys Keys Child Development Center,Family Child Care Home,,Chula Vista,CA,91915,(407) 683-1449,kellyskeyscdc@gmail.com
Jayasinghe Family Child Care,Family Child Care Home,,Menifee,CA,92584,(951) 746-3256,ranjani.jayasinghe@yahoo.com
Guidepost Montessori at Mill Valley ,Child Care Center,270 Miller Avenue,Mill Valley,CA,94941,(628) 215-1881,millvalley-leadership@guidepostmontessori.com
Guidepost Montessori at Palo Alto,Child Care Center,930 Emerson St,Palo Alto,CA,94301,(650) 382-0550,paloalto-leadership@guidepostmontessori.com
St. Peter Claver Preschool and Kindergarten,Child Care Center,5670 Cochran St,Simi Valley,CA,93063,(805) 526-2244,ameyer@stpeterclaverschool.org
"Durham, Robyn & Billy ",Family Child Care Home,,Lincoln,CA,95648,(916) 543-8547,brdurham@ymail.com
The Little Tree Preschool,Child Care Center,1690 E. Main Street,Ventura,CA,93001,(805) 652-1609,lydia@littletreepreschool.com
Dana L. Aughney,Family Child Care Home,,Pacifica,CA,94044,(415) 233-2265,childsplayce@gmail.com
"Rubio De Quiles, Karina Family Child Care",Family Child Care Home,,Chula Vista,CA,91913,(619) 778-7322,creativelittleminds@hotmail.com
Little Seeds of Hope Daycare and Preschool,Family Child Care Home,,San Diego,CA,92129,(858) 722-1279,littleseedsofhopedaycare@gmail.com
Figueroa Family Child Care,Family Child Care Home,,Winchester,CA,92596,(951) 595-7265,missapple@learningwithapples.com
Guidepost Montessori at Emeryville,Child Care Center,1450 63rd Street,Emeryville,CA,94608,(510) 250-3792,jwawrzyniec@tohigherground.com
Guidepost Montessori at Fort Mason,Child Care Center,3741 Buchanan Street,San Francisco,CA,94123,(415) 429-2008,fortmason-leadership@guidepostmontessori.com
Guidepost Montessori at Copper Hill,Child Care Center,25135 Rye Canyon Loop,Santa Clarita,CA,91355,(747) 800-4150,jwawrzyniec@tohigherground.com
Guidepost Montessori Foothill Ranch,Child Care Center,26462 Towne Centre Drive,Foothill Ranch,CA,92610,(949) 340-1695,jwawrzyniec@tohigherground.com
"Liao, Cuihong",Family Child Care Home,,San Ramon,CA,94583,(925) 743-1190,mingliangchinese@yahoo.com
Montessori Children's House of the West Coast,Child Care Center,25 Lake Street,San Francisco,CA,94118,(415) 922-9235,graceelliott@mchsf.com
Guidepost Montessori at Las Flores,Child Care Center,28672 Deerpath,Rancho Sta Margarita,CA,92688,(949) 339-2010,jwawrzyniec@tohigherground.com
Guidepost Montessori at Folsom,Child Care Center,777 Levy Road,Folsom,CA,95630,(916) 836-8899,folsom-leadership@guidepostmontessori.com
Guidepost Montessori at Plum,Child Care Center,19141 Skyline Ranch Road,Santa Clarita,CA,91350,(661) 888-4572,plumcanyon-leadership@guidepostmontessori.com
Cruz Family Child Care,Family Child Care Home,,Oceanside,CA,92057,(917) 749-9444,ourfamilydaycare2018@aol.com
"Saucedo, Arlene Family Child Care",Family Child Care Home,,San Diego,CA,92154,(619) 279-7600,mymunchkinpalace@gmail.com
Tennakoon Family Child Care,Family Child Care Home,,Duarte,CA,91010,(626) 927-8974,senanayake.asha@gmail.com
